<?xml version="1.0" encoding="UTF-8"?>
<gpx xmlns="http://www.topografix.com/GPX/1/1" xmlns:gpxtpx="http://www.garmin.com/xmlschemas/TrackPointExtension/v1" xmlns:xsi="http://www.w3.org/2001/XMLSchema-instance" xsi:schemaLocation="http://www.topografix.com/GPX/1/1 http://www.topografix.com/GPX/1/1/gpx.xsd" version="1.1" creator="gpx.py -- https://github.com/tkrajina/gpxpy">
  <trk>
    <name>gpx from keep</name>
    <type>Run</type>
    <trkseg>
      <trkpt lat="30.9377306373265" lon="113.55623888236381">
        <ele>31.10781478881836</ele>
        <time>2022-10-16T13:09:45Z</time>
      </trkpt>
      <trkpt lat="30.937649387055615" lon="113.5559312336728">
        <ele>34.51168455183506</ele>
        <time>2022-10-16T13:10:05Z</time>
      </trkpt>
      <trkpt lat="30.937627466476535" lon="113.55580946583638">
        <ele>35.785732422955334</ele>
        <time>2022-10-16T13:10:13Z</time>
      </trkpt>
      <trkpt lat="30.93759638510163" lon="113.55574868239717">
        <ele>32.403988904319704</ele>
        <time>2022-10-16T13:10:17Z</time>
      </trkpt>
      <trkpt lat="30.937584167578663" lon="113.5555603802438">
        <ele>33.06182599440217</ele>
        <time>2022-10-16T13:10:29Z</time>
      </trkpt>
      <trkpt lat="30.93754056141506" lon="113.55544898823953">
        <ele>34.04769696947187</ele>
        <time>2022-10-16T13:10:37Z</time>
      </trkpt>
      <trkpt lat="30.937478832423384" lon="113.55540264920037">
        <ele>33.15417201817036</ele>
        <time>2022-10-16T13:10:41Z</time>
      </trkpt>
      <trkpt lat="30.93719548595021" lon="113.555341390742">
        <ele>32.45502245798707</ele>
        <time>2022-10-16T13:11:01Z</time>
        <extensions>
          <gpxtpx:TrackPointExtension>
            <gpxtpx:hr>98</gpxtpx:hr>
          </gpxtpx:TrackPointExtension>
        </extensions>
      </trkpt>
      <trkpt lat="30.93692714062771" lon="113.55530762997377">
        <ele>31.895536825992167</ele>
        <time>2022-10-16T13:11:21Z</time>
        <extensions>
          <gpxtpx:TrackPointExtension>
            <gpxtpx:hr>103</gpxtpx:hr>
          </gpxtpx:TrackPointExtension>
        </extensions>
      </trkpt>
      <trkpt lat="30.936873455422848" lon="113.5552733399014">
        <ele>32.26136726886034</ele>
        <time>2022-10-16T13:11:25Z</time>
        <extensions>
          <gpxtpx:TrackPointExtension>
            <gpxtpx:hr>103</gpxtpx:hr>
          </gpxtpx:TrackPointExtension>
        </extensions>
      </trkpt>
      <trkpt lat="30.93672725341566" lon="113.55495780263163">
        <ele>32.2125412998721</ele>
        <time>2022-10-16T13:11:45Z</time>
        <extensions>
          <gpxtpx:TrackPointExtension>
            <gpxtpx:hr>105</gpxtpx:hr>
          </gpxtpx:TrackPointExtension>
        </extensions>
      </trkpt>
      <trkpt lat="30.936667819131692" lon="113.55484481990568">
        <ele>32.173504408448935</ele>
        <time>2022-10-16T13:11:53Z</time>
        <extensions>
          <gpxtpx:TrackPointExtension>
            <gpxtpx:hr>103</gpxtpx:hr>
          </gpxtpx:TrackPointExtension>
        </extensions>
      </trkpt>
      <trkpt lat="30.93655040029473" lon="113.55469287787012">
        <ele>31.884000181220472</ele>
        <time>2022-10-16T13:12:05Z</time>
        <extensions>
          <gpxtpx:TrackPointExtension>
            <gpxtpx:hr>106</gpxtpx:hr>
          </gpxtpx:TrackPointExtension>
        </extensions>
      </trkpt>
      <trkpt lat="30.936505140945997" lon="113.55452146365599">
        <ele>33.704627082683146</ele>
        <time>2022-10-16T13:12:14Z</time>
        <extensions>
          <gpxtpx:TrackPointExtension>
            <gpxtpx:hr>108</gpxtpx:hr>
          </gpxtpx:TrackPointExtension>
        </extensions>
      </trkpt>
      <trkpt lat="30.936333479475703" lon="113.55422646869722">
        <ele>32.40463257860392</ele>
        <time>2022-10-16T13:12:29Z</time>
        <extensions>
          <gpxtpx:TrackPointExtension>
            <gpxtpx:hr>114</gpxtpx:hr>
          </gpxtpx:TrackPointExtension>
        </extensions>
      </trkpt>
      <trkpt lat="30.93622670126263" lon="113.55399258582192">
        <ele>31.530128244310617</ele>
        <time>2022-10-16T13:12:41Z</time>
        <extensions>
          <gpxtpx:TrackPointExtension>
            <gpxtpx:hr>122</gpxtpx:hr>
          </gpxtpx:TrackPointExtension>
        </extensions>
      </trkpt>
      <trkpt lat="30.93603884690353" lon="113.55372474505589">
        <ele>31.436705896630883</ele>
        <time>2022-10-16T13:12:56Z</time>
        <extensions>
          <gpxtpx:TrackPointExtension>
            <gpxtpx:hr>128</gpxtpx:hr>
          </gpxtpx:TrackPointExtension>
        </extensions>
      </trkpt>
      <trkpt lat="30.93582562512629" lon="113.5534473873723">
        <ele>30.41338748205453</ele>
        <time>2022-10-16T13:13:13Z</time>
        <extensions>
          <gpxtpx:TrackPointExtension>
            <gpxtpx:hr>126</gpxtpx:hr>
          </gpxtpx:TrackPointExtension>
        </extensions>
      </trkpt>
      <trkpt lat="30.935664227109108" lon="113.55316287180149">
        <ele>30.977718234062195</ele>
        <time>2022-10-16T13:13:29Z</time>
        <extensions>
          <gpxtpx:TrackPointExtension>
            <gpxtpx:hr>131</gpxtpx:hr>
          </gpxtpx:TrackPointExtension>
        </extensions>
      </trkpt>
      <trkpt lat="30.935517147270456" lon="113.55289023783223">
        <ele>30.98074236419052</ele>
        <time>2022-10-16T13:13:45Z</time>
        <extensions>
          <gpxtpx:TrackPointExtension>
            <gpxtpx:hr>129</gpxtpx:hr>
          </gpxtpx:TrackPointExtension>
        </extensions>
      </trkpt>
      <trkpt lat="30.935356905459415" lon="113.5525738939757">
        <ele>31.167401807382703</ele>
        <time>2022-10-16T13:14:04Z</time>
        <extensions>
          <gpxtpx:TrackPointExtension>
            <gpxtpx:hr>133</gpxtpx:hr>
          </gpxtpx:TrackPointExtension>
        </extensions>
      </trkpt>
      <trkpt lat="30.935216431114934" lon="113.55224637221919">
        <ele>30.17572937346995</ele>
        <time>2022-10-16T13:14:22Z</time>
        <extensions>
          <gpxtpx:TrackPointExtension>
            <gpxtpx:hr>135</gpxtpx:hr>
          </gpxtpx:TrackPointExtension>
        </extensions>
      </trkpt>
      <trkpt lat="30.935069229481876" lon="113.55190970573685">
        <ele>30.61622889433056</ele>
        <time>2022-10-16T13:14:40Z</time>
        <extensions>
          <gpxtpx:TrackPointExtension>
            <gpxtpx:hr>130</gpxtpx:hr>
          </gpxtpx:TrackPointExtension>
        </extensions>
      </trkpt>
      <trkpt lat="30.934956180558924" lon="113.55167606216675">
        <ele>29.93782140687108</ele>
        <time>2022-10-16T13:14:52Z</time>
        <extensions>
          <gpxtpx:TrackPointExtension>
            <gpxtpx:hr>133</gpxtpx:hr>
          </gpxtpx:TrackPointExtension>
        </extensions>
      </trkpt>
      <trkpt lat="30.934928203084425" lon="113.5515388616583">
        <ele>29.88539534714073</ele>
        <time>2022-10-16T13:15:00Z</time>
        <extensions>
          <gpxtpx:TrackPointExtension>
            <gpxtpx:hr>134</gpxtpx:hr>
          </gpxtpx:TrackPointExtension>
        </extensions>
      </trkpt>
      <trkpt lat="30.934953303749502" lon="113.55138815145378">
        <ele>30.50418719649315</ele>
        <time>2022-10-16T13:15:08Z</time>
        <extensions>
          <gpxtpx:TrackPointExtension>
            <gpxtpx:hr>134</gpxtpx:hr>
          </gpxtpx:TrackPointExtension>
        </extensions>
      </trkpt>
      <trkpt lat="30.935025772790826" lon="113.55124829047246">
        <ele>30.744442347437143</ele>
        <time>2022-10-16T13:15:16Z</time>
        <extensions>
          <gpxtpx:TrackPointExtension>
            <gpxtpx:hr>136</gpxtpx:hr>
          </gpxtpx:TrackPointExtension>
        </extensions>
      </trkpt>
      <trkpt lat="30.935232539317422" lon="113.5510271231913">
        <ele>30.15261324774474</ele>
        <time>2022-10-16T13:15:32Z</time>
        <extensions>
          <gpxtpx:TrackPointExtension>
            <gpxtpx:hr>135</gpxtpx:hr>
          </gpxtpx:TrackPointExtension>
        </extensions>
      </trkpt>
      <trkpt lat="30.93542597360776" lon="113.55079381602786">
        <ele>30.72798198275268</ele>
        <time>2022-10-16T13:15:48Z</time>
        <extensions>
          <gpxtpx:TrackPointExtension>
            <gpxtpx:hr>126</gpxtpx:hr>
          </gpxtpx:TrackPointExtension>
        </extensions>
      </trkpt>
      <trkpt lat="30.935379594304813" lon="113.55072016905505">
        <ele>31.60384106449783</ele>
        <time>2022-10-16T13:15:52Z</time>
        <extensions>
          <gpxtpx:TrackPointExtension>
            <gpxtpx:hr>134</gpxtpx:hr>
          </gpxtpx:TrackPointExtension>
        </extensions>
      </trkpt>
      <trkpt lat="30.935071005604474" lon="113.55068055010794">
        <ele>32.23429354839027</ele>
        <time>2022-10-16T13:16:10Z</time>
        <extensions>
          <gpxtpx:TrackPointExtension>
            <gpxtpx:hr>137</gpxtpx:hr>
          </gpxtpx:TrackPointExtension>
        </extensions>
      </trkpt>
      <trkpt lat="30.934737372714316" lon="113.55066244203763">
        <ele>31.428993199020624</ele>
        <time>2022-10-16T13:16:29Z</time>
        <extensions>
          <gpxtpx:TrackPointExtension>
            <gpxtpx:hr>137</gpxtpx:hr>
          </gpxtpx:TrackPointExtension>
        </extensions>
      </trkpt>
      <trkpt lat="30.934437207448365" lon="113.55065740701836">
        <ele>32.03468311484903</ele>
        <time>2022-10-16T13:16:45Z</time>
        <extensions>
          <gpxtpx:TrackPointExtension>
            <gpxtpx:hr>135</gpxtpx:hr>
          </gpxtpx:TrackPointExtension>
        </extensions>
      </trkpt>
      <trkpt lat="30.934390342972975" lon="113.55072338573885">
        <ele>32.93736348580569</ele>
        <time>2022-10-16T13:16:49Z</time>
        <extensions>
          <gpxtpx:TrackPointExtension>
            <gpxtpx:hr>136</gpxtpx:hr>
          </gpxtpx:TrackPointExtension>
        </extensions>
      </trkpt>
      <trkpt lat="30.934404428194515" lon="113.5508279899346">
        <ele>31.615979825146496</ele>
        <time>2022-10-16T13:16:53Z</time>
        <extensions>
          <gpxtpx:TrackPointExtension>
            <gpxtpx:hr>136</gpxtpx:hr>
          </gpxtpx:TrackPointExtension>
        </extensions>
      </trkpt>
      <trkpt lat="30.934371793508546" lon="113.55098792788496">
        <ele>30.822844102047384</ele>
        <time>2022-10-16T13:17:01Z</time>
        <extensions>
          <gpxtpx:TrackPointExtension>
            <gpxtpx:hr>137</gpxtpx:hr>
          </gpxtpx:TrackPointExtension>
        </extensions>
      </trkpt>
      <trkpt lat="30.934275622312104" lon="113.55128804136237">
        <ele>29.96515440288931</ele>
        <time>2022-10-16T13:17:17Z</time>
        <extensions>
          <gpxtpx:TrackPointExtension>
            <gpxtpx:hr>137</gpxtpx:hr>
          </gpxtpx:TrackPointExtension>
        </extensions>
      </trkpt>
      <trkpt lat="30.93423069289918" lon="113.5515307387448">
        <ele>31.16426903102547</ele>
        <time>2022-10-16T13:17:29Z</time>
        <extensions>
          <gpxtpx:TrackPointExtension>
            <gpxtpx:hr>140</gpxtpx:hr>
          </gpxtpx:TrackPointExtension>
        </extensions>
      </trkpt>
      <trkpt lat="30.934249127644858" lon="113.551848973195">
        <ele>31.490067664533854</ele>
        <time>2022-10-16T13:17:45Z</time>
        <extensions>
          <gpxtpx:TrackPointExtension>
            <gpxtpx:hr>139</gpxtpx:hr>
          </gpxtpx:TrackPointExtension>
        </extensions>
      </trkpt>
      <trkpt lat="30.934321980855078" lon="113.55209946979772">
        <ele>31.430357077158988</ele>
        <time>2022-10-16T13:17:57Z</time>
        <extensions>
          <gpxtpx:TrackPointExtension>
            <gpxtpx:hr>136</gpxtpx:hr>
          </gpxtpx:TrackPointExtension>
        </extensions>
      </trkpt>
      <trkpt lat="30.934469124931475" lon="113.5524355262412">
        <ele>32.757784912362695</ele>
        <time>2022-10-16T13:18:15Z</time>
        <extensions>
          <gpxtpx:TrackPointExtension>
            <gpxtpx:hr>141</gpxtpx:hr>
          </gpxtpx:TrackPointExtension>
        </extensions>
      </trkpt>
      <trkpt lat="30.93450775708151" lon="113.55255334401726">
        <ele>31.76211308594793</ele>
        <time>2022-10-16T13:18:21Z</time>
        <extensions>
          <gpxtpx:TrackPointExtension>
            <gpxtpx:hr>141</gpxtpx:hr>
          </gpxtpx:TrackPointExtension>
        </extensions>
      </trkpt>
      <trkpt lat="30.934609692306427" lon="113.55270224213164">
        <ele>33.36524651385844</ele>
        <time>2022-10-16T13:18:30Z</time>
        <extensions>
          <gpxtpx:TrackPointExtension>
            <gpxtpx:hr>139</gpxtpx:hr>
          </gpxtpx:TrackPointExtension>
        </extensions>
      </trkpt>
      <trkpt lat="30.934733529927065" lon="113.55301608053864">
        <ele>34.04769297409803</ele>
        <time>2022-10-16T13:18:46Z</time>
        <extensions>
          <gpxtpx:TrackPointExtension>
            <gpxtpx:hr>142</gpxtpx:hr>
          </gpxtpx:TrackPointExtension>
        </extensions>
      </trkpt>
      <trkpt lat="30.934800200073727" lon="113.55315735590341">
        <ele>35.1456409804523</ele>
        <time>2022-10-16T13:18:54Z</time>
        <extensions>
          <gpxtpx:TrackPointExtension>
            <gpxtpx:hr>142</gpxtpx:hr>
          </gpxtpx:TrackPointExtension>
        </extensions>
      </trkpt>
      <trkpt lat="30.934936049939523" lon="113.55335512494852">
        <ele>34.391692236065865</ele>
        <time>2022-10-16T13:19:06Z</time>
        <extensions>
          <gpxtpx:TrackPointExtension>
            <gpxtpx:hr>141</gpxtpx:hr>
          </gpxtpx:TrackPointExtension>
        </extensions>
      </trkpt>
      <trkpt lat="30.934970671316375" lon="113.55343946885088">
        <ele>33.68224935140461</ele>
        <time>2022-10-16T13:19:10Z</time>
        <extensions>
          <gpxtpx:TrackPointExtension>
            <gpxtpx:hr>141</gpxtpx:hr>
          </gpxtpx:TrackPointExtension>
        </extensions>
      </trkpt>
      <trkpt lat="30.93513518249766" lon="113.55371014658243">
        <ele>31.604312459938228</ele>
        <time>2022-10-16T13:19:26Z</time>
        <extensions>
          <gpxtpx:TrackPointExtension>
            <gpxtpx:hr>144</gpxtpx:hr>
          </gpxtpx:TrackPointExtension>
        </extensions>
      </trkpt>
      <trkpt lat="30.93530168348736" lon="113.55398810647607">
        <ele>30.566511030308902</ele>
        <time>2022-10-16T13:19:42Z</time>
        <extensions>
          <gpxtpx:TrackPointExtension>
            <gpxtpx:hr>141</gpxtpx:hr>
          </gpxtpx:TrackPointExtension>
        </extensions>
      </trkpt>
      <trkpt lat="30.935451927778452" lon="113.55429069124793">
        <ele>30.718870475888252</ele>
        <time>2022-10-16T13:19:58Z</time>
        <extensions>
          <gpxtpx:TrackPointExtension>
            <gpxtpx:hr>141</gpxtpx:hr>
          </gpxtpx:TrackPointExtension>
        </extensions>
      </trkpt>
      <trkpt lat="30.93548900594536" lon="113.55436546289171">
        <ele>30.70813924446702</ele>
        <time>2022-10-16T13:20:02Z</time>
        <extensions>
          <gpxtpx:TrackPointExtension>
            <gpxtpx:hr>141</gpxtpx:hr>
          </gpxtpx:TrackPointExtension>
        </extensions>
      </trkpt>
      <trkpt lat="30.935545287687916" lon="113.55443093306718">
        <ele>31.3993534501642</ele>
        <time>2022-10-16T13:20:06Z</time>
        <extensions>
          <gpxtpx:TrackPointExtension>
            <gpxtpx:hr>140</gpxtpx:hr>
          </gpxtpx:TrackPointExtension>
        </extensions>
      </trkpt>
      <trkpt lat="30.935724535045797" lon="113.55474724196836">
        <ele>31.477780681103468</ele>
        <time>2022-10-16T13:20:23Z</time>
        <extensions>
          <gpxtpx:TrackPointExtension>
            <gpxtpx:hr>145</gpxtpx:hr>
          </gpxtpx:TrackPointExtension>
        </extensions>
      </trkpt>
      <trkpt lat="30.935894245419416" lon="113.55504755349513">
        <ele>32.008897175081074</ele>
        <time>2022-10-16T13:20:39Z</time>
        <extensions>
          <gpxtpx:TrackPointExtension>
            <gpxtpx:hr>147</gpxtpx:hr>
          </gpxtpx:TrackPointExtension>
        </extensions>
      </trkpt>
      <trkpt lat="30.935947456001006" lon="113.55511805307412">
        <ele>31.155427088961005</ele>
        <time>2022-10-16T13:20:43Z</time>
        <extensions>
          <gpxtpx:TrackPointExtension>
            <gpxtpx:hr>147</gpxtpx:hr>
          </gpxtpx:TrackPointExtension>
        </extensions>
      </trkpt>
      <trkpt lat="30.936101867290137" lon="113.55541723549729">
        <ele>32.31978718563914</ele>
        <time>2022-10-16T13:20:59Z</time>
        <extensions>
          <gpxtpx:TrackPointExtension>
            <gpxtpx:hr>146</gpxtpx:hr>
          </gpxtpx:TrackPointExtension>
        </extensions>
      </trkpt>
      <trkpt lat="30.936262280679234" lon="113.55572840258013">
        <ele>31.57693476602435</ele>
        <time>2022-10-16T13:21:15Z</time>
        <extensions>
          <gpxtpx:TrackPointExtension>
            <gpxtpx:hr>145</gpxtpx:hr>
          </gpxtpx:TrackPointExtension>
        </extensions>
      </trkpt>
      <trkpt lat="30.936372212864025" lon="113.55596887982293">
        <ele>32.12153395731002</ele>
        <time>2022-10-16T13:21:27Z</time>
        <extensions>
          <gpxtpx:TrackPointExtension>
            <gpxtpx:hr>142</gpxtpx:hr>
          </gpxtpx:TrackPointExtension>
        </extensions>
      </trkpt>
      <trkpt lat="30.93641417929431" lon="113.55613960941189">
        <ele>31.32517004944384</ele>
        <time>2022-10-16T13:21:35Z</time>
        <extensions>
          <gpxtpx:TrackPointExtension>
            <gpxtpx:hr>146</gpxtpx:hr>
          </gpxtpx:TrackPointExtension>
        </extensions>
      </trkpt>
      <trkpt lat="30.936414693615024" lon="113.55631902186347">
        <ele>30.911903144791722</ele>
        <time>2022-10-16T13:21:43Z</time>
        <extensions>
          <gpxtpx:TrackPointExtension>
            <gpxtpx:hr>146</gpxtpx:hr>
          </gpxtpx:TrackPointExtension>
        </extensions>
      </trkpt>
      <trkpt lat="30.936385688651363" lon="113.55650174975021">
        <ele>30.752899622544646</ele>
        <time>2022-10-16T13:21:51Z</time>
        <extensions>
          <gpxtpx:TrackPointExtension>
            <gpxtpx:hr>146</gpxtpx:hr>
          </gpxtpx:TrackPointExtension>
        </extensions>
      </trkpt>
      <trkpt lat="30.93633405403657" lon="113.55666863733171">
        <ele>31.837979266420007</ele>
        <time>2022-10-16T13:21:59Z</time>
        <extensions>
          <gpxtpx:TrackPointExtension>
            <gpxtpx:hr>146</gpxtpx:hr>
          </gpxtpx:TrackPointExtension>
        </extensions>
      </trkpt>
      <trkpt lat="30.936198820113077" lon="113.55687306524447">
        <ele>31.327900207601488</ele>
        <time>2022-10-16T13:22:11Z</time>
        <extensions>
          <gpxtpx:TrackPointExtension>
            <gpxtpx:hr>146</gpxtpx:hr>
          </gpxtpx:TrackPointExtension>
        </extensions>
      </trkpt>
      <trkpt lat="30.936088086030225" lon="113.55698503728846">
        <ele>31.812691410072148</ele>
        <time>2022-10-16T13:22:19Z</time>
        <extensions>
          <gpxtpx:TrackPointExtension>
            <gpxtpx:hr>145</gpxtpx:hr>
          </gpxtpx:TrackPointExtension>
        </extensions>
      </trkpt>
      <trkpt lat="30.935831692421612" lon="113.55716762117044">
        <ele>32.72828435525298</ele>
        <time>2022-10-16T13:22:35Z</time>
        <extensions>
          <gpxtpx:TrackPointExtension>
            <gpxtpx:hr>144</gpxtpx:hr>
          </gpxtpx:TrackPointExtension>
        </extensions>
      </trkpt>
      <trkpt lat="30.935542682620408" lon="113.55729107352487">
        <ele>31.8142665065825</ele>
        <time>2022-10-16T13:22:51Z</time>
        <extensions>
          <gpxtpx:TrackPointExtension>
            <gpxtpx:hr>143</gpxtpx:hr>
          </gpxtpx:TrackPointExtension>
        </extensions>
      </trkpt>
      <trkpt lat="30.935281672488664" lon="113.55741557329519">
        <ele>31.599205650389194</ele>
        <time>2022-10-16T13:23:06Z</time>
        <extensions>
          <gpxtpx:TrackPointExtension>
            <gpxtpx:hr>142</gpxtpx:hr>
          </gpxtpx:TrackPointExtension>
        </extensions>
      </trkpt>
      <trkpt lat="30.935148672940517" lon="113.55746759006223">
        <ele>31.439859132282436</ele>
        <time>2022-10-16T13:23:14Z</time>
        <extensions>
          <gpxtpx:TrackPointExtension>
            <gpxtpx:hr>142</gpxtpx:hr>
          </gpxtpx:TrackPointExtension>
        </extensions>
      </trkpt>
      <trkpt lat="30.934863417368213" lon="113.55751640130205">
        <ele>32.52793934941292</ele>
        <time>2022-10-16T13:23:30Z</time>
        <extensions>
          <gpxtpx:TrackPointExtension>
            <gpxtpx:hr>140</gpxtpx:hr>
          </gpxtpx:TrackPointExtension>
        </extensions>
      </trkpt>
      <trkpt lat="30.934726680749616" lon="113.55751748945048">
        <ele>32.824115126393735</ele>
        <time>2022-10-16T13:23:38Z</time>
        <extensions>
          <gpxtpx:TrackPointExtension>
            <gpxtpx:hr>143</gpxtpx:hr>
          </gpxtpx:TrackPointExtension>
        </extensions>
      </trkpt>
      <trkpt lat="30.934652110907848" lon="113.557537045489">
        <ele>32.019671231508255</ele>
        <time>2022-10-16T13:23:42Z</time>
        <extensions>
          <gpxtpx:TrackPointExtension>
            <gpxtpx:hr>142</gpxtpx:hr>
          </gpxtpx:TrackPointExtension>
        </extensions>
      </trkpt>
      <trkpt lat="30.934379073129183" lon="113.55754551504937">
        <ele>31.801780108362436</ele>
        <time>2022-10-16T13:23:58Z</time>
        <extensions>
          <gpxtpx:TrackPointExtension>
            <gpxtpx:hr>139</gpxtpx:hr>
          </gpxtpx:TrackPointExtension>
        </extensions>
      </trkpt>
      <trkpt lat="30.93430639420527" lon="113.55755671038892">
        <ele>32.6391988247633</ele>
        <time>2022-10-16T13:24:02Z</time>
        <extensions>
          <gpxtpx:TrackPointExtension>
            <gpxtpx:hr>139</gpxtpx:hr>
          </gpxtpx:TrackPointExtension>
        </extensions>
      </trkpt>
      <trkpt lat="30.934081904824428" lon="113.55751328587507">
        <ele>32.694171397946775</ele>
        <time>2022-10-16T13:24:14Z</time>
        <extensions>
          <gpxtpx:TrackPointExtension>
            <gpxtpx:hr>144</gpxtpx:hr>
          </gpxtpx:TrackPointExtension>
        </extensions>
      </trkpt>
      <trkpt lat="30.93380088337683" lon="113.55743089810531">
        <ele>33.277045929804444</ele>
        <time>2022-10-16T13:24:29Z</time>
        <extensions>
          <gpxtpx:TrackPointExtension>
            <gpxtpx:hr>144</gpxtpx:hr>
          </gpxtpx:TrackPointExtension>
        </extensions>
      </trkpt>
      <trkpt lat="30.933522522363514" lon="113.55733768462544">
        <ele>33.671909294091165</ele>
        <time>2022-10-16T13:24:46Z</time>
        <extensions>
          <gpxtpx:TrackPointExtension>
            <gpxtpx:hr>143</gpxtpx:hr>
          </gpxtpx:TrackPointExtension>
        </extensions>
      </trkpt>
      <trkpt lat="30.933289104723904" lon="113.55728177570572">
        <ele>35.03594809025526</ele>
        <time>2022-10-16T13:24:58Z</time>
        <extensions>
          <gpxtpx:TrackPointExtension>
            <gpxtpx:hr>145</gpxtpx:hr>
          </gpxtpx:TrackPointExtension>
        </extensions>
      </trkpt>
      <trkpt lat="30.933036255953837" lon="113.55711408597553">
        <ele>33.2470646481961</ele>
        <time>2022-10-16T13:25:14Z</time>
        <extensions>
          <gpxtpx:TrackPointExtension>
            <gpxtpx:hr>143</gpxtpx:hr>
          </gpxtpx:TrackPointExtension>
        </extensions>
      </trkpt>
      <trkpt lat="30.932835297270117" lon="113.55686486841834">
        <ele>34.31886904500425</ele>
        <time>2022-10-16T13:25:30Z</time>
        <extensions>
          <gpxtpx:TrackPointExtension>
            <gpxtpx:hr>142</gpxtpx:hr>
          </gpxtpx:TrackPointExtension>
        </extensions>
      </trkpt>
      <trkpt lat="30.932681718341218" lon="113.55668255481356">
        <ele>33.6567738680169</ele>
        <time>2022-10-16T13:25:42Z</time>
        <extensions>
          <gpxtpx:TrackPointExtension>
            <gpxtpx:hr>147</gpxtpx:hr>
          </gpxtpx:TrackPointExtension>
        </extensions>
      </trkpt>
      <trkpt lat="30.9326183980702" lon="113.55662822908312">
        <ele>34.41590520273894</ele>
        <time>2022-10-16T13:25:46Z</time>
        <extensions>
          <gpxtpx:TrackPointExtension>
            <gpxtpx:hr>147</gpxtpx:hr>
          </gpxtpx:TrackPointExtension>
        </extensions>
      </trkpt>
      <trkpt lat="30.932589224660163" lon="113.5568127015283">
        <ele>34.28150845412165</ele>
        <time>2022-10-16T13:25:54Z</time>
        <extensions>
          <gpxtpx:TrackPointExtension>
            <gpxtpx:hr>144</gpxtpx:hr>
          </gpxtpx:TrackPointExtension>
        </extensions>
      </trkpt>
      <trkpt lat="30.932614610932372" lon="113.55697859961147">
        <ele>33.231986409053206</ele>
        <time>2022-10-16T13:26:02Z</time>
        <extensions>
          <gpxtpx:TrackPointExtension>
            <gpxtpx:hr>146</gpxtpx:hr>
          </gpxtpx:TrackPointExtension>
        </extensions>
      </trkpt>
      <trkpt lat="30.93260629343853" lon="113.55730456437273">
        <ele>32.105618313886225</ele>
        <time>2022-10-16T13:26:18Z</time>
        <extensions>
          <gpxtpx:TrackPointExtension>
            <gpxtpx:hr>146</gpxtpx:hr>
          </gpxtpx:TrackPointExtension>
        </extensions>
      </trkpt>
      <trkpt lat="30.93261211199208" lon="113.55747274591843">
        <ele>31.39338535349816</ele>
        <time>2022-10-16T13:26:26Z</time>
        <extensions>
          <gpxtpx:TrackPointExtension>
            <gpxtpx:hr>146</gpxtpx:hr>
          </gpxtpx:TrackPointExtension>
        </extensions>
      </trkpt>
      <trkpt lat="30.932598265474933" lon="113.55764819442554">
        <ele>31.655031382106245</ele>
        <time>2022-10-16T13:26:34Z</time>
        <extensions>
          <gpxtpx:TrackPointExtension>
            <gpxtpx:hr>146</gpxtpx:hr>
          </gpxtpx:TrackPointExtension>
        </extensions>
      </trkpt>
      <trkpt lat="30.932630121400788" lon="113.55777096016463">
        <ele>31.497727227397263</ele>
        <time>2022-10-16T13:26:40Z</time>
        <extensions>
          <gpxtpx:TrackPointExtension>
            <gpxtpx:hr>147</gpxtpx:hr>
          </gpxtpx:TrackPointExtension>
        </extensions>
      </trkpt>
      <trkpt lat="30.932885854841444" lon="113.55795020137401">
        <ele>31.87015268485993</ele>
        <time>2022-10-16T13:26:58Z</time>
        <extensions>
          <gpxtpx:TrackPointExtension>
            <gpxtpx:hr>143</gpxtpx:hr>
          </gpxtpx:TrackPointExtension>
        </extensions>
      </trkpt>
      <trkpt lat="30.93302797552922" lon="113.55801694519576">
        <ele>31.39787390548736</ele>
        <time>2022-10-16T13:27:07Z</time>
        <extensions>
          <gpxtpx:TrackPointExtension>
            <gpxtpx:hr>145</gpxtpx:hr>
          </gpxtpx:TrackPointExtension>
        </extensions>
      </trkpt>
      <trkpt lat="30.933321715371388" lon="113.55811696937911">
        <ele>30.288747737184167</ele>
        <time>2022-10-16T13:27:25Z</time>
        <extensions>
          <gpxtpx:TrackPointExtension>
            <gpxtpx:hr>144</gpxtpx:hr>
          </gpxtpx:TrackPointExtension>
        </extensions>
      </trkpt>
      <trkpt lat="30.933532581916975" lon="113.55817623292326">
        <ele>31.389468491077423</ele>
        <time>2022-10-16T13:27:37Z</time>
        <extensions>
          <gpxtpx:TrackPointExtension>
            <gpxtpx:hr>142</gpxtpx:hr>
          </gpxtpx:TrackPointExtension>
        </extensions>
      </trkpt>
      <trkpt lat="30.933608741397695" lon="113.55817329853932">
        <ele>32.685667973943055</ele>
        <time>2022-10-16T13:27:41Z</time>
        <extensions>
          <gpxtpx:TrackPointExtension>
            <gpxtpx:hr>139</gpxtpx:hr>
          </gpxtpx:TrackPointExtension>
        </extensions>
      </trkpt>
      <trkpt lat="30.93375204195115" lon="113.55821359886693">
        <ele>30.82889485731721</ele>
        <time>2022-10-16T13:27:49Z</time>
        <extensions>
          <gpxtpx:TrackPointExtension>
            <gpxtpx:hr>140</gpxtpx:hr>
          </gpxtpx:TrackPointExtension>
        </extensions>
      </trkpt>
      <trkpt lat="30.93395812030872" lon="113.55823154526857">
        <ele>31.05413229111582</ele>
        <time>2022-10-16T13:28:01Z</time>
        <extensions>
          <gpxtpx:TrackPointExtension>
            <gpxtpx:hr>140</gpxtpx:hr>
          </gpxtpx:TrackPointExtension>
        </extensions>
      </trkpt>
      <trkpt lat="30.934111044566187" lon="113.55827359794672">
        <ele>33.29863393679261</ele>
        <time>2022-10-16T13:28:09Z</time>
        <extensions>
          <gpxtpx:TrackPointExtension>
            <gpxtpx:hr>141</gpxtpx:hr>
          </gpxtpx:TrackPointExtension>
        </extensions>
      </trkpt>
      <trkpt lat="30.93423274274735" lon="113.55833349307146">
        <ele>32.903500547632575</ele>
        <time>2022-10-16T13:28:17Z</time>
        <extensions>
          <gpxtpx:TrackPointExtension>
            <gpxtpx:hr>142</gpxtpx:hr>
          </gpxtpx:TrackPointExtension>
        </extensions>
      </trkpt>
      <trkpt lat="30.934531005567564" lon="113.5583725987016">
        <ele>34.62967681046575</ele>
        <time>2022-10-16T13:28:33Z</time>
        <extensions>
          <gpxtpx:TrackPointExtension>
            <gpxtpx:hr>146</gpxtpx:hr>
          </gpxtpx:TrackPointExtension>
        </extensions>
      </trkpt>
      <trkpt lat="30.934608383671208" lon="113.55839127829181">
        <ele>34.93283984437585</ele>
        <time>2022-10-16T13:28:37Z</time>
        <extensions>
          <gpxtpx:TrackPointExtension>
            <gpxtpx:hr>146</gpxtpx:hr>
          </gpxtpx:TrackPointExtension>
        </extensions>
      </trkpt>
      <trkpt lat="30.93474728214292" lon="113.55838568440765">
        <ele>34.06252767518163</ele>
        <time>2022-10-16T13:28:45Z</time>
        <extensions>
          <gpxtpx:TrackPointExtension>
            <gpxtpx:hr>147</gpxtpx:hr>
          </gpxtpx:TrackPointExtension>
        </extensions>
      </trkpt>
      <trkpt lat="30.934897117777545" lon="113.5584049508891">
        <ele>34.47339082509279</ele>
        <time>2022-10-16T13:28:53Z</time>
        <extensions>
          <gpxtpx:TrackPointExtension>
            <gpxtpx:hr>144</gpxtpx:hr>
          </gpxtpx:TrackPointExtension>
        </extensions>
      </trkpt>
      <trkpt lat="30.93504437694067" lon="113.55836667500311">
        <ele>33.316595109179616</ele>
        <time>2022-10-16T13:29:01Z</time>
        <extensions>
          <gpxtpx:TrackPointExtension>
            <gpxtpx:hr>144</gpxtpx:hr>
          </gpxtpx:TrackPointExtension>
        </extensions>
      </trkpt>
      <trkpt lat="30.935330745644187" lon="113.5583766126944">
        <ele>34.067341978661716</ele>
        <time>2022-10-16T13:29:17Z</time>
        <extensions>
          <gpxtpx:TrackPointExtension>
            <gpxtpx:hr>136</gpxtpx:hr>
          </gpxtpx:TrackPointExtension>
        </extensions>
      </trkpt>
      <trkpt lat="30.935470680171864" lon="113.55833565460976">
        <ele>32.51703632902354</ele>
        <time>2022-10-16T13:29:25Z</time>
        <extensions>
          <gpxtpx:TrackPointExtension>
            <gpxtpx:hr>137</gpxtpx:hr>
          </gpxtpx:TrackPointExtension>
        </extensions>
      </trkpt>
      <trkpt lat="30.935606422431487" lon="113.55833893488881">
        <ele>34.86645792424679</ele>
        <time>2022-10-16T13:29:33Z</time>
        <extensions>
          <gpxtpx:TrackPointExtension>
            <gpxtpx:hr>144</gpxtpx:hr>
          </gpxtpx:TrackPointExtension>
        </extensions>
      </trkpt>
      <trkpt lat="30.9357437629696" lon="113.5582585414534">
        <ele>31.525361114181578</ele>
        <time>2022-10-16T13:29:41Z</time>
        <extensions>
          <gpxtpx:TrackPointExtension>
            <gpxtpx:hr>148</gpxtpx:hr>
          </gpxtpx:TrackPointExtension>
        </extensions>
      </trkpt>
      <trkpt lat="30.935978568049396" lon="113.55801013828088">
        <ele>31.43436277192086</ele>
        <time>2022-10-16T13:29:57Z</time>
        <extensions>
          <gpxtpx:TrackPointExtension>
            <gpxtpx:hr>147</gpxtpx:hr>
          </gpxtpx:TrackPointExtension>
        </extensions>
      </trkpt>
      <trkpt lat="30.936186344949693" lon="113.55778197897384">
        <ele>30.300513757392764</ele>
        <time>2022-10-16T13:30:13Z</time>
        <extensions>
          <gpxtpx:TrackPointExtension>
            <gpxtpx:hr>145</gpxtpx:hr>
          </gpxtpx:TrackPointExtension>
        </extensions>
      </trkpt>
      <trkpt lat="30.936288091980266" lon="113.55767684030495">
        <ele>30.678143352270126</ele>
        <time>2022-10-16T13:30:21Z</time>
        <extensions>
          <gpxtpx:TrackPointExtension>
            <gpxtpx:hr>145</gpxtpx:hr>
          </gpxtpx:TrackPointExtension>
        </extensions>
      </trkpt>
      <trkpt lat="30.936349687547747" lon="113.55764086898513">
        <ele>31.541303905658424</ele>
        <time>2022-10-16T13:30:25Z</time>
        <extensions>
          <gpxtpx:TrackPointExtension>
            <gpxtpx:hr>145</gpxtpx:hr>
          </gpxtpx:TrackPointExtension>
        </extensions>
      </trkpt>
      <trkpt lat="30.93643219180995" lon="113.5576334645752">
        <ele>32.201492477208376</ele>
        <time>2022-10-16T13:30:29Z</time>
        <extensions>
          <gpxtpx:TrackPointExtension>
            <gpxtpx:hr>145</gpxtpx:hr>
          </gpxtpx:TrackPointExtension>
        </extensions>
      </trkpt>
      <trkpt lat="30.93668491057146" lon="113.55742454421015">
        <ele>32.30969313438982</ele>
        <time>2022-10-16T13:30:45Z</time>
        <extensions>
          <gpxtpx:TrackPointExtension>
            <gpxtpx:hr>147</gpxtpx:hr>
          </gpxtpx:TrackPointExtension>
        </extensions>
      </trkpt>
      <trkpt lat="30.936717514310125" lon="113.55737097786843">
        <ele>31.094494227319956</ele>
        <time>2022-10-16T13:30:48Z</time>
        <extensions>
          <gpxtpx:TrackPointExtension>
            <gpxtpx:hr>147</gpxtpx:hr>
          </gpxtpx:TrackPointExtension>
        </extensions>
      </trkpt>
      <trkpt lat="30.936772365420364" lon="113.55733203244756">
        <ele>30.751505450345576</ele>
        <time>2022-10-16T13:30:51Z</time>
        <extensions>
          <gpxtpx:TrackPointExtension>
            <gpxtpx:hr>147</gpxtpx:hr>
          </gpxtpx:TrackPointExtension>
        </extensions>
      </trkpt>
      <trkpt lat="30.93684314795267" lon="113.557229686246">
        <ele>29.232088746502995</ele>
        <time>2022-10-16T13:30:57Z</time>
        <extensions>
          <gpxtpx:TrackPointExtension>
            <gpxtpx:hr>149</gpxtpx:hr>
          </gpxtpx:TrackPointExtension>
        </extensions>
      </trkpt>
      <trkpt lat="30.936898761922624" lon="113.55719807091023">
        <ele>29.89360976498574</ele>
        <time>2022-10-16T13:31:00Z</time>
        <extensions>
          <gpxtpx:TrackPointExtension>
            <gpxtpx:hr>149</gpxtpx:hr>
          </gpxtpx:TrackPointExtension>
        </extensions>
      </trkpt>
      <trkpt lat="30.937095515700257" lon="113.55693687848245">
        <ele>31.245045273564756</ele>
        <time>2022-10-16T13:31:16Z</time>
        <extensions>
          <gpxtpx:TrackPointExtension>
            <gpxtpx:hr>145</gpxtpx:hr>
          </gpxtpx:TrackPointExtension>
        </extensions>
      </trkpt>
      <trkpt lat="30.937210674856054" lon="113.55658233682152">
        <ele>32.263529101386666</ele>
        <time>2022-10-16T13:31:32Z</time>
        <extensions>
          <gpxtpx:TrackPointExtension>
            <gpxtpx:hr>146</gpxtpx:hr>
          </gpxtpx:TrackPointExtension>
        </extensions>
      </trkpt>
      <trkpt lat="30.937230752548576" lon="113.55640067257305">
        <ele>31.831841059029102</ele>
        <time>2022-10-16T13:31:40Z</time>
        <extensions>
          <gpxtpx:TrackPointExtension>
            <gpxtpx:hr>149</gpxtpx:hr>
          </gpxtpx:TrackPointExtension>
        </extensions>
      </trkpt>
      <trkpt lat="30.93720108720688" lon="113.5561292778699">
        <ele>32.52059925813228</ele>
        <time>2022-10-16T13:31:52Z</time>
        <extensions>
          <gpxtpx:TrackPointExtension>
            <gpxtpx:hr>148</gpxtpx:hr>
          </gpxtpx:TrackPointExtension>
        </extensions>
      </trkpt>
      <trkpt lat="30.937121105001637" lon="113.55576873824151">
        <ele>34.45451084244996</ele>
        <time>2022-10-16T13:32:08Z</time>
        <extensions>
          <gpxtpx:TrackPointExtension>
            <gpxtpx:hr>149</gpxtpx:hr>
          </gpxtpx:TrackPointExtension>
        </extensions>
      </trkpt>
      <trkpt lat="30.936963273934893" lon="113.55545532889113">
        <ele>33.2237295024097</ele>
        <time>2022-10-16T13:32:24Z</time>
        <extensions>
          <gpxtpx:TrackPointExtension>
            <gpxtpx:hr>147</gpxtpx:hr>
          </gpxtpx:TrackPointExtension>
        </extensions>
      </trkpt>
      <trkpt lat="30.936770970888386" lon="113.55517698993597">
        <ele>32.93701761495322</ele>
        <time>2022-10-16T13:32:40Z</time>
        <extensions>
          <gpxtpx:TrackPointExtension>
            <gpxtpx:hr>147</gpxtpx:hr>
          </gpxtpx:TrackPointExtension>
        </extensions>
      </trkpt>
      <trkpt lat="30.93663839347855" lon="113.55489449409811">
        <ele>32.6510254945606</ele>
        <time>2022-10-16T13:32:55Z</time>
        <extensions>
          <gpxtpx:TrackPointExtension>
            <gpxtpx:hr>153</gpxtpx:hr>
          </gpxtpx:TrackPointExtension>
        </extensions>
      </trkpt>
      <trkpt lat="30.936555856682286" lon="113.55475291910138">
        <ele>31.467902689240873</ele>
        <time>2022-10-16T13:33:03Z</time>
        <extensions>
          <gpxtpx:TrackPointExtension>
            <gpxtpx:hr>150</gpxtpx:hr>
          </gpxtpx:TrackPointExtension>
        </extensions>
      </trkpt>
      <trkpt lat="30.936383398416595" lon="113.5544201467336">
        <ele>31.663576208986342</ele>
        <time>2022-10-16T13:33:21Z</time>
        <extensions>
          <gpxtpx:TrackPointExtension>
            <gpxtpx:hr>150</gpxtpx:hr>
          </gpxtpx:TrackPointExtension>
        </extensions>
      </trkpt>
      <trkpt lat="30.936222101751408" lon="113.5541263496693">
        <ele>30.814655646681786</ele>
        <time>2022-10-16T13:33:37Z</time>
        <extensions>
          <gpxtpx:TrackPointExtension>
            <gpxtpx:hr>149</gpxtpx:hr>
          </gpxtpx:TrackPointExtension>
        </extensions>
      </trkpt>
      <trkpt lat="30.936192855704252" lon="113.55404807682875">
        <ele>30.60536126419902</ele>
        <time>2022-10-16T13:33:41Z</time>
        <extensions>
          <gpxtpx:TrackPointExtension>
            <gpxtpx:hr>150</gpxtpx:hr>
          </gpxtpx:TrackPointExtension>
        </extensions>
      </trkpt>
      <trkpt lat="30.936149144051715" lon="113.55398814745926">
        <ele>30.351272579282522</ele>
        <time>2022-10-16T13:33:45Z</time>
        <extensions>
          <gpxtpx:TrackPointExtension>
            <gpxtpx:hr>150</gpxtpx:hr>
          </gpxtpx:TrackPointExtension>
        </extensions>
      </trkpt>
      <trkpt lat="30.936188689217953" lon="113.5540170291197">
        <ele>30.397546350955963</ele>
        <time>2022-10-16T13:33:48Z</time>
        <extensions>
          <gpxtpx:TrackPointExtension>
            <gpxtpx:hr>147</gpxtpx:hr>
          </gpxtpx:TrackPointExtension>
        </extensions>
      </trkpt>
      <trkpt lat="30.93628076326501" lon="113.55426264471788">
        <ele>31.29968615528196</ele>
        <time>2022-10-16T13:34:00Z</time>
        <extensions>
          <gpxtpx:TrackPointExtension>
            <gpxtpx:hr>145</gpxtpx:hr>
          </gpxtpx:TrackPointExtension>
        </extensions>
      </trkpt>
      <trkpt lat="30.936433465956128" lon="113.55456664306445">
        <ele>33.1471208287403</ele>
        <time>2022-10-16T13:34:16Z</time>
        <extensions>
          <gpxtpx:TrackPointExtension>
            <gpxtpx:hr>151</gpxtpx:hr>
          </gpxtpx:TrackPointExtension>
        </extensions>
      </trkpt>
      <trkpt lat="30.936594406992022" lon="113.55486300452951">
        <ele>32.05133597180247</ele>
        <time>2022-10-16T13:34:32Z</time>
        <extensions>
          <gpxtpx:TrackPointExtension>
            <gpxtpx:hr>148</gpxtpx:hr>
          </gpxtpx:TrackPointExtension>
        </extensions>
      </trkpt>
      <trkpt lat="30.936743147947634" lon="113.55514330705407">
        <ele>31.49351594876498</ele>
        <time>2022-10-16T13:34:48Z</time>
        <extensions>
          <gpxtpx:TrackPointExtension>
            <gpxtpx:hr>145</gpxtpx:hr>
          </gpxtpx:TrackPointExtension>
        </extensions>
      </trkpt>
      <trkpt lat="30.93688667060834" lon="113.55531232440276">
        <ele>31.345726752653718</ele>
        <time>2022-10-16T13:34:59Z</time>
        <extensions>
          <gpxtpx:TrackPointExtension>
            <gpxtpx:hr>149</gpxtpx:hr>
          </gpxtpx:TrackPointExtension>
        </extensions>
      </trkpt>
      <trkpt lat="30.93719737896283" lon="113.55540767108042">
        <ele>33.3096685661003</ele>
        <time>2022-10-16T13:35:16Z</time>
        <extensions>
          <gpxtpx:TrackPointExtension>
            <gpxtpx:hr>154</gpxtpx:hr>
          </gpxtpx:TrackPointExtension>
        </extensions>
      </trkpt>
      <trkpt lat="30.937323732299543" lon="113.55540693466237">
        <ele>32.64058064110577</ele>
        <time>2022-10-16T13:35:23Z</time>
        <extensions>
          <gpxtpx:TrackPointExtension>
            <gpxtpx:hr>147</gpxtpx:hr>
          </gpxtpx:TrackPointExtension>
        </extensions>
      </trkpt>
      <trkpt lat="30.937404608916083" lon="113.55543127986175">
        <ele>32.59783527813852</ele>
        <time>2022-10-16T13:35:27Z</time>
        <extensions>
          <gpxtpx:TrackPointExtension>
            <gpxtpx:hr>148</gpxtpx:hr>
          </gpxtpx:TrackPointExtension>
        </extensions>
      </trkpt>
      <trkpt lat="30.93749776012824" lon="113.55555338607735">
        <ele>32.580283178947866</ele>
        <time>2022-10-16T13:35:39Z</time>
        <extensions>
          <gpxtpx:TrackPointExtension>
            <gpxtpx:hr>144</gpxtpx:hr>
          </gpxtpx:TrackPointExtension>
        </extensions>
      </trkpt>
      <trkpt lat="30.937508508856258" lon="113.55564596177219">
        <ele>32.95643978752196</ele>
        <time>2022-10-16T13:35:47Z</time>
        <extensions>
          <gpxtpx:TrackPointExtension>
            <gpxtpx:hr>144</gpxtpx:hr>
          </gpxtpx:TrackPointExtension>
        </extensions>
      </trkpt>
      <trkpt lat="30.937508508856258" lon="113.55564596177219">
        <ele>32.95643978752196</ele>
        <time>2022-10-16T13:35:50Z</time>
        <extensions>
          <gpxtpx:TrackPointExtension>
            <gpxtpx:hr>144</gpxtpx:hr>
          </gpxtpx:TrackPointExtension>
        </extensions>
      </trkpt>
    </trkseg>
  </trk>
</gpx>