<?xml version="1.0" encoding="UTF-8"?>
<gpx xmlns="http://www.topografix.com/GPX/1/1" xmlns:gpxtpx="http://www.garmin.com/xmlschemas/TrackPointExtension/v1" xmlns:xsi="http://www.w3.org/2001/XMLSchema-instance" xsi:schemaLocation="http://www.topografix.com/GPX/1/1 http://www.topografix.com/GPX/1/1/gpx.xsd" version="1.1" creator="gpx.py -- https://github.com/tkrajina/gpxpy">
  <trk>
    <name>gpx from keep</name>
    <type>Walk</type>
    <trkseg>
      <trkpt lat="30.946756097197003" lon="113.55636678552214">
        <ele>25.58929443359375</ele>
        <time>2022-11-14T11:47:02Z</time>
      </trkpt>
      <trkpt lat="30.946709905811836" lon="113.55622748446396">
        <ele>17.54638671875</ele>
        <time>2022-11-14T11:47:19Z</time>
      </trkpt>
      <trkpt lat="30.946613845497904" lon="113.55615333022254">
        <ele>17.69720458984375</ele>
        <time>2022-11-14T11:47:31Z</time>
      </trkpt>
      <trkpt lat="30.946528689985666" lon="113.55602305116352">
        <ele>17.18341064453125</ele>
        <time>2022-11-14T11:47:37Z</time>
      </trkpt>
      <trkpt lat="30.946475667226423" lon="113.55598898080335">
        <ele>16.9891357421875</ele>
        <time>2022-11-14T11:47:40Z</time>
      </trkpt>
      <trkpt lat="30.946428690013246" lon="113.55598597837913">
        <ele>17.22015380859375</ele>
        <time>2022-11-14T11:47:43Z</time>
      </trkpt>
      <trkpt lat="30.94636767188933" lon="113.55595190867687">
        <ele>19.4478759765625</ele>
        <time>2022-11-14T11:47:49Z</time>
      </trkpt>
      <trkpt lat="30.946150382371812" lon="113.555689347137">
        <ele>17.108154296875</ele>
        <time>2022-11-14T11:48:13Z</time>
      </trkpt>
      <trkpt lat="30.94597421363481" lon="113.55551898424322">
        <ele>20.98162841796875</ele>
        <time>2022-11-14T11:48:28Z</time>
      </trkpt>
      <trkpt lat="30.94587992803716" lon="113.55530651861066">
        <ele>29.80816650390625</ele>
        <time>2022-11-14T11:48:40Z</time>
      </trkpt>
      <trkpt lat="30.945784772270056" lon="113.5551752331603">
        <ele>31.61944580078125</ele>
        <time>2022-11-14T11:48:52Z</time>
      </trkpt>
      <trkpt lat="30.945742573398007" lon="113.55503692641209">
        <ele>35.78955078125</ele>
        <time>2022-11-14T11:48:58Z</time>
      </trkpt>
      <trkpt lat="30.945636455182825" lon="113.55492568551175">
        <ele>29.257080078125</ele>
        <time>2022-11-14T11:49:10Z</time>
      </trkpt>
      <trkpt lat="30.94553240540044" lon="113.55485754115156">
        <ele>31.4859619140625</ele>
        <time>2022-11-14T11:49:19Z</time>
      </trkpt>
      <trkpt lat="30.945549313915297" lon="113.5548074265054">
        <ele>26.2119140625</ele>
        <time>2022-11-14T11:49:26Z</time>
      </trkpt>
      <trkpt lat="30.945436249464894" lon="113.55472725538141">
        <ele>24.4156494140625</ele>
        <time>2022-11-14T11:49:32Z</time>
      </trkpt>
      <trkpt lat="30.945170174393702" lon="113.55458595904878">
        <ele>23.75067138671875</ele>
        <time>2022-11-14T11:50:00Z</time>
      </trkpt>
      <trkpt lat="30.94495314384599" lon="113.55448975998635">
        <ele>19.99444580078125</ele>
        <time>2022-11-14T11:50:15Z</time>
      </trkpt>
      <trkpt lat="30.94474187990821" lon="113.55425424227829">
        <ele>20.16748046875</ele>
        <time>2022-11-14T11:50:34Z</time>
      </trkpt>
      <trkpt lat="30.944587761413572" lon="113.55412796732638">
        <ele>23.589599609375</ele>
        <time>2022-11-14T11:50:43Z</time>
      </trkpt>
      <trkpt lat="30.944538800071435" lon="113.55413398547756">
        <ele>21.60491943359375</ele>
        <time>2022-11-14T11:50:46Z</time>
      </trkpt>
      <trkpt lat="30.944412376856945" lon="113.55443869216437">
        <ele>17.76220703125</ele>
        <time>2022-11-14T11:51:01Z</time>
      </trkpt>
      <trkpt lat="30.944361646682516" lon="113.5545850291746">
        <ele>13.88372802734375</ele>
        <time>2022-11-14T11:51:10Z</time>
      </trkpt>
      <trkpt lat="30.944316805793793" lon="113.55466621722303">
        <ele>12.50286865234375</ele>
        <time>2022-11-14T11:51:16Z</time>
      </trkpt>
      <trkpt lat="30.94421344538225" lon="113.55502202951881">
        <ele>9.897735595703125</ele>
        <time>2022-11-14T11:51:40Z</time>
      </trkpt>
      <trkpt lat="30.944112083496446" lon="113.55538084259483">
        <ele>16.0987548828125</ele>
        <time>2022-11-14T11:52:01Z</time>
      </trkpt>
      <trkpt lat="30.94402254818691" lon="113.5556384241659">
        <ele>13.6195068359375</ele>
        <time>2022-11-14T11:52:19Z</time>
      </trkpt>
      <trkpt lat="30.943996863069657" lon="113.55582684411142">
        <ele>14.29132080078125</ele>
        <time>2022-11-14T11:52:31Z</time>
      </trkpt>
      <trkpt lat="30.944004966411793" lon="113.55589499404957">
        <ele>13.21087646484375</ele>
        <time>2022-11-14T11:52:37Z</time>
      </trkpt>
      <trkpt lat="30.943906582150465" lon="113.5562487815552">
        <ele>15.22442626953125</ele>
        <time>2022-11-14T11:53:02Z</time>
      </trkpt>
      <trkpt lat="30.943801193749415" lon="113.55660055957301">
        <ele>13.2314453125</ele>
        <time>2022-11-14T11:53:26Z</time>
      </trkpt>
      <trkpt lat="30.943706758305506" lon="113.55692928109232">
        <ele>15.32611083984375</ele>
        <time>2022-11-14T11:53:47Z</time>
      </trkpt>
      <trkpt lat="30.943618302647764" lon="113.55724997987144">
        <ele>13.6890869140625</ele>
        <time>2022-11-14T11:54:08Z</time>
      </trkpt>
      <trkpt lat="30.943568550520336" lon="113.55739329151298">
        <ele>13.57330322265625</ele>
        <time>2022-11-14T11:54:17Z</time>
      </trkpt>
      <trkpt lat="30.94358679265342" lon="113.55755964528349">
        <ele>10.2752685546875</ele>
        <time>2022-11-14T11:54:29Z</time>
      </trkpt>
      <trkpt lat="30.943529376680182" lon="113.55792442523486">
        <ele>13.131591796875</ele>
        <time>2022-11-14T11:54:50Z</time>
      </trkpt>
      <trkpt lat="30.943536921576307" lon="113.55829219948346">
        <ele>11.800933837890625</ele>
        <time>2022-11-14T11:55:15Z</time>
      </trkpt>
      <trkpt lat="30.943510339170306" lon="113.5585637700246">
        <ele>10.514923095703125</ele>
        <time>2022-11-14T11:55:33Z</time>
      </trkpt>
      <trkpt lat="30.943483483318357" lon="113.5586509540942">
        <ele>11.75567626953125</ele>
        <time>2022-11-14T11:55:39Z</time>
      </trkpt>
      <trkpt lat="30.943495591076314" lon="113.55872911558244">
        <ele>11.982330322265625</ele>
        <time>2022-11-14T11:55:45Z</time>
      </trkpt>
      <trkpt lat="30.943435132914583" lon="113.55907583868365">
        <ele>9.762725830078125</ele>
        <time>2022-11-14T11:56:06Z</time>
      </trkpt>
      <trkpt lat="30.943454358468582" lon="113.55923917311077">
        <ele>9.378448486328125</ele>
        <time>2022-11-14T11:56:18Z</time>
      </trkpt>
      <trkpt lat="30.943448477737903" lon="113.55931933815741">
        <ele>9.80938720703125</ele>
        <time>2022-11-14T11:56:24Z</time>
      </trkpt>
      <trkpt lat="30.943424591418207" lon="113.55938848194972">
        <ele>9.12506103515625</ele>
        <time>2022-11-14T11:56:30Z</time>
      </trkpt>
      <trkpt lat="30.943423843769157" lon="113.5595638402785">
        <ele>9.139373779296875</ele>
        <time>2022-11-14T11:56:42Z</time>
      </trkpt>
      <trkpt lat="30.94340898439424" lon="113.55965602936904">
        <ele>9.899444580078125</ele>
        <time>2022-11-14T11:56:48Z</time>
      </trkpt>
      <trkpt lat="30.943481963095298" lon="113.55967105341772">
        <ele>8.496612548828125</ele>
        <time>2022-11-14T11:56:54Z</time>
      </trkpt>
      <trkpt lat="30.94351988788055" lon="113.55963397458765">
        <ele>7.376220703125</ele>
        <time>2022-11-14T11:56:58Z</time>
      </trkpt>
      <trkpt lat="30.943596386708855" lon="113.55931631876452">
        <ele>6.874969482421875</ele>
        <time>2022-11-14T11:57:16Z</time>
      </trkpt>
      <trkpt lat="30.943643104139618" lon="113.55913995221574">
        <ele>6.83331298828125</ele>
        <time>2022-11-14T11:57:28Z</time>
      </trkpt>
      <trkpt lat="30.94367399437205" lon="113.559076819385">
        <ele>6.36297607421875</ele>
        <time>2022-11-14T11:57:34Z</time>
      </trkpt>
      <trkpt lat="30.94379584571071" lon="113.55902369891866">
        <ele>6.791748046875</ele>
        <time>2022-11-14T11:57:46Z</time>
      </trkpt>
      <trkpt lat="30.943825750822548" lon="113.5589705865438">
        <ele>6.615142822265625</ele>
        <time>2022-11-14T11:57:58Z</time>
      </trkpt>
      <trkpt lat="30.94387665228686" lon="113.5589234845988">
        <ele>5.328155517578125</ele>
        <time>2022-11-14T11:58:10Z</time>
      </trkpt>
      <trkpt lat="30.94364603260036" lon="113.55909185287155">
        <ele>10.672515869140625</ele>
        <time>2022-11-14T11:58:25Z</time>
      </trkpt>
      <trkpt lat="30.943448933765552" lon="113.5596369870523">
        <ele>14.00732421875</ele>
        <time>2022-11-14T11:58:37Z</time>
      </trkpt>
      <trkpt lat="30.943370976590863" lon="113.55963498994485">
        <ele>13.31689453125</ele>
        <time>2022-11-14T11:58:40Z</time>
      </trkpt>
      <trkpt lat="30.94333189335369" lon="113.55956084237253">
        <ele>11.6329345703125</ele>
        <time>2022-11-14T11:58:43Z</time>
      </trkpt>
      <trkpt lat="30.943318744292544" lon="113.55945162055755">
        <ele>10.7564697265625</ele>
        <time>2022-11-14T11:58:46Z</time>
      </trkpt>
      <trkpt lat="30.943235884963844" lon="113.55951575896665">
        <ele>9.928680419921875</ele>
        <time>2022-11-14T11:58:53Z</time>
      </trkpt>
      <trkpt lat="30.94320812645307" lon="113.55967308198314">
        <ele>9.2825927734375</ele>
        <time>2022-11-14T11:58:56Z</time>
      </trkpt>
      <trkpt lat="30.943143327314605" lon="113.55978731979008">
        <ele>8.69580078125</ele>
        <time>2022-11-14T11:58:59Z</time>
      </trkpt>
      <trkpt lat="30.943035441867444" lon="113.55982340257681">
        <ele>10.096954345703125</ele>
        <time>2022-11-14T11:59:02Z</time>
      </trkpt>
      <trkpt lat="30.94271860190443" lon="113.5598053943491">
        <ele>13.21893310546875</ele>
        <time>2022-11-14T11:59:08Z</time>
      </trkpt>
      <trkpt lat="30.942375778576018" lon="113.55978839046192">
        <ele>16.17083740234375</ele>
        <time>2022-11-14T11:59:14Z</time>
      </trkpt>
      <trkpt lat="30.94202995698582" lon="113.55977138682894">
        <ele>18.177734375</ele>
        <time>2022-11-14T11:59:20Z</time>
      </trkpt>
      <trkpt lat="30.941690106170554" lon="113.55973634602802">
        <ele>17.142578125</ele>
        <time>2022-11-14T11:59:26Z</time>
      </trkpt>
      <trkpt lat="30.941346284786345" lon="113.55972034420964">
        <ele>14.9005126953125</ele>
        <time>2022-11-14T11:59:32Z</time>
      </trkpt>
      <trkpt lat="30.94099748345809" lon="113.55971636725741">
        <ele>15.10345458984375</ele>
        <time>2022-11-14T11:59:38Z</time>
      </trkpt>
      <trkpt lat="30.940688617246796" lon="113.55968332766916">
        <ele>16.34112548828125</ele>
        <time>2022-11-14T11:59:44Z</time>
      </trkpt>
      <trkpt lat="30.940410754295907" lon="113.55966531583563">
        <ele>16.10284423828125</ele>
        <time>2022-11-14T11:59:50Z</time>
      </trkpt>
      <trkpt lat="30.940092934785564" lon="113.55966133610187">
        <ele>18.81500244140625</ele>
        <time>2022-11-14T11:59:56Z</time>
      </trkpt>
      <trkpt lat="30.939780093733102" lon="113.55964432941624">
        <ele>20.71539306640625</ele>
        <time>2022-11-14T12:00:02Z</time>
      </trkpt>
      <trkpt lat="30.939487202263603" lon="113.55960026583558">
        <ele>18.1240234375</ele>
        <time>2022-11-14T12:00:08Z</time>
      </trkpt>
      <trkpt lat="30.939340259657524" lon="113.5595802381399">
        <ele>17.7515869140625</ele>
        <time>2022-11-14T12:00:11Z</time>
      </trkpt>
      <trkpt lat="30.9391753663057" lon="113.5595872671788">
        <ele>15.13372802734375</ele>
        <time>2022-11-14T12:00:15Z</time>
      </trkpt>
      <trkpt lat="30.9388255396697" lon="113.55956525352639">
        <ele>14.75067138671875</ele>
        <time>2022-11-14T12:00:21Z</time>
      </trkpt>
      <trkpt lat="30.938468750116677" lon="113.55956628747211">
        <ele>15.875732421875</ele>
        <time>2022-11-14T12:00:27Z</time>
      </trkpt>
      <trkpt lat="30.93816788757817" lon="113.55953925919913">
        <ele>15.291748046875</ele>
        <time>2022-11-14T12:00:36Z</time>
      </trkpt>
      <trkpt lat="30.938016921378356" lon="113.55950119498617">
        <ele>14.53521728515625</ele>
        <time>2022-11-14T12:00:45Z</time>
      </trkpt>
      <trkpt lat="30.93801575779989" lon="113.55938696154526">
        <ele>12.72528076171875</ele>
        <time>2022-11-14T12:00:48Z</time>
      </trkpt>
      <trkpt lat="30.938035559666872" lon="113.55925769475851">
        <ele>12.3170166015625</ele>
        <time>2022-11-14T12:00:51Z</time>
      </trkpt>
      <trkpt lat="30.93803917070489" lon="113.55899114548595">
        <ele>11.31610107421875</ele>
        <time>2022-11-14T12:00:57Z</time>
      </trkpt>
      <trkpt lat="30.9380259956062" lon="113.5588658875459">
        <ele>10.958160400390625</ele>
        <time>2022-11-14T12:01:00Z</time>
      </trkpt>
      <trkpt lat="30.937974837689023" lon="113.55873762602083">
        <ele>10.4697265625</ele>
        <time>2022-11-14T12:01:03Z</time>
      </trkpt>
      <trkpt lat="30.93796358629545" lon="113.55856226197031">
        <ele>9.646392822265625</ele>
        <time>2022-11-14T12:01:06Z</time>
      </trkpt>
      <trkpt lat="30.937975032902866" lon="113.55819348858881">
        <ele>9.95263671875</ele>
        <time>2022-11-14T12:01:12Z</time>
      </trkpt>
      <trkpt lat="30.937988457605655" lon="113.55781468743179">
        <ele>10.02813720703125</ele>
        <time>2022-11-14T12:01:18Z</time>
      </trkpt>
      <trkpt lat="30.937986866851745" lon="113.55742385522201">
        <ele>10.315521240234375</ele>
        <time>2022-11-14T12:01:24Z</time>
      </trkpt>
      <trkpt lat="30.938004241713465" lon="113.55702199044877">
        <ele>9.258575439453125</ele>
        <time>2022-11-14T12:01:31Z</time>
      </trkpt>
      <trkpt lat="30.938022530594026" lon="113.55593261137585">
        <ele>7.1875</ele>
        <time>2022-11-14T12:01:46Z</time>
      </trkpt>
      <trkpt lat="30.93801025152018" lon="113.55575221352613">
        <ele>6.88751220703125</ele>
        <time>2022-11-14T12:01:49Z</time>
      </trkpt>
      <trkpt lat="30.93801897802892" lon="113.55558383905012">
        <ele>7.354217529296875</ele>
        <time>2022-11-14T12:01:52Z</time>
      </trkpt>
      <trkpt lat="30.938007758462536" lon="113.55544252541796">
        <ele>7.549774169921875</ele>
        <time>2022-11-14T12:01:55Z</time>
      </trkpt>
      <trkpt lat="30.937907685194514" lon="113.55536035097589">
        <ele>7.764892578125</ele>
        <time>2022-11-14T12:01:58Z</time>
      </trkpt>
      <trkpt lat="30.937574884959613" lon="113.5553633874774">
        <ele>9.05047607421875</ele>
        <time>2022-11-14T12:02:04Z</time>
      </trkpt>
      <trkpt lat="30.937473015424544" lon="113.55540749503578">
        <ele>9.6864013671875</ele>
        <time>2022-11-14T12:02:07Z</time>
      </trkpt>
      <trkpt lat="30.93751243302684" lon="113.55568310475343">
        <ele>12.3271484375</ele>
        <time>2022-11-14T12:02:19Z</time>
      </trkpt>
      <trkpt lat="30.937517075264584" lon="113.55609000336183">
        <ele>11.754302978515625</ele>
        <time>2022-11-14T12:02:25Z</time>
      </trkpt>
      <trkpt lat="30.937511683764214" lon="113.55647584935114">
        <ele>12.76904296875</ele>
        <time>2022-11-14T12:02:31Z</time>
      </trkpt>
      <trkpt lat="30.9375079263922" lon="113.5566301859726">
        <ele>13.29864501953125</ele>
        <time>2022-11-14T12:02:34Z</time>
      </trkpt>
      <trkpt lat="30.93755504351351" lon="113.55672338430672">
        <ele>13.89691162109375</ele>
        <time>2022-11-14T12:02:37Z</time>
      </trkpt>
      <trkpt lat="30.937599911451887" lon="113.55665523223063">
        <ele>14.51287841796875</ele>
        <time>2022-11-14T12:02:40Z</time>
      </trkpt>
      <trkpt lat="30.93759987876478" lon="113.55663418646535">
        <ele>14.8724365234375</ele>
        <time>2022-11-14T12:02:43Z</time>
      </trkpt>
    </trkseg>
  </trk>
</gpx>