<?xml version="1.0" encoding="UTF-8"?>
<gpx xmlns="http://www.topografix.com/GPX/1/1" xmlns:gpxtpx="http://www.garmin.com/xmlschemas/TrackPointExtension/v1" xmlns:xsi="http://www.w3.org/2001/XMLSchema-instance" xsi:schemaLocation="http://www.topografix.com/GPX/1/1 http://www.topografix.com/GPX/1/1/gpx.xsd" version="1.1" creator="gpx.py -- https://github.com/tkrajina/gpxpy">
  <trk>
    <name>gpx from keep</name>
    <type>Run</type>
    <trkseg>
      <trkpt lat="30.9375525835697" lon="113.55615382833892">
        <ele>38.76351547241211</ele>
        <time>2022-10-13T13:37:51Z</time>
      </trkpt>
      <trkpt lat="30.93757388695449" lon="113.55609634358088">
        <ele>36.62209701538086</ele>
        <time>2022-10-13T13:37:54Z</time>
        <extensions>
          <gpxtpx:TrackPointExtension>
            <gpxtpx:hr>115</gpxtpx:hr>
          </gpxtpx:TrackPointExtension>
        </extensions>
      </trkpt>
      <trkpt lat="30.937583069663855" lon="113.55595587491275">
        <ele>33.8058740766719</ele>
        <time>2022-10-13T13:38:03Z</time>
        <extensions>
          <gpxtpx:TrackPointExtension>
            <gpxtpx:hr>115</gpxtpx:hr>
          </gpxtpx:TrackPointExtension>
        </extensions>
      </trkpt>
      <trkpt lat="30.93760480703525" lon="113.5558606406924">
        <ele>33.48879661038518</ele>
        <time>2022-10-13T13:38:07Z</time>
        <extensions>
          <gpxtpx:TrackPointExtension>
            <gpxtpx:hr>122</gpxtpx:hr>
          </gpxtpx:TrackPointExtension>
        </extensions>
      </trkpt>
      <trkpt lat="30.937600812704925" lon="113.55561610743226">
        <ele>31.008266816847026</ele>
        <time>2022-10-13T13:38:17Z</time>
        <extensions>
          <gpxtpx:TrackPointExtension>
            <gpxtpx:hr>122</gpxtpx:hr>
          </gpxtpx:TrackPointExtension>
        </extensions>
      </trkpt>
      <trkpt lat="30.937553013957473" lon="113.55546813592656">
        <ele>31.89988689031452</ele>
        <time>2022-10-13T13:38:23Z</time>
      </trkpt>
      <trkpt lat="30.937432998339908" lon="113.5553622333664">
        <ele>31.210714804008603</ele>
        <time>2022-10-13T13:38:32Z</time>
      </trkpt>
      <trkpt lat="30.937141967376668" lon="113.55526580533441">
        <ele>31.716890823096037</ele>
        <time>2022-10-13T13:38:47Z</time>
      </trkpt>
      <trkpt lat="30.936837697848745" lon="113.55525937433467">
        <ele>30.668335800990462</ele>
        <time>2022-10-13T13:39:03Z</time>
      </trkpt>
      <trkpt lat="30.936680061011117" lon="113.55501094042253">
        <ele>31.92953523620963</ele>
        <time>2022-10-13T13:39:18Z</time>
      </trkpt>
      <trkpt lat="30.936668551541278" lon="113.55495384563632">
        <ele>32.1439196113497</ele>
        <time>2022-10-13T13:39:21Z</time>
      </trkpt>
      <trkpt lat="30.936512993004197" lon="113.5546457370294">
        <ele>32.4232625560835</ele>
        <time>2022-10-13T13:39:38Z</time>
      </trkpt>
      <trkpt lat="30.936348664913627" lon="113.55434561362385">
        <ele>31.201830844394863</ele>
        <time>2022-10-13T13:39:54Z</time>
        <extensions>
          <gpxtpx:TrackPointExtension>
            <gpxtpx:hr>147</gpxtpx:hr>
          </gpxtpx:TrackPointExtension>
        </extensions>
      </trkpt>
      <trkpt lat="30.936207514560696" lon="113.55401811890825">
        <ele>30.599641785025597</ele>
        <time>2022-10-13T13:40:11Z</time>
      </trkpt>
      <trkpt lat="30.93604054880646" lon="113.55375892447948">
        <ele>31.116198376752436</ele>
        <time>2022-10-13T13:40:27Z</time>
        <extensions>
          <gpxtpx:TrackPointExtension>
            <gpxtpx:hr>148</gpxtpx:hr>
          </gpxtpx:TrackPointExtension>
        </extensions>
      </trkpt>
      <trkpt lat="30.935803667733005" lon="113.55346391678832">
        <ele>30.42335613258183</ele>
        <time>2022-10-13T13:40:45Z</time>
        <extensions>
          <gpxtpx:TrackPointExtension>
            <gpxtpx:hr>146</gpxtpx:hr>
          </gpxtpx:TrackPointExtension>
        </extensions>
      </trkpt>
      <trkpt lat="30.93565075943031" lon="113.55318593045519">
        <ele>29.744327205233276</ele>
        <time>2022-10-13T13:41:00Z</time>
        <extensions>
          <gpxtpx:TrackPointExtension>
            <gpxtpx:hr>150</gpxtpx:hr>
          </gpxtpx:TrackPointExtension>
        </extensions>
      </trkpt>
      <trkpt lat="30.935498635322364" lon="113.55289228978899">
        <ele>31.10071066301316</ele>
        <time>2022-10-13T13:41:15Z</time>
        <extensions>
          <gpxtpx:TrackPointExtension>
            <gpxtpx:hr>151</gpxtpx:hr>
          </gpxtpx:TrackPointExtension>
        </extensions>
      </trkpt>
      <trkpt lat="30.935346134064407" lon="113.55255166275478">
        <ele>30.181780747137964</ele>
        <time>2022-10-13T13:41:33Z</time>
        <extensions>
          <gpxtpx:TrackPointExtension>
            <gpxtpx:hr>151</gpxtpx:hr>
          </gpxtpx:TrackPointExtension>
        </extensions>
      </trkpt>
      <trkpt lat="30.935215049640075" lon="113.55224481278991">
        <ele>31.49001223128289</ele>
        <time>2022-10-13T13:41:48Z</time>
        <extensions>
          <gpxtpx:TrackPointExtension>
            <gpxtpx:hr>151</gpxtpx:hr>
          </gpxtpx:TrackPointExtension>
        </extensions>
      </trkpt>
      <trkpt lat="30.935074210207528" lon="113.5519321551046">
        <ele>30.93639842607081</ele>
        <time>2022-10-13T13:42:04Z</time>
        <extensions>
          <gpxtpx:TrackPointExtension>
            <gpxtpx:hr>153</gpxtpx:hr>
          </gpxtpx:TrackPointExtension>
        </extensions>
      </trkpt>
      <trkpt lat="30.93503851100031" lon="113.55187563532235">
        <ele>29.508451567031443</ele>
        <time>2022-10-13T13:42:07Z</time>
        <extensions>
          <gpxtpx:TrackPointExtension>
            <gpxtpx:hr>153</gpxtpx:hr>
          </gpxtpx:TrackPointExtension>
        </extensions>
      </trkpt>
      <trkpt lat="30.935020391619133" lon="113.55180385372387">
        <ele>29.266873940825462</ele>
        <time>2022-10-13T13:42:10Z</time>
        <extensions>
          <gpxtpx:TrackPointExtension>
            <gpxtpx:hr>154</gpxtpx:hr>
          </gpxtpx:TrackPointExtension>
        </extensions>
      </trkpt>
      <trkpt lat="30.934944438788282" lon="113.55162296291405">
        <ele>29.790264264680445</ele>
        <time>2022-10-13T13:42:19Z</time>
        <extensions>
          <gpxtpx:TrackPointExtension>
            <gpxtpx:hr>155</gpxtpx:hr>
          </gpxtpx:TrackPointExtension>
        </extensions>
      </trkpt>
      <trkpt lat="30.93498734472448" lon="113.55136310646695">
        <ele>29.80295872502029</ele>
        <time>2022-10-13T13:42:31Z</time>
        <extensions>
          <gpxtpx:TrackPointExtension>
            <gpxtpx:hr>158</gpxtpx:hr>
          </gpxtpx:TrackPointExtension>
        </extensions>
      </trkpt>
      <trkpt lat="30.935088340642988" lon="113.55121758769816">
        <ele>30.76921448111534</ele>
        <time>2022-10-13T13:42:40Z</time>
        <extensions>
          <gpxtpx:TrackPointExtension>
            <gpxtpx:hr>158</gpxtpx:hr>
          </gpxtpx:TrackPointExtension>
        </extensions>
      </trkpt>
      <trkpt lat="30.93514152747522" lon="113.55118791478829">
        <ele>31.070338740944862</ele>
        <time>2022-10-13T13:42:43Z</time>
        <extensions>
          <gpxtpx:TrackPointExtension>
            <gpxtpx:hr>157</gpxtpx:hr>
          </gpxtpx:TrackPointExtension>
        </extensions>
      </trkpt>
      <trkpt lat="30.935264546834134" lon="113.55104345215646">
        <ele>31.250988327898085</ele>
        <time>2022-10-13T13:42:52Z</time>
        <extensions>
          <gpxtpx:TrackPointExtension>
            <gpxtpx:hr>157</gpxtpx:hr>
          </gpxtpx:TrackPointExtension>
        </extensions>
      </trkpt>
      <trkpt lat="30.93539983832849" lon="113.5509042910717">
        <ele>32.74759907275438</ele>
        <time>2022-10-13T13:43:01Z</time>
        <extensions>
          <gpxtpx:TrackPointExtension>
            <gpxtpx:hr>154</gpxtpx:hr>
          </gpxtpx:TrackPointExtension>
        </extensions>
      </trkpt>
      <trkpt lat="30.935435503934322" lon="113.55084272837995">
        <ele>32.197172375395894</ele>
        <time>2022-10-13T13:43:04Z</time>
        <extensions>
          <gpxtpx:TrackPointExtension>
            <gpxtpx:hr>154</gpxtpx:hr>
          </gpxtpx:TrackPointExtension>
        </extensions>
      </trkpt>
      <trkpt lat="30.935448433328556" lon="113.55078548552034">
        <ele>31.716225830838084</ele>
        <time>2022-10-13T13:43:07Z</time>
        <extensions>
          <gpxtpx:TrackPointExtension>
            <gpxtpx:hr>154</gpxtpx:hr>
          </gpxtpx:TrackPointExtension>
        </extensions>
      </trkpt>
      <trkpt lat="30.935362315709142" lon="113.5507376152583">
        <ele>31.266579994931817</ele>
        <time>2022-10-13T13:43:10Z</time>
        <extensions>
          <gpxtpx:TrackPointExtension>
            <gpxtpx:hr>154</gpxtpx:hr>
          </gpxtpx:TrackPointExtension>
        </extensions>
      </trkpt>
      <trkpt lat="30.93505606164152" lon="113.55071342437788">
        <ele>30.51364067569375</ele>
        <time>2022-10-13T13:43:25Z</time>
        <extensions>
          <gpxtpx:TrackPointExtension>
            <gpxtpx:hr>156</gpxtpx:hr>
          </gpxtpx:TrackPointExtension>
        </extensions>
      </trkpt>
      <trkpt lat="30.934782512428654" lon="113.55068925439612">
        <ele>30.77627405244857</ele>
        <time>2022-10-13T13:43:38Z</time>
        <extensions>
          <gpxtpx:TrackPointExtension>
            <gpxtpx:hr>156</gpxtpx:hr>
          </gpxtpx:TrackPointExtension>
        </extensions>
      </trkpt>
      <trkpt lat="30.934655813741585" lon="113.55070786460496">
        <ele>31.541761343367398</ele>
        <time>2022-10-13T13:43:49Z</time>
        <extensions>
          <gpxtpx:TrackPointExtension>
            <gpxtpx:hr>159</gpxtpx:hr>
          </gpxtpx:TrackPointExtension>
        </extensions>
      </trkpt>
      <trkpt lat="30.934482760251" lon="113.5507160776495">
        <ele>32.26089983526617</ele>
        <time>2022-10-13T13:44:01Z</time>
        <extensions>
          <gpxtpx:TrackPointExtension>
            <gpxtpx:hr>154</gpxtpx:hr>
          </gpxtpx:TrackPointExtension>
        </extensions>
      </trkpt>
      <trkpt lat="30.93442882737816" lon="113.55074391341228">
        <ele>32.456598199903965</ele>
        <time>2022-10-13T13:44:05Z</time>
        <extensions>
          <gpxtpx:TrackPointExtension>
            <gpxtpx:hr>153</gpxtpx:hr>
          </gpxtpx:TrackPointExtension>
        </extensions>
      </trkpt>
      <trkpt lat="30.934360889301423" lon="113.55089476396701">
        <ele>32.64094426576048</ele>
        <time>2022-10-13T13:44:15Z</time>
        <extensions>
          <gpxtpx:TrackPointExtension>
            <gpxtpx:hr>148</gpxtpx:hr>
          </gpxtpx:TrackPointExtension>
        </extensions>
      </trkpt>
      <trkpt lat="30.934276220832196" lon="113.55124661577766">
        <ele>30.829328333958983</ele>
        <time>2022-10-13T13:44:34Z</time>
        <extensions>
          <gpxtpx:TrackPointExtension>
            <gpxtpx:hr>149</gpxtpx:hr>
          </gpxtpx:TrackPointExtension>
        </extensions>
      </trkpt>
      <trkpt lat="30.93419611885839" lon="113.55149828090258">
        <ele>32.36397519148886</ele>
        <time>2022-10-13T13:44:49Z</time>
        <extensions>
          <gpxtpx:TrackPointExtension>
            <gpxtpx:hr>146</gpxtpx:hr>
          </gpxtpx:TrackPointExtension>
        </extensions>
      </trkpt>
      <trkpt lat="30.934225902024632" lon="113.55185119396965">
        <ele>31.73778945207596</ele>
        <time>2022-10-13T13:45:02Z</time>
        <extensions>
          <gpxtpx:TrackPointExtension>
            <gpxtpx:hr>148</gpxtpx:hr>
          </gpxtpx:TrackPointExtension>
        </extensions>
      </trkpt>
      <trkpt lat="30.934271212162407" lon="113.5520318640627">
        <ele>30.94727415870875</ele>
        <time>2022-10-13T13:45:09Z</time>
        <extensions>
          <gpxtpx:TrackPointExtension>
            <gpxtpx:hr>150</gpxtpx:hr>
          </gpxtpx:TrackPointExtension>
        </extensions>
      </trkpt>
      <trkpt lat="30.934343484399843" lon="113.5521750790122">
        <ele>31.15509153623134</ele>
        <time>2022-10-13T13:45:16Z</time>
        <extensions>
          <gpxtpx:TrackPointExtension>
            <gpxtpx:hr>153</gpxtpx:hr>
          </gpxtpx:TrackPointExtension>
        </extensions>
      </trkpt>
      <trkpt lat="30.93447928486248" lon="113.55247066040117">
        <ele>31.86524523422122</ele>
        <time>2022-10-13T13:45:30Z</time>
        <extensions>
          <gpxtpx:TrackPointExtension>
            <gpxtpx:hr>149</gpxtpx:hr>
          </gpxtpx:TrackPointExtension>
        </extensions>
      </trkpt>
      <trkpt lat="30.93454743642753" lon="113.55261582634323">
        <ele>31.710896424017847</ele>
        <time>2022-10-13T13:45:37Z</time>
        <extensions>
          <gpxtpx:TrackPointExtension>
            <gpxtpx:hr>151</gpxtpx:hr>
          </gpxtpx:TrackPointExtension>
        </extensions>
      </trkpt>
      <trkpt lat="30.934571160447877" lon="113.55271498751299">
        <ele>31.815465500578284</ele>
        <time>2022-10-13T13:45:41Z</time>
        <extensions>
          <gpxtpx:TrackPointExtension>
            <gpxtpx:hr>156</gpxtpx:hr>
          </gpxtpx:TrackPointExtension>
        </extensions>
      </trkpt>
      <trkpt lat="30.934741248360208" lon="113.55306075497892">
        <ele>34.08303611725569</ele>
        <time>2022-10-13T13:45:58Z</time>
        <extensions>
          <gpxtpx:TrackPointExtension>
            <gpxtpx:hr>158</gpxtpx:hr>
          </gpxtpx:TrackPointExtension>
        </extensions>
      </trkpt>
      <trkpt lat="30.934897431087105" lon="113.55338983448449">
        <ele>32.786059798672795</ele>
        <time>2022-10-13T13:46:15Z</time>
        <extensions>
          <gpxtpx:TrackPointExtension>
            <gpxtpx:hr>159</gpxtpx:hr>
          </gpxtpx:TrackPointExtension>
        </extensions>
      </trkpt>
      <trkpt lat="30.935061502813223" lon="113.55369655617952">
        <ele>31.102838261052966</ele>
        <time>2022-10-13T13:46:31Z</time>
        <extensions>
          <gpxtpx:TrackPointExtension>
            <gpxtpx:hr>159</gpxtpx:hr>
          </gpxtpx:TrackPointExtension>
        </extensions>
      </trkpt>
      <trkpt lat="30.935253002830933" lon="113.55398150492043">
        <ele>31.198258687742054</ele>
        <time>2022-10-13T13:46:47Z</time>
        <extensions>
          <gpxtpx:TrackPointExtension>
            <gpxtpx:hr>160</gpxtpx:hr>
          </gpxtpx:TrackPointExtension>
        </extensions>
      </trkpt>
      <trkpt lat="30.935411470415012" lon="113.5542425267843">
        <ele>31.083117752335966</ele>
        <time>2022-10-13T13:47:01Z</time>
        <extensions>
          <gpxtpx:TrackPointExtension>
            <gpxtpx:hr>161</gpxtpx:hr>
          </gpxtpx:TrackPointExtension>
        </extensions>
      </trkpt>
      <trkpt lat="30.935571493299353" lon="113.5545366346881">
        <ele>31.650270332582295</ele>
        <time>2022-10-13T13:47:16Z</time>
        <extensions>
          <gpxtpx:TrackPointExtension>
            <gpxtpx:hr>159</gpxtpx:hr>
          </gpxtpx:TrackPointExtension>
        </extensions>
      </trkpt>
      <trkpt lat="30.935748209736257" lon="113.55488061520632">
        <ele>31.100827214308083</ele>
        <time>2022-10-13T13:47:34Z</time>
        <extensions>
          <gpxtpx:TrackPointExtension>
            <gpxtpx:hr>159</gpxtpx:hr>
          </gpxtpx:TrackPointExtension>
        </extensions>
      </trkpt>
      <trkpt lat="30.935901782381325" lon="113.55514580823166">
        <ele>31.312834828160703</ele>
        <time>2022-10-13T13:47:49Z</time>
        <extensions>
          <gpxtpx:TrackPointExtension>
            <gpxtpx:hr>156</gpxtpx:hr>
          </gpxtpx:TrackPointExtension>
        </extensions>
      </trkpt>
      <trkpt lat="30.935987057182334" lon="113.55533340470998">
        <ele>30.773890518583357</ele>
        <time>2022-10-13T13:47:59Z</time>
        <extensions>
          <gpxtpx:TrackPointExtension>
            <gpxtpx:hr>157</gpxtpx:hr>
          </gpxtpx:TrackPointExtension>
        </extensions>
      </trkpt>
      <trkpt lat="30.936111502583177" lon="113.55552294866884">
        <ele>30.537212398834527</ele>
        <time>2022-10-13T13:48:10Z</time>
        <extensions>
          <gpxtpx:TrackPointExtension>
            <gpxtpx:hr>158</gpxtpx:hr>
          </gpxtpx:TrackPointExtension>
        </extensions>
      </trkpt>
      <trkpt lat="30.936203048101998" lon="113.55573479173718">
        <ele>30.828567657619715</ele>
        <time>2022-10-13T13:48:21Z</time>
        <extensions>
          <gpxtpx:TrackPointExtension>
            <gpxtpx:hr>157</gpxtpx:hr>
          </gpxtpx:TrackPointExtension>
        </extensions>
      </trkpt>
      <trkpt lat="30.936243059188698" lon="113.55579561975826">
        <ele>30.21087158191949</ele>
        <time>2022-10-13T13:48:24Z</time>
        <extensions>
          <gpxtpx:TrackPointExtension>
            <gpxtpx:hr>155</gpxtpx:hr>
          </gpxtpx:TrackPointExtension>
        </extensions>
      </trkpt>
      <trkpt lat="30.936269413747645" lon="113.55587154648671">
        <ele>30.005695768631995</ele>
        <time>2022-10-13T13:48:28Z</time>
        <extensions>
          <gpxtpx:TrackPointExtension>
            <gpxtpx:hr>155</gpxtpx:hr>
          </gpxtpx:TrackPointExtension>
        </extensions>
      </trkpt>
      <trkpt lat="30.936364324059525" lon="113.5560356288024">
        <ele>31.1738324733451</ele>
        <time>2022-10-13T13:48:38Z</time>
        <extensions>
          <gpxtpx:TrackPointExtension>
            <gpxtpx:hr>155</gpxtpx:hr>
          </gpxtpx:TrackPointExtension>
        </extensions>
      </trkpt>
      <trkpt lat="30.936400579239862" lon="113.55635492925964">
        <ele>31.97677658125758</ele>
        <time>2022-10-13T13:48:53Z</time>
        <extensions>
          <gpxtpx:TrackPointExtension>
            <gpxtpx:hr>153</gpxtpx:hr>
          </gpxtpx:TrackPointExtension>
        </extensions>
      </trkpt>
      <trkpt lat="30.93635063045275" lon="113.55657010201506">
        <ele>32.73342608101666</ele>
        <time>2022-10-13T13:49:03Z</time>
        <extensions>
          <gpxtpx:TrackPointExtension>
            <gpxtpx:hr>155</gpxtpx:hr>
          </gpxtpx:TrackPointExtension>
        </extensions>
      </trkpt>
      <trkpt lat="30.936294347339153" lon="113.55669413212475">
        <ele>32.04733511339873</ele>
        <time>2022-10-13T13:49:10Z</time>
        <extensions>
          <gpxtpx:TrackPointExtension>
            <gpxtpx:hr>155</gpxtpx:hr>
          </gpxtpx:TrackPointExtension>
        </extensions>
      </trkpt>
      <trkpt lat="30.93603280240774" lon="113.55694851757731">
        <ele>30.306635371409357</ele>
        <time>2022-10-13T13:49:27Z</time>
        <extensions>
          <gpxtpx:TrackPointExtension>
            <gpxtpx:hr>152</gpxtpx:hr>
          </gpxtpx:TrackPointExtension>
        </extensions>
      </trkpt>
      <trkpt lat="30.93583845517902" lon="113.55711077076288">
        <ele>31.52969546150416</ele>
        <time>2022-10-13T13:49:39Z</time>
        <extensions>
          <gpxtpx:TrackPointExtension>
            <gpxtpx:hr>155</gpxtpx:hr>
          </gpxtpx:TrackPointExtension>
        </extensions>
      </trkpt>
      <trkpt lat="30.93557319415065" lon="113.55726432094752">
        <ele>30.70565375685692</ele>
        <time>2022-10-13T13:49:54Z</time>
        <extensions>
          <gpxtpx:TrackPointExtension>
            <gpxtpx:hr>155</gpxtpx:hr>
          </gpxtpx:TrackPointExtension>
        </extensions>
      </trkpt>
      <trkpt lat="30.93536340762715" lon="113.55736667365453">
        <ele>30.56464207917452</ele>
        <time>2022-10-13T13:50:05Z</time>
        <extensions>
          <gpxtpx:TrackPointExtension>
            <gpxtpx:hr>156</gpxtpx:hr>
          </gpxtpx:TrackPointExtension>
        </extensions>
      </trkpt>
      <trkpt lat="30.93500191805795" lon="113.55748703139537">
        <ele>30.122891599312425</ele>
        <time>2022-10-13T13:50:27Z</time>
        <extensions>
          <gpxtpx:TrackPointExtension>
            <gpxtpx:hr>154</gpxtpx:hr>
          </gpxtpx:TrackPointExtension>
        </extensions>
      </trkpt>
      <trkpt lat="30.934815309918257" lon="113.55749801227259">
        <ele>30.082576297223568</ele>
        <time>2022-10-13T13:50:38Z</time>
        <extensions>
          <gpxtpx:TrackPointExtension>
            <gpxtpx:hr>151</gpxtpx:hr>
          </gpxtpx:TrackPointExtension>
        </extensions>
      </trkpt>
      <trkpt lat="30.934620584581786" lon="113.55752899609656">
        <ele>31.06865174137056</ele>
        <time>2022-10-13T13:50:50Z</time>
        <extensions>
          <gpxtpx:TrackPointExtension>
            <gpxtpx:hr>153</gpxtpx:hr>
          </gpxtpx:TrackPointExtension>
        </extensions>
      </trkpt>
      <trkpt lat="30.934340345086643" lon="113.55753474595657">
        <ele>32.04173113312572</ele>
        <time>2022-10-13T13:51:05Z</time>
        <extensions>
          <gpxtpx:TrackPointExtension>
            <gpxtpx:hr>153</gpxtpx:hr>
          </gpxtpx:TrackPointExtension>
        </extensions>
      </trkpt>
      <trkpt lat="30.934205800568304" lon="113.55755159487063">
        <ele>32.17100450862199</ele>
        <time>2022-10-13T13:51:13Z</time>
        <extensions>
          <gpxtpx:TrackPointExtension>
            <gpxtpx:hr>154</gpxtpx:hr>
          </gpxtpx:TrackPointExtension>
        </extensions>
      </trkpt>
      <trkpt lat="30.933900860353564" lon="113.55746958979636">
        <ele>31.816429967992008</ele>
        <time>2022-10-13T13:51:41Z</time>
        <extensions>
          <gpxtpx:TrackPointExtension>
            <gpxtpx:hr>136</gpxtpx:hr>
          </gpxtpx:TrackPointExtension>
        </extensions>
      </trkpt>
      <trkpt lat="30.93361325371309" lon="113.5573928871149">
        <ele>32.57380215730518</ele>
        <time>2022-10-13T13:52:07Z</time>
        <extensions>
          <gpxtpx:TrackPointExtension>
            <gpxtpx:hr>130</gpxtpx:hr>
          </gpxtpx:TrackPointExtension>
        </extensions>
      </trkpt>
      <trkpt lat="30.933358822905692" lon="113.55732985140237">
        <ele>32.60967639274895</ele>
        <time>2022-10-13T13:52:28Z</time>
        <extensions>
          <gpxtpx:TrackPointExtension>
            <gpxtpx:hr>125</gpxtpx:hr>
          </gpxtpx:TrackPointExtension>
        </extensions>
      </trkpt>
      <trkpt lat="30.93308803431531" lon="113.55715764340994">
        <ele>33.22236411087215</ele>
        <time>2022-10-13T13:52:54Z</time>
        <extensions>
          <gpxtpx:TrackPointExtension>
            <gpxtpx:hr>120</gpxtpx:hr>
          </gpxtpx:TrackPointExtension>
        </extensions>
      </trkpt>
      <trkpt lat="30.932921253183334" lon="113.55696893408789">
        <ele>33.18700107187033</ele>
        <time>2022-10-13T13:53:10Z</time>
        <extensions>
          <gpxtpx:TrackPointExtension>
            <gpxtpx:hr>125</gpxtpx:hr>
          </gpxtpx:TrackPointExtension>
        </extensions>
      </trkpt>
      <trkpt lat="30.932758616562143" lon="113.55682617848512">
        <ele>33.70674541499466</ele>
        <time>2022-10-13T13:53:21Z</time>
        <extensions>
          <gpxtpx:TrackPointExtension>
            <gpxtpx:hr>128</gpxtpx:hr>
          </gpxtpx:TrackPointExtension>
        </extensions>
      </trkpt>
      <trkpt lat="30.932758616562143" lon="113.55682617848512">
        <ele>33.70674541499466</ele>
        <time>2022-10-13T13:53:22Z</time>
        <extensions>
          <gpxtpx:TrackPointExtension>
            <gpxtpx:hr>128</gpxtpx:hr>
          </gpxtpx:TrackPointExtension>
        </extensions>
      </trkpt>
      <trkpt lat="30.93266146583503" lon="113.55787144933443">
        <ele>30.787948154844344</ele>
        <time>2022-10-13T13:55:12Z</time>
        <extensions>
          <gpxtpx:TrackPointExtension>
            <gpxtpx:hr>128</gpxtpx:hr>
          </gpxtpx:TrackPointExtension>
        </extensions>
      </trkpt>
      <trkpt lat="30.932910405927274" lon="113.55799724087034">
        <ele>30.91475236043334</ele>
        <time>2022-10-13T13:55:27Z</time>
      </trkpt>
      <trkpt lat="30.933241848446652" lon="113.55811071354708">
        <ele>32.41502467170358</ele>
        <time>2022-10-13T13:55:43Z</time>
      </trkpt>
      <trkpt lat="30.933506594553567" lon="113.55814921800928">
        <ele>32.72928232885897</ele>
        <time>2022-10-13T13:55:55Z</time>
      </trkpt>
      <trkpt lat="30.93372480416657" lon="113.55821205403964">
        <ele>34.41290318313986</ele>
        <time>2022-10-13T13:56:06Z</time>
      </trkpt>
      <trkpt lat="30.934059118888133" lon="113.55828571718979">
        <ele>34.027156324125826</ele>
        <time>2022-10-13T13:56:22Z</time>
      </trkpt>
      <trkpt lat="30.934208642562822" lon="113.5583313897583">
        <ele>35.13473688904196</ele>
        <time>2022-10-13T13:56:30Z</time>
      </trkpt>
      <trkpt lat="30.934348468076617" lon="113.55834380192702">
        <ele>33.391856481321156</ele>
        <time>2022-10-13T13:56:37Z</time>
      </trkpt>
      <trkpt lat="30.934414264316736" lon="113.5583257536481">
        <ele>34.823140929453075</ele>
        <time>2022-10-13T13:56:41Z</time>
      </trkpt>
      <trkpt lat="30.93448766572814" lon="113.55836477580655">
        <ele>34.61560798808932</ele>
        <time>2022-10-13T13:56:45Z</time>
      </trkpt>
      <trkpt lat="30.934625557688168" lon="113.55838934250389">
        <ele>33.19344046805054</ele>
        <time>2022-10-13T13:56:52Z</time>
      </trkpt>
      <trkpt lat="30.934694931693578" lon="113.55835425815563">
        <ele>32.642637403681874</ele>
        <time>2022-10-13T13:56:56Z</time>
      </trkpt>
      <trkpt lat="30.93476645640816" lon="113.558349330551">
        <ele>32.15053594391793</ele>
        <time>2022-10-13T13:57:00Z</time>
      </trkpt>
      <trkpt lat="30.934833563568567" lon="113.55834758464545">
        <ele>31.576482175849378</ele>
        <time>2022-10-13T13:57:04Z</time>
      </trkpt>
      <trkpt lat="30.934886996484316" lon="113.55836729854651">
        <ele>32.65267788246274</ele>
        <time>2022-10-13T13:57:07Z</time>
      </trkpt>
      <trkpt lat="30.935003360135095" lon="113.55834656338232">
        <ele>32.69486549589783</ele>
        <time>2022-10-13T13:57:13Z</time>
      </trkpt>
      <trkpt lat="30.93524210866778" lon="113.55837646543642">
        <ele>32.62407345790416</ele>
        <time>2022-10-13T13:57:25Z</time>
      </trkpt>
      <trkpt lat="30.93555853160188" lon="113.55834418615073">
        <ele>34.545884161256254</ele>
        <time>2022-10-13T13:57:40Z</time>
      </trkpt>
      <trkpt lat="30.935700195475334" lon="113.55833344373752">
        <ele>33.57938882522285</ele>
        <time>2022-10-13T13:57:47Z</time>
      </trkpt>
      <trkpt lat="30.93578290719158" lon="113.5582896019921">
        <ele>33.512688867747784</ele>
        <time>2022-10-13T13:57:51Z</time>
      </trkpt>
      <trkpt lat="30.935940354004522" lon="113.55806700541751">
        <ele>32.11905986908823</ele>
        <time>2022-10-13T13:58:02Z</time>
      </trkpt>
      <trkpt lat="30.936177795516816" lon="113.55782461958516">
        <ele>32.22620866633952</ele>
        <time>2022-10-13T13:58:17Z</time>
      </trkpt>
      <trkpt lat="30.936403930506536" lon="113.5576330031563">
        <ele>32.32538245618343</ele>
        <time>2022-10-13T13:58:31Z</time>
      </trkpt>
      <trkpt lat="30.936543478473343" lon="113.55759386819663">
        <ele>34.83830564189702</ele>
        <time>2022-10-13T13:58:38Z</time>
      </trkpt>
      <trkpt lat="30.936606034879034" lon="113.55753219095735">
        <ele>34.673627144657075</ele>
        <time>2022-10-13T13:58:42Z</time>
      </trkpt>
      <trkpt lat="30.93668183306727" lon="113.55750483004984">
        <ele>36.78757700417191</ele>
        <time>2022-10-13T13:58:46Z</time>
      </trkpt>
      <trkpt lat="30.93679786554177" lon="113.55738536000129">
        <ele>34.7461395971477</ele>
        <time>2022-10-13T13:58:53Z</time>
      </trkpt>
      <trkpt lat="30.936889633177174" lon="113.55722733267785">
        <ele>31.671531940810382</ele>
        <time>2022-10-13T13:59:01Z</time>
      </trkpt>
      <trkpt lat="30.937072992796327" lon="113.55706302982628">
        <ele>32.35665640234947</ele>
        <time>2022-10-13T13:59:13Z</time>
      </trkpt>
      <trkpt lat="30.93726346007719" lon="113.55677701138788">
        <ele>32.25371383409947</ele>
        <time>2022-10-13T13:59:25Z</time>
      </trkpt>
      <trkpt lat="30.937377257871784" lon="113.55656616921978">
        <ele>33.74748295266181</ele>
        <time>2022-10-13T13:59:33Z</time>
      </trkpt>
      <trkpt lat="30.93743903074349" lon="113.55639032966441">
        <ele>32.3449318530038</ele>
        <time>2022-10-13T13:59:40Z</time>
      </trkpt>
      <trkpt lat="30.93745247737898" lon="113.55620044331387">
        <ele>33.70274585764855</ele>
        <time>2022-10-13T13:59:48Z</time>
      </trkpt>
      <trkpt lat="30.937438012142618" lon="113.5561069458449">
        <ele>34.67864983063191</ele>
        <time>2022-10-13T13:59:52Z</time>
      </trkpt>
      <trkpt lat="30.937445117412526" lon="113.55601849753542">
        <ele>33.528181133791804</ele>
        <time>2022-10-13T13:59:56Z</time>
      </trkpt>
      <trkpt lat="30.937355288976924" lon="113.55584651055969">
        <ele>33.10829456616193</ele>
        <time>2022-10-13T14:00:04Z</time>
      </trkpt>
      <trkpt lat="30.93733164722467" lon="113.55575978583845">
        <ele>33.30573361180723</ele>
        <time>2022-10-13T14:00:08Z</time>
      </trkpt>
      <trkpt lat="30.9371479714578" lon="113.55550840390711">
        <ele>34.08313323184848</ele>
        <time>2022-10-13T14:00:20Z</time>
      </trkpt>
      <trkpt lat="30.93697948674688" lon="113.55536065861511">
        <ele>31.390935946255922</ele>
        <time>2022-10-13T14:00:28Z</time>
      </trkpt>
      <trkpt lat="30.936894041465514" lon="113.55531063279429">
        <ele>30.236111576668918</ele>
        <time>2022-10-13T14:00:32Z</time>
      </trkpt>
      <trkpt lat="30.936747947935284" lon="113.55509592293792">
        <ele>31.108434413559735</ele>
        <time>2022-10-13T14:00:44Z</time>
      </trkpt>
      <trkpt lat="30.936663372806898" lon="113.55493807912613">
        <ele>31.947126840241253</ele>
        <time>2022-10-13T14:00:52Z</time>
      </trkpt>
      <trkpt lat="30.93659204189185" lon="113.55473910983032">
        <ele>32.896442470140755</ele>
        <time>2022-10-13T14:01:02Z</time>
      </trkpt>
      <trkpt lat="30.936501128202668" lon="113.55464408957717">
        <ele>31.574954324401915</ele>
        <time>2022-10-13T14:01:08Z</time>
      </trkpt>
      <trkpt lat="30.936494161233558" lon="113.55457126236375">
        <ele>32.911113703623414</ele>
        <time>2022-10-13T14:01:11Z</time>
      </trkpt>
      <trkpt lat="30.936376108130943" lon="113.554404068385">
        <ele>31.755920473486185</ele>
        <time>2022-10-13T14:01:20Z</time>
      </trkpt>
      <trkpt lat="30.936352260553235" lon="113.55431623839995">
        <ele>31.82320482376963</ele>
        <time>2022-10-13T14:01:24Z</time>
      </trkpt>
      <trkpt lat="30.93629959293056" lon="113.55425085870846">
        <ele>31.599957208149135</ele>
        <time>2022-10-13T14:01:28Z</time>
      </trkpt>
      <trkpt lat="30.936237450820858" lon="113.55408657884469">
        <ele>31.8585275830701</ele>
        <time>2022-10-13T14:01:36Z</time>
      </trkpt>
      <trkpt lat="30.936188287691532" lon="113.55402016641915">
        <ele>31.618881303817034</ele>
        <time>2022-10-13T14:01:40Z</time>
      </trkpt>
      <trkpt lat="30.936116636274832" lon="113.55386984579378">
        <ele>30.708898437209427</ele>
        <time>2022-10-13T14:01:48Z</time>
      </trkpt>
      <trkpt lat="30.936233354356485" lon="113.55420492075045">
        <ele>31.806086082942784</ele>
        <time>2022-10-13T14:02:11Z</time>
      </trkpt>
      <trkpt lat="30.93639995874447" lon="113.55449598998538">
        <ele>31.931144199334085</ele>
        <time>2022-10-13T14:02:27Z</time>
      </trkpt>
      <trkpt lat="30.93655048687362" lon="113.55476964211309">
        <ele>32.26466709189117</ele>
        <time>2022-10-13T14:02:42Z</time>
      </trkpt>
      <trkpt lat="30.93669572115024" lon="113.55508035326635">
        <ele>31.7249663984403</ele>
        <time>2022-10-13T14:02:58Z</time>
      </trkpt>
      <trkpt lat="30.93679246536446" lon="113.55528782254034">
        <ele>31.43574217054993</ele>
        <time>2022-10-13T14:03:09Z</time>
      </trkpt>
      <trkpt lat="30.936835868393782" lon="113.55533460398611">
        <ele>30.59972347319126</ele>
        <time>2022-10-13T14:03:12Z</time>
      </trkpt>
      <trkpt lat="30.93706445911783" lon="113.55537797837812">
        <ele>32.31437086313963</ele>
        <time>2022-10-13T14:03:24Z</time>
      </trkpt>
      <trkpt lat="30.93713919601302" lon="113.55541238699757">
        <ele>32.660015078261495</ele>
        <time>2022-10-13T14:03:28Z</time>
      </trkpt>
      <trkpt lat="30.937368458346537" lon="113.5554388238884">
        <ele>31.931850290857255</ele>
        <time>2022-10-13T14:03:40Z</time>
      </trkpt>
      <trkpt lat="30.93748109815083" lon="113.55558416848463">
        <ele>32.9215445779264</ele>
        <time>2022-10-13T14:03:52Z</time>
      </trkpt>
      <trkpt lat="30.93751483306731" lon="113.55590273252902">
        <ele>32.949649250134826</ele>
        <time>2022-10-13T14:04:07Z</time>
      </trkpt>
    </trkseg>
  </trk>
</gpx>