<?xml version="1.0" encoding="UTF-8"?>
<gpx xmlns="http://www.topografix.com/GPX/1/1" xmlns:gpxtpx="http://www.garmin.com/xmlschemas/TrackPointExtension/v1" xmlns:xsi="http://www.w3.org/2001/XMLSchema-instance" xsi:schemaLocation="http://www.topografix.com/GPX/1/1 http://www.topografix.com/GPX/1/1/gpx.xsd" version="1.1" creator="gpx.py -- https://github.com/tkrajina/gpxpy">
  <trk>
    <name>gpx from keep</name>
    <type>Run</type>
    <trkseg>
      <trkpt lat="30.93737062453913" lon="113.55537769954033">
        <ele>30.17263412475586</ele>
        <time>2022-11-02T13:09:37Z</time>
      </trkpt>
      <trkpt lat="30.937089444815015" lon="113.55535864402619">
        <ele>30.152492688037455</ele>
        <time>2022-11-02T13:10:01Z</time>
      </trkpt>
      <trkpt lat="30.936977426144487" lon="113.55539019000035">
        <ele>31.425994876772165</ele>
        <time>2022-11-02T13:10:07Z</time>
      </trkpt>
      <trkpt lat="30.93689870335861" lon="113.5553875005411">
        <ele>31.26418076362461</ele>
        <time>2022-11-02T13:10:13Z</time>
      </trkpt>
      <trkpt lat="30.936835446592433" lon="113.55536155110622">
        <ele>30.281536972150207</ele>
        <time>2022-11-02T13:10:19Z</time>
      </trkpt>
      <trkpt lat="30.936741277367226" lon="113.55524983338202">
        <ele>29.876088300719857</ele>
        <time>2022-11-02T13:10:29Z</time>
      </trkpt>
      <trkpt lat="30.936729713926926" lon="113.55518344684964">
        <ele>29.295813891105354</ele>
        <time>2022-11-02T13:10:33Z</time>
      </trkpt>
      <trkpt lat="30.936687319197514" lon="113.55512422932186">
        <ele>29.168434211984277</ele>
        <time>2022-11-02T13:10:37Z</time>
      </trkpt>
      <trkpt lat="30.936529648942837" lon="113.55477959221176">
        <ele>30.656203574500978</ele>
        <time>2022-11-02T13:11:01Z</time>
      </trkpt>
      <trkpt lat="30.936474616930415" lon="113.55464504981425">
        <ele>31.01536105480045</ele>
        <time>2022-11-02T13:11:09Z</time>
      </trkpt>
      <trkpt lat="30.93646141575185" lon="113.55456265906942">
        <ele>30.983642833307385</ele>
        <time>2022-11-02T13:11:13Z</time>
      </trkpt>
      <trkpt lat="30.936292868576235" lon="113.55426329056282">
        <ele>29.94356493279338</ele>
        <time>2022-11-02T13:11:29Z</time>
      </trkpt>
      <trkpt lat="30.93608792903462" lon="113.5540022314206">
        <ele>29.484435936436057</ele>
        <time>2022-11-02T13:11:44Z</time>
      </trkpt>
      <trkpt lat="30.935944115049356" lon="113.55372620567601">
        <ele>29.472835865803063</ele>
        <time>2022-11-02T13:11:59Z</time>
      </trkpt>
      <trkpt lat="30.935775959525685" lon="113.55345362496081">
        <ele>30.114906140603125</ele>
        <time>2022-11-02T13:12:14Z</time>
      </trkpt>
      <trkpt lat="30.93565444638957" lon="113.55327468850969">
        <ele>30.013499330729246</ele>
        <time>2022-11-02T13:12:26Z</time>
        <extensions>
          <gpxtpx:TrackPointExtension>
            <gpxtpx:hr>135</gpxtpx:hr>
          </gpxtpx:TrackPointExtension>
        </extensions>
      </trkpt>
      <trkpt lat="30.93559787117005" lon="113.55309539859067">
        <ele>29.801888601854444</ele>
        <time>2022-11-02T13:12:35Z</time>
        <extensions>
          <gpxtpx:TrackPointExtension>
            <gpxtpx:hr>135</gpxtpx:hr>
          </gpxtpx:TrackPointExtension>
        </extensions>
      </trkpt>
      <trkpt lat="30.935536142705217" lon="113.55298699808164">
        <ele>30.459649953991175</ele>
        <time>2022-11-02T13:12:41Z</time>
        <extensions>
          <gpxtpx:TrackPointExtension>
            <gpxtpx:hr>137</gpxtpx:hr>
          </gpxtpx:TrackPointExtension>
        </extensions>
      </trkpt>
      <trkpt lat="30.93539212894812" lon="113.55266687012131">
        <ele>30.889746516011655</ele>
        <time>2022-11-02T13:12:58Z</time>
        <extensions>
          <gpxtpx:TrackPointExtension>
            <gpxtpx:hr>139</gpxtpx:hr>
          </gpxtpx:TrackPointExtension>
        </extensions>
      </trkpt>
      <trkpt lat="30.935264381954564" lon="113.55234648780232">
        <ele>31.012120934203267</ele>
        <time>2022-11-02T13:13:16Z</time>
        <extensions>
          <gpxtpx:TrackPointExtension>
            <gpxtpx:hr>136</gpxtpx:hr>
          </gpxtpx:TrackPointExtension>
        </extensions>
      </trkpt>
      <trkpt lat="30.93518995526419" lon="113.55219604391712">
        <ele>31.728889288380742</ele>
        <time>2022-11-02T13:13:24Z</time>
        <extensions>
          <gpxtpx:TrackPointExtension>
            <gpxtpx:hr>137</gpxtpx:hr>
          </gpxtpx:TrackPointExtension>
        </extensions>
      </trkpt>
      <trkpt lat="30.935079731307606" lon="113.5518950609418">
        <ele>31.811833274550736</ele>
        <time>2022-11-02T13:13:40Z</time>
        <extensions>
          <gpxtpx:TrackPointExtension>
            <gpxtpx:hr>136</gpxtpx:hr>
          </gpxtpx:TrackPointExtension>
        </extensions>
      </trkpt>
      <trkpt lat="30.934954683233855" lon="113.55164636947706">
        <ele>31.003180813975632</ele>
        <time>2022-11-02T13:13:54Z</time>
        <extensions>
          <gpxtpx:TrackPointExtension>
            <gpxtpx:hr>137</gpxtpx:hr>
          </gpxtpx:TrackPointExtension>
        </extensions>
      </trkpt>
      <trkpt lat="30.934918487788284" lon="113.55148557112034">
        <ele>31.25012857466936</ele>
        <time>2022-11-02T13:14:02Z</time>
        <extensions>
          <gpxtpx:TrackPointExtension>
            <gpxtpx:hr>137</gpxtpx:hr>
          </gpxtpx:TrackPointExtension>
        </extensions>
      </trkpt>
      <trkpt lat="30.934916498410804" lon="113.55140679373487">
        <ele>30.96511766500771</ele>
        <time>2022-11-02T13:14:06Z</time>
        <extensions>
          <gpxtpx:TrackPointExtension>
            <gpxtpx:hr>136</gpxtpx:hr>
          </gpxtpx:TrackPointExtension>
        </extensions>
      </trkpt>
      <trkpt lat="30.934957573536433" lon="113.55126184726838">
        <ele>30.270061867311597</ele>
        <time>2022-11-02T13:14:14Z</time>
        <extensions>
          <gpxtpx:TrackPointExtension>
            <gpxtpx:hr>136</gpxtpx:hr>
          </gpxtpx:TrackPointExtension>
        </extensions>
      </trkpt>
      <trkpt lat="30.93505564949099" lon="113.55113217355841">
        <ele>30.199946268461645</ele>
        <time>2022-11-02T13:14:22Z</time>
        <extensions>
          <gpxtpx:TrackPointExtension>
            <gpxtpx:hr>137</gpxtpx:hr>
          </gpxtpx:TrackPointExtension>
        </extensions>
      </trkpt>
      <trkpt lat="30.93527249968131" lon="113.55094653791562">
        <ele>30.537425787188113</ele>
        <time>2022-11-02T13:14:38Z</time>
        <extensions>
          <gpxtpx:TrackPointExtension>
            <gpxtpx:hr>138</gpxtpx:hr>
          </gpxtpx:TrackPointExtension>
        </extensions>
      </trkpt>
      <trkpt lat="30.935421449145917" lon="113.55076310946775">
        <ele>30.400163382291794</ele>
        <time>2022-11-02T13:14:50Z</time>
        <extensions>
          <gpxtpx:TrackPointExtension>
            <gpxtpx:hr>139</gpxtpx:hr>
          </gpxtpx:TrackPointExtension>
        </extensions>
      </trkpt>
      <trkpt lat="30.93533928814473" lon="113.55069208374485">
        <ele>30.96849951054901</ele>
        <time>2022-11-02T13:14:57Z</time>
        <extensions>
          <gpxtpx:TrackPointExtension>
            <gpxtpx:hr>139</gpxtpx:hr>
          </gpxtpx:TrackPointExtension>
        </extensions>
      </trkpt>
      <trkpt lat="30.935008441670977" lon="113.5507000758572">
        <ele>30.735154907219112</ele>
        <time>2022-11-02T13:15:15Z</time>
        <extensions>
          <gpxtpx:TrackPointExtension>
            <gpxtpx:hr>134</gpxtpx:hr>
          </gpxtpx:TrackPointExtension>
        </extensions>
      </trkpt>
      <trkpt lat="30.934724861203453" lon="113.55068304274572">
        <ele>30.668586029671133</ele>
        <time>2022-11-02T13:15:32Z</time>
        <extensions>
          <gpxtpx:TrackPointExtension>
            <gpxtpx:hr>139</gpxtpx:hr>
          </gpxtpx:TrackPointExtension>
        </extensions>
      </trkpt>
      <trkpt lat="30.934583327889527" lon="113.55064946622112">
        <ele>31.074725166894495</ele>
        <time>2022-11-02T13:15:40Z</time>
        <extensions>
          <gpxtpx:TrackPointExtension>
            <gpxtpx:hr>139</gpxtpx:hr>
          </gpxtpx:TrackPointExtension>
        </extensions>
      </trkpt>
      <trkpt lat="30.934378105225754" lon="113.55070374882791">
        <ele>30.047998608089983</ele>
        <time>2022-11-02T13:15:52Z</time>
        <extensions>
          <gpxtpx:TrackPointExtension>
            <gpxtpx:hr>138</gpxtpx:hr>
          </gpxtpx:TrackPointExtension>
        </extensions>
      </trkpt>
      <trkpt lat="30.93437360307286" lon="113.55092695169783">
        <ele>30.406740699894726</ele>
        <time>2022-11-02T13:16:02Z</time>
        <extensions>
          <gpxtpx:TrackPointExtension>
            <gpxtpx:hr>131</gpxtpx:hr>
          </gpxtpx:TrackPointExtension>
        </extensions>
      </trkpt>
      <trkpt lat="30.93429444260187" lon="113.55125108687089">
        <ele>29.750051835551858</ele>
        <time>2022-11-02T13:16:18Z</time>
        <extensions>
          <gpxtpx:TrackPointExtension>
            <gpxtpx:hr>133</gpxtpx:hr>
          </gpxtpx:TrackPointExtension>
        </extensions>
      </trkpt>
      <trkpt lat="30.934177570668236" lon="113.55158563437456">
        <ele>31.1700709881261</ele>
        <time>2022-11-02T13:16:38Z</time>
        <extensions>
          <gpxtpx:TrackPointExtension>
            <gpxtpx:hr>131</gpxtpx:hr>
          </gpxtpx:TrackPointExtension>
        </extensions>
      </trkpt>
      <trkpt lat="30.93416882894638" lon="113.55165870439623">
        <ele>30.68298844154924</ele>
        <time>2022-11-02T13:16:42Z</time>
        <extensions>
          <gpxtpx:TrackPointExtension>
            <gpxtpx:hr>131</gpxtpx:hr>
          </gpxtpx:TrackPointExtension>
        </extensions>
      </trkpt>
      <trkpt lat="30.934184797353947" lon="113.5517823313449">
        <ele>30.437245790846646</ele>
        <time>2022-11-02T13:16:50Z</time>
        <extensions>
          <gpxtpx:TrackPointExtension>
            <gpxtpx:hr>130</gpxtpx:hr>
          </gpxtpx:TrackPointExtension>
        </extensions>
      </trkpt>
      <trkpt lat="30.934236872095475" lon="113.55195933277885">
        <ele>31.826100553385913</ele>
        <time>2022-11-02T13:17:02Z</time>
        <extensions>
          <gpxtpx:TrackPointExtension>
            <gpxtpx:hr>122</gpxtpx:hr>
          </gpxtpx:TrackPointExtension>
        </extensions>
      </trkpt>
      <trkpt lat="30.934282196032875" lon="113.5521593193317">
        <ele>31.498951517045498</ele>
        <time>2022-11-02T13:17:17Z</time>
        <extensions>
          <gpxtpx:TrackPointExtension>
            <gpxtpx:hr>117</gpxtpx:hr>
          </gpxtpx:TrackPointExtension>
        </extensions>
      </trkpt>
      <trkpt lat="30.934422710787732" lon="113.55245671888531">
        <ele>30.534470772370696</ele>
        <time>2022-11-02T13:17:41Z</time>
        <extensions>
          <gpxtpx:TrackPointExtension>
            <gpxtpx:hr>119</gpxtpx:hr>
          </gpxtpx:TrackPointExtension>
        </extensions>
      </trkpt>
      <trkpt lat="30.934555314966435" lon="113.55277914798609">
        <ele>29.224368948489428</ele>
        <time>2022-11-02T13:18:01Z</time>
        <extensions>
          <gpxtpx:TrackPointExtension>
            <gpxtpx:hr>122</gpxtpx:hr>
          </gpxtpx:TrackPointExtension>
        </extensions>
      </trkpt>
      <trkpt lat="30.93470503374502" lon="113.55306418949968">
        <ele>30.56441039312631</ele>
        <time>2022-11-02T13:18:17Z</time>
        <extensions>
          <gpxtpx:TrackPointExtension>
            <gpxtpx:hr>128</gpxtpx:hr>
          </gpxtpx:TrackPointExtension>
        </extensions>
      </trkpt>
      <trkpt lat="30.93474697077563" lon="113.55317810177758">
        <ele>31.1028139218688</ele>
        <time>2022-11-02T13:18:23Z</time>
        <extensions>
          <gpxtpx:TrackPointExtension>
            <gpxtpx:hr>128</gpxtpx:hr>
          </gpxtpx:TrackPointExtension>
        </extensions>
      </trkpt>
      <trkpt lat="30.93481956469164" lon="113.55327881154182">
        <ele>30.574654964730144</ele>
        <time>2022-11-02T13:18:30Z</time>
        <extensions>
          <gpxtpx:TrackPointExtension>
            <gpxtpx:hr>129</gpxtpx:hr>
          </gpxtpx:TrackPointExtension>
        </extensions>
      </trkpt>
      <trkpt lat="30.93484467224355" lon="113.55334901874879">
        <ele>30.042437352240086</ele>
        <time>2022-11-02T13:18:34Z</time>
        <extensions>
          <gpxtpx:TrackPointExtension>
            <gpxtpx:hr>129</gpxtpx:hr>
          </gpxtpx:TrackPointExtension>
        </extensions>
      </trkpt>
      <trkpt lat="30.934971831816473" lon="113.55355544535949">
        <ele>29.652979594655335</ele>
        <time>2022-11-02T13:18:46Z</time>
        <extensions>
          <gpxtpx:TrackPointExtension>
            <gpxtpx:hr>130</gpxtpx:hr>
          </gpxtpx:TrackPointExtension>
        </extensions>
      </trkpt>
      <trkpt lat="30.934976271325404" lon="113.55361104901468">
        <ele>28.08313586562872</ele>
        <time>2022-11-02T13:18:49Z</time>
        <extensions>
          <gpxtpx:TrackPointExtension>
            <gpxtpx:hr>130</gpxtpx:hr>
          </gpxtpx:TrackPointExtension>
        </extensions>
      </trkpt>
      <trkpt lat="30.935138817308673" lon="113.55388417627947">
        <ele>29.264466190710664</ele>
        <time>2022-11-02T13:19:05Z</time>
        <extensions>
          <gpxtpx:TrackPointExtension>
            <gpxtpx:hr>135</gpxtpx:hr>
          </gpxtpx:TrackPointExtension>
        </extensions>
      </trkpt>
      <trkpt lat="30.935309996690687" lon="113.55414832539547">
        <ele>29.82323596905917</ele>
        <time>2022-11-02T13:19:21Z</time>
        <extensions>
          <gpxtpx:TrackPointExtension>
            <gpxtpx:hr>137</gpxtpx:hr>
          </gpxtpx:TrackPointExtension>
        </extensions>
      </trkpt>
      <trkpt lat="30.93546861089296" lon="113.5544176515436">
        <ele>29.853761108592153</ele>
        <time>2022-11-02T13:19:37Z</time>
        <extensions>
          <gpxtpx:TrackPointExtension>
            <gpxtpx:hr>134</gpxtpx:hr>
          </gpxtpx:TrackPointExtension>
        </extensions>
      </trkpt>
      <trkpt lat="30.935540971052355" lon="113.55454948007477">
        <ele>29.6909745298326</ele>
        <time>2022-11-02T13:19:45Z</time>
        <extensions>
          <gpxtpx:TrackPointExtension>
            <gpxtpx:hr>135</gpxtpx:hr>
          </gpxtpx:TrackPointExtension>
        </extensions>
      </trkpt>
      <trkpt lat="30.93556615646404" lon="113.55462793522116">
        <ele>29.84742928855121</ele>
        <time>2022-11-02T13:19:49Z</time>
        <extensions>
          <gpxtpx:TrackPointExtension>
            <gpxtpx:hr>136</gpxtpx:hr>
          </gpxtpx:TrackPointExtension>
        </extensions>
      </trkpt>
      <trkpt lat="30.935614029876973" lon="113.55469247730404">
        <ele>29.35802040528506</ele>
        <time>2022-11-02T13:19:53Z</time>
        <extensions>
          <gpxtpx:TrackPointExtension>
            <gpxtpx:hr>136</gpxtpx:hr>
          </gpxtpx:TrackPointExtension>
        </extensions>
      </trkpt>
      <trkpt lat="30.93577355826207" lon="113.55499286281123">
        <ele>29.916171258315444</ele>
        <time>2022-11-02T13:20:11Z</time>
        <extensions>
          <gpxtpx:TrackPointExtension>
            <gpxtpx:hr>135</gpxtpx:hr>
          </gpxtpx:TrackPointExtension>
        </extensions>
      </trkpt>
      <trkpt lat="30.93581830955842" lon="113.55509541072296">
        <ele>28.869143361225724</ele>
        <time>2022-11-02T13:20:17Z</time>
        <extensions>
          <gpxtpx:TrackPointExtension>
            <gpxtpx:hr>135</gpxtpx:hr>
          </gpxtpx:TrackPointExtension>
        </extensions>
      </trkpt>
      <trkpt lat="30.93593283304138" lon="113.55524421876818">
        <ele>29.55060998443514</ele>
        <time>2022-11-02T13:20:27Z</time>
        <extensions>
          <gpxtpx:TrackPointExtension>
            <gpxtpx:hr>135</gpxtpx:hr>
          </gpxtpx:TrackPointExtension>
        </extensions>
      </trkpt>
      <trkpt lat="30.93604690525811" lon="113.5554677656082">
        <ele>29.20005218219012</ele>
        <time>2022-11-02T13:20:40Z</time>
        <extensions>
          <gpxtpx:TrackPointExtension>
            <gpxtpx:hr>134</gpxtpx:hr>
          </gpxtpx:TrackPointExtension>
        </extensions>
      </trkpt>
      <trkpt lat="30.9361211297262" lon="113.55566138847966">
        <ele>28.797127124853432</ele>
        <time>2022-11-02T13:20:51Z</time>
        <extensions>
          <gpxtpx:TrackPointExtension>
            <gpxtpx:hr>136</gpxtpx:hr>
          </gpxtpx:TrackPointExtension>
        </extensions>
      </trkpt>
      <trkpt lat="30.93626151892376" lon="113.55594994455116">
        <ele>30.110071450471878</ele>
        <time>2022-11-02T13:21:07Z</time>
        <extensions>
          <gpxtpx:TrackPointExtension>
            <gpxtpx:hr>136</gpxtpx:hr>
          </gpxtpx:TrackPointExtension>
        </extensions>
      </trkpt>
      <trkpt lat="30.936355248575584" lon="113.55622740229855">
        <ele>28.972758810035884</ele>
        <time>2022-11-02T13:21:23Z</time>
        <extensions>
          <gpxtpx:TrackPointExtension>
            <gpxtpx:hr>138</gpxtpx:hr>
          </gpxtpx:TrackPointExtension>
        </extensions>
      </trkpt>
      <trkpt lat="30.936384322801608" lon="113.55648650121758">
        <ele>30.742914360016584</ele>
        <time>2022-11-02T13:21:35Z</time>
        <extensions>
          <gpxtpx:TrackPointExtension>
            <gpxtpx:hr>137</gpxtpx:hr>
          </gpxtpx:TrackPointExtension>
        </extensions>
      </trkpt>
      <trkpt lat="30.936341565682447" lon="113.55670471570754">
        <ele>31.157906383275986</ele>
        <time>2022-11-02T13:21:47Z</time>
        <extensions>
          <gpxtpx:TrackPointExtension>
            <gpxtpx:hr>138</gpxtpx:hr>
          </gpxtpx:TrackPointExtension>
        </extensions>
      </trkpt>
      <trkpt lat="30.93631503316116" lon="113.55677407305389">
        <ele>30.973066178150475</ele>
        <time>2022-11-02T13:21:51Z</time>
        <extensions>
          <gpxtpx:TrackPointExtension>
            <gpxtpx:hr>138</gpxtpx:hr>
          </gpxtpx:TrackPointExtension>
        </extensions>
      </trkpt>
      <trkpt lat="30.93606054095374" lon="113.55702749807007">
        <ele>30.25178891606629</ele>
        <time>2022-11-02T13:22:10Z</time>
        <extensions>
          <gpxtpx:TrackPointExtension>
            <gpxtpx:hr>136</gpxtpx:hr>
          </gpxtpx:TrackPointExtension>
        </extensions>
      </trkpt>
      <trkpt lat="30.935819646144573" lon="113.55718945591674">
        <ele>30.3680231384933</ele>
        <time>2022-11-02T13:22:26Z</time>
        <extensions>
          <gpxtpx:TrackPointExtension>
            <gpxtpx:hr>134</gpxtpx:hr>
          </gpxtpx:TrackPointExtension>
        </extensions>
      </trkpt>
      <trkpt lat="30.935563198591666" lon="113.55732498993835">
        <ele>29.542833572253585</ele>
        <time>2022-11-02T13:22:42Z</time>
        <extensions>
          <gpxtpx:TrackPointExtension>
            <gpxtpx:hr>133</gpxtpx:hr>
          </gpxtpx:TrackPointExtension>
        </extensions>
      </trkpt>
      <trkpt lat="30.935294170627415" lon="113.55744800776982">
        <ele>29.855139398016036</ele>
        <time>2022-11-02T13:22:58Z</time>
        <extensions>
          <gpxtpx:TrackPointExtension>
            <gpxtpx:hr>136</gpxtpx:hr>
          </gpxtpx:TrackPointExtension>
        </extensions>
      </trkpt>
      <trkpt lat="30.935168671645577" lon="113.55750345441906">
        <ele>29.574864879250526</ele>
        <time>2022-11-02T13:23:06Z</time>
        <extensions>
          <gpxtpx:TrackPointExtension>
            <gpxtpx:hr>134</gpxtpx:hr>
          </gpxtpx:TrackPointExtension>
        </extensions>
      </trkpt>
      <trkpt lat="30.934916043716168" lon="113.55758364971798">
        <ele>30.244699416682124</ele>
        <time>2022-11-02T13:23:21Z</time>
        <extensions>
          <gpxtpx:TrackPointExtension>
            <gpxtpx:hr>136</gpxtpx:hr>
          </gpxtpx:TrackPointExtension>
        </extensions>
      </trkpt>
      <trkpt lat="30.93479100105682" lon="113.55759040156295">
        <ele>29.914503371343017</ele>
        <time>2022-11-02T13:23:29Z</time>
        <extensions>
          <gpxtpx:TrackPointExtension>
            <gpxtpx:hr>136</gpxtpx:hr>
          </gpxtpx:TrackPointExtension>
        </extensions>
      </trkpt>
      <trkpt lat="30.934721468591018" lon="113.5576152721092">
        <ele>30.315531914122403</ele>
        <time>2022-11-02T13:23:33Z</time>
        <extensions>
          <gpxtpx:TrackPointExtension>
            <gpxtpx:hr>136</gpxtpx:hr>
          </gpxtpx:TrackPointExtension>
        </extensions>
      </trkpt>
      <trkpt lat="30.934529734846738" lon="113.55761728789989">
        <ele>31.45488696731627</ele>
        <time>2022-11-02T13:23:45Z</time>
        <extensions>
          <gpxtpx:TrackPointExtension>
            <gpxtpx:hr>137</gpxtpx:hr>
          </gpxtpx:TrackPointExtension>
        </extensions>
      </trkpt>
      <trkpt lat="30.934475588350804" lon="113.55759753457649">
        <ele>30.192092542536557</ele>
        <time>2022-11-02T13:23:49Z</time>
        <extensions>
          <gpxtpx:TrackPointExtension>
            <gpxtpx:hr>136</gpxtpx:hr>
          </gpxtpx:TrackPointExtension>
        </extensions>
      </trkpt>
      <trkpt lat="30.934213121690245" lon="113.55759514833676">
        <ele>31.55593933071941</ele>
        <time>2022-11-02T13:24:05Z</time>
        <extensions>
          <gpxtpx:TrackPointExtension>
            <gpxtpx:hr>138</gpxtpx:hr>
          </gpxtpx:TrackPointExtension>
        </extensions>
      </trkpt>
      <trkpt lat="30.93415078242427" lon="113.55755127586556">
        <ele>31.462775368243456</ele>
        <time>2022-11-02T13:24:09Z</time>
        <extensions>
          <gpxtpx:TrackPointExtension>
            <gpxtpx:hr>138</gpxtpx:hr>
          </gpxtpx:TrackPointExtension>
        </extensions>
      </trkpt>
      <trkpt lat="30.93403116517797" lon="113.55754613421061">
        <ele>32.034715057350695</ele>
        <time>2022-11-02T13:24:16Z</time>
        <extensions>
          <gpxtpx:TrackPointExtension>
            <gpxtpx:hr>138</gpxtpx:hr>
          </gpxtpx:TrackPointExtension>
        </extensions>
      </trkpt>
      <trkpt lat="30.93372990724899" lon="113.55747790491691">
        <ele>31.95219485182315</ele>
        <time>2022-11-02T13:24:34Z</time>
        <extensions>
          <gpxtpx:TrackPointExtension>
            <gpxtpx:hr>136</gpxtpx:hr>
          </gpxtpx:TrackPointExtension>
        </extensions>
      </trkpt>
      <trkpt lat="30.933605733234003" lon="113.55741136291776">
        <ele>31.624345572665334</ele>
        <time>2022-11-02T13:24:42Z</time>
        <extensions>
          <gpxtpx:TrackPointExtension>
            <gpxtpx:hr>132</gpxtpx:hr>
          </gpxtpx:TrackPointExtension>
        </extensions>
      </trkpt>
      <trkpt lat="30.933468908544615" lon="113.55737996811779">
        <ele>31.635597048327327</ele>
        <time>2022-11-02T13:24:50Z</time>
        <extensions>
          <gpxtpx:TrackPointExtension>
            <gpxtpx:hr>132</gpxtpx:hr>
          </gpxtpx:TrackPointExtension>
        </extensions>
      </trkpt>
      <trkpt lat="30.933413012824015" lon="113.55733979589573">
        <ele>32.09369581285864</ele>
        <time>2022-11-02T13:24:54Z</time>
        <extensions>
          <gpxtpx:TrackPointExtension>
            <gpxtpx:hr>135</gpxtpx:hr>
          </gpxtpx:TrackPointExtension>
        </extensions>
      </trkpt>
      <trkpt lat="30.933152816206512" lon="113.55723940112672">
        <ele>32.56653692480177</ele>
        <time>2022-11-02T13:25:14Z</time>
        <extensions>
          <gpxtpx:TrackPointExtension>
            <gpxtpx:hr>129</gpxtpx:hr>
          </gpxtpx:TrackPointExtension>
        </extensions>
      </trkpt>
      <trkpt lat="30.93310411436234" lon="113.55722500117429">
        <ele>32.43064034450799</ele>
        <time>2022-11-02T13:25:18Z</time>
        <extensions>
          <gpxtpx:TrackPointExtension>
            <gpxtpx:hr>128</gpxtpx:hr>
          </gpxtpx:TrackPointExtension>
        </extensions>
      </trkpt>
      <trkpt lat="30.932898015559115" lon="113.55700001904825">
        <ele>33.18879438750446</ele>
        <time>2022-11-02T13:25:38Z</time>
        <extensions>
          <gpxtpx:TrackPointExtension>
            <gpxtpx:hr>115</gpxtpx:hr>
          </gpxtpx:TrackPointExtension>
        </extensions>
      </trkpt>
      <trkpt lat="30.93268291718051" lon="113.55673465207215">
        <ele>33.92609652597457</ele>
        <time>2022-11-02T13:26:02Z</time>
        <extensions>
          <gpxtpx:TrackPointExtension>
            <gpxtpx:hr>118</gpxtpx:hr>
          </gpxtpx:TrackPointExtension>
        </extensions>
      </trkpt>
      <trkpt lat="30.932618431993827" lon="113.5566359778711">
        <ele>33.41237396001816</ele>
        <time>2022-11-02T13:26:10Z</time>
        <extensions>
          <gpxtpx:TrackPointExtension>
            <gpxtpx:hr>114</gpxtpx:hr>
          </gpxtpx:TrackPointExtension>
        </extensions>
      </trkpt>
      <trkpt lat="30.932538391451466" lon="113.55663174549176">
        <ele>34.899049112573266</ele>
        <time>2022-11-02T13:26:17Z</time>
        <extensions>
          <gpxtpx:TrackPointExtension>
            <gpxtpx:hr>114</gpxtpx:hr>
          </gpxtpx:TrackPointExtension>
        </extensions>
      </trkpt>
      <trkpt lat="30.93251810775992" lon="113.55694924893494">
        <ele>30.45961939636618</ele>
        <time>2022-11-02T13:26:31Z</time>
        <extensions>
          <gpxtpx:TrackPointExtension>
            <gpxtpx:hr>124</gpxtpx:hr>
          </gpxtpx:TrackPointExtension>
        </extensions>
      </trkpt>
      <trkpt lat="30.932527532353475" lon="113.55702736009317">
        <ele>30.83896678313613</ele>
        <time>2022-11-02T13:26:34Z</time>
        <extensions>
          <gpxtpx:TrackPointExtension>
            <gpxtpx:hr>124</gpxtpx:hr>
          </gpxtpx:TrackPointExtension>
        </extensions>
      </trkpt>
      <trkpt lat="30.93250519256825" lon="113.55711981772755">
        <ele>30.016152204945683</ele>
        <time>2022-11-02T13:26:38Z</time>
        <extensions>
          <gpxtpx:TrackPointExtension>
            <gpxtpx:hr>125</gpxtpx:hr>
          </gpxtpx:TrackPointExtension>
        </extensions>
      </trkpt>
      <trkpt lat="30.932515305063486" lon="113.55746088794496">
        <ele>29.17592860478908</ele>
        <time>2022-11-02T13:26:54Z</time>
        <extensions>
          <gpxtpx:TrackPointExtension>
            <gpxtpx:hr>133</gpxtpx:hr>
          </gpxtpx:TrackPointExtension>
        </extensions>
      </trkpt>
      <trkpt lat="30.932509858619984" lon="113.55771975549447">
        <ele>29.205239593051374</ele>
        <time>2022-11-02T13:27:06Z</time>
        <extensions>
          <gpxtpx:TrackPointExtension>
            <gpxtpx:hr>135</gpxtpx:hr>
          </gpxtpx:TrackPointExtension>
        </extensions>
      </trkpt>
      <trkpt lat="30.932532479403893" lon="113.55780972908777">
        <ele>29.307947274297476</ele>
        <time>2022-11-02T13:27:10Z</time>
        <extensions>
          <gpxtpx:TrackPointExtension>
            <gpxtpx:hr>135</gpxtpx:hr>
          </gpxtpx:TrackPointExtension>
        </extensions>
      </trkpt>
      <trkpt lat="30.932583283396443" lon="113.55787086319607">
        <ele>30.435103456489742</ele>
        <time>2022-11-02T13:27:14Z</time>
        <extensions>
          <gpxtpx:TrackPointExtension>
            <gpxtpx:hr>137</gpxtpx:hr>
          </gpxtpx:TrackPointExtension>
        </extensions>
      </trkpt>
      <trkpt lat="30.932864734475732" lon="113.55799336214689">
        <ele>27.002174930647016</ele>
        <time>2022-11-02T13:27:34Z</time>
        <extensions>
          <gpxtpx:TrackPointExtension>
            <gpxtpx:hr>137</gpxtpx:hr>
          </gpxtpx:TrackPointExtension>
        </extensions>
      </trkpt>
      <trkpt lat="30.933155691600174" lon="113.55805230855553">
        <ele>27.861559907905757</ele>
        <time>2022-11-02T13:27:50Z</time>
        <extensions>
          <gpxtpx:TrackPointExtension>
            <gpxtpx:hr>136</gpxtpx:hr>
          </gpxtpx:TrackPointExtension>
        </extensions>
      </trkpt>
      <trkpt lat="30.93341618961891" lon="113.55809000728995">
        <ele>28.64972987305373</ele>
        <time>2022-11-02T13:28:02Z</time>
        <extensions>
          <gpxtpx:TrackPointExtension>
            <gpxtpx:hr>134</gpxtpx:hr>
          </gpxtpx:TrackPointExtension>
        </extensions>
      </trkpt>
      <trkpt lat="30.933490650998795" lon="113.55811548465284">
        <ele>28.758851477876306</ele>
        <time>2022-11-02T13:28:06Z</time>
        <extensions>
          <gpxtpx:TrackPointExtension>
            <gpxtpx:hr>134</gpxtpx:hr>
          </gpxtpx:TrackPointExtension>
        </extensions>
      </trkpt>
      <trkpt lat="30.933818715820788" lon="113.55815827100103">
        <ele>30.75610547233373</ele>
        <time>2022-11-02T13:28:22Z</time>
        <extensions>
          <gpxtpx:TrackPointExtension>
            <gpxtpx:hr>134</gpxtpx:hr>
          </gpxtpx:TrackPointExtension>
        </extensions>
      </trkpt>
      <trkpt lat="30.93405387611033" lon="113.55821956713538">
        <ele>29.9591293213889</ele>
        <time>2022-11-02T13:28:37Z</time>
        <extensions>
          <gpxtpx:TrackPointExtension>
            <gpxtpx:hr>136</gpxtpx:hr>
          </gpxtpx:TrackPointExtension>
        </extensions>
      </trkpt>
      <trkpt lat="30.934371757725387" lon="113.5582810465357">
        <ele>29.881455638445914</ele>
        <time>2022-11-02T13:28:59Z</time>
        <extensions>
          <gpxtpx:TrackPointExtension>
            <gpxtpx:hr>140</gpxtpx:hr>
          </gpxtpx:TrackPointExtension>
        </extensions>
      </trkpt>
      <trkpt lat="30.93467786073866" lon="113.55832580489495">
        <ele>31.898979308083653</ele>
        <time>2022-11-02T13:29:17Z</time>
        <extensions>
          <gpxtpx:TrackPointExtension>
            <gpxtpx:hr>137</gpxtpx:hr>
          </gpxtpx:TrackPointExtension>
        </extensions>
      </trkpt>
      <trkpt lat="30.934942096617803" lon="113.55832733288358">
        <ele>32.117524205707014</ele>
        <time>2022-11-02T13:29:32Z</time>
        <extensions>
          <gpxtpx:TrackPointExtension>
            <gpxtpx:hr>141</gpxtpx:hr>
          </gpxtpx:TrackPointExtension>
        </extensions>
      </trkpt>
      <trkpt lat="30.935154507374993" lon="113.55829729368936">
        <ele>31.669172566384077</ele>
        <time>2022-11-02T13:29:44Z</time>
        <extensions>
          <gpxtpx:TrackPointExtension>
            <gpxtpx:hr>137</gpxtpx:hr>
          </gpxtpx:TrackPointExtension>
        </extensions>
      </trkpt>
      <trkpt lat="30.93534664902953" lon="113.55830527606851">
        <ele>30.243656296283007</ele>
        <time>2022-11-02T13:29:56Z</time>
        <extensions>
          <gpxtpx:TrackPointExtension>
            <gpxtpx:hr>137</gpxtpx:hr>
          </gpxtpx:TrackPointExtension>
        </extensions>
      </trkpt>
      <trkpt lat="30.935671406489607" lon="113.55822033785967">
        <ele>29.951949837617576</ele>
        <time>2022-11-02T13:30:16Z</time>
        <extensions>
          <gpxtpx:TrackPointExtension>
            <gpxtpx:hr>138</gpxtpx:hr>
          </gpxtpx:TrackPointExtension>
        </extensions>
      </trkpt>
      <trkpt lat="30.935716952544773" lon="113.55821679459336">
        <ele>29.484735067002475</ele>
        <time>2022-11-02T13:30:20Z</time>
        <extensions>
          <gpxtpx:TrackPointExtension>
            <gpxtpx:hr>138</gpxtpx:hr>
          </gpxtpx:TrackPointExtension>
        </extensions>
      </trkpt>
      <trkpt lat="30.93589942632762" lon="113.55806794182901">
        <ele>31.262459011748433</ele>
        <time>2022-11-02T13:30:32Z</time>
        <extensions>
          <gpxtpx:TrackPointExtension>
            <gpxtpx:hr>139</gpxtpx:hr>
          </gpxtpx:TrackPointExtension>
        </extensions>
      </trkpt>
      <trkpt lat="30.936112364838507" lon="113.55783143029353">
        <ele>31.095807429403067</ele>
        <time>2022-11-02T13:30:50Z</time>
        <extensions>
          <gpxtpx:TrackPointExtension>
            <gpxtpx:hr>136</gpxtpx:hr>
          </gpxtpx:TrackPointExtension>
        </extensions>
      </trkpt>
      <trkpt lat="30.93633949334127" lon="113.55762489121207">
        <ele>31.532066165469587</ele>
        <time>2022-11-02T13:31:06Z</time>
        <extensions>
          <gpxtpx:TrackPointExtension>
            <gpxtpx:hr>135</gpxtpx:hr>
          </gpxtpx:TrackPointExtension>
        </extensions>
      </trkpt>
      <trkpt lat="30.936580713347666" lon="113.55745514691466">
        <ele>32.124850787222385</ele>
        <time>2022-11-02T13:31:22Z</time>
        <extensions>
          <gpxtpx:TrackPointExtension>
            <gpxtpx:hr>137</gpxtpx:hr>
          </gpxtpx:TrackPointExtension>
        </extensions>
      </trkpt>
      <trkpt lat="30.93682620623992" lon="113.557258262855">
        <ele>31.973592693917453</ele>
        <time>2022-11-02T13:31:38Z</time>
        <extensions>
          <gpxtpx:TrackPointExtension>
            <gpxtpx:hr>141</gpxtpx:hr>
          </gpxtpx:TrackPointExtension>
        </extensions>
      </trkpt>
      <trkpt lat="30.93705652147568" lon="113.55702053536015">
        <ele>31.53887205105275</ele>
        <time>2022-11-02T13:31:54Z</time>
        <extensions>
          <gpxtpx:TrackPointExtension>
            <gpxtpx:hr>138</gpxtpx:hr>
          </gpxtpx:TrackPointExtension>
        </extensions>
      </trkpt>
      <trkpt lat="30.937138295370143" lon="113.55689256564492">
        <ele>31.637866421602666</ele>
        <time>2022-11-02T13:32:02Z</time>
        <extensions>
          <gpxtpx:TrackPointExtension>
            <gpxtpx:hr>137</gpxtpx:hr>
          </gpxtpx:TrackPointExtension>
        </extensions>
      </trkpt>
      <trkpt lat="30.937201344127846" lon="113.55656202295316">
        <ele>31.989030584692955</ele>
        <time>2022-11-02T13:32:18Z</time>
        <extensions>
          <gpxtpx:TrackPointExtension>
            <gpxtpx:hr>139</gpxtpx:hr>
          </gpxtpx:TrackPointExtension>
        </extensions>
      </trkpt>
      <trkpt lat="30.93717648961645" lon="113.55624813325937">
        <ele>31.94820324331522</ele>
        <time>2022-11-02T13:32:34Z</time>
        <extensions>
          <gpxtpx:TrackPointExtension>
            <gpxtpx:hr>136</gpxtpx:hr>
          </gpxtpx:TrackPointExtension>
        </extensions>
      </trkpt>
      <trkpt lat="30.93716223050076" lon="113.55609260057861">
        <ele>32.19968725834042</ele>
        <time>2022-11-02T13:32:42Z</time>
        <extensions>
          <gpxtpx:TrackPointExtension>
            <gpxtpx:hr>136</gpxtpx:hr>
          </gpxtpx:TrackPointExtension>
        </extensions>
      </trkpt>
      <trkpt lat="30.937057363506128" lon="113.55575344166202">
        <ele>32.19204528070986</ele>
        <time>2022-11-02T13:33:00Z</time>
        <extensions>
          <gpxtpx:TrackPointExtension>
            <gpxtpx:hr>139</gpxtpx:hr>
          </gpxtpx:TrackPointExtension>
        </extensions>
      </trkpt>
      <trkpt lat="30.936961400117045" lon="113.55548569360205">
        <ele>32.248471684753895</ele>
        <time>2022-11-02T13:33:16Z</time>
        <extensions>
          <gpxtpx:TrackPointExtension>
            <gpxtpx:hr>138</gpxtpx:hr>
          </gpxtpx:TrackPointExtension>
        </extensions>
      </trkpt>
      <trkpt lat="30.936844655924165" lon="113.55528724719254">
        <ele>31.721423491835594</ele>
        <time>2022-11-02T13:33:32Z</time>
        <extensions>
          <gpxtpx:TrackPointExtension>
            <gpxtpx:hr>129</gpxtpx:hr>
          </gpxtpx:TrackPointExtension>
        </extensions>
      </trkpt>
      <trkpt lat="30.93677048321921" lon="113.5552249460477">
        <ele>31.377413688227534</ele>
        <time>2022-11-02T13:33:40Z</time>
        <extensions>
          <gpxtpx:TrackPointExtension>
            <gpxtpx:hr>129</gpxtpx:hr>
          </gpxtpx:TrackPointExtension>
        </extensions>
      </trkpt>
      <trkpt lat="30.936610722801163" lon="113.5549153977873">
        <ele>30.551288639195263</ele>
        <time>2022-11-02T13:34:03Z</time>
        <extensions>
          <gpxtpx:TrackPointExtension>
            <gpxtpx:hr>115</gpxtpx:hr>
          </gpxtpx:TrackPointExtension>
        </extensions>
      </trkpt>
      <trkpt lat="30.93645014407995" lon="113.55462576818215">
        <ele>31.12169993389398</ele>
        <time>2022-11-02T13:34:26Z</time>
        <extensions>
          <gpxtpx:TrackPointExtension>
            <gpxtpx:hr>116</gpxtpx:hr>
          </gpxtpx:TrackPointExtension>
        </extensions>
      </trkpt>
      <trkpt lat="30.936295840561566" lon="113.55434430589153">
        <ele>30.30056481808424</ele>
        <time>2022-11-02T13:34:46Z</time>
        <extensions>
          <gpxtpx:TrackPointExtension>
            <gpxtpx:hr>121</gpxtpx:hr>
          </gpxtpx:TrackPointExtension>
        </extensions>
      </trkpt>
      <trkpt lat="30.93612898802079" lon="113.55409444544343">
        <ele>29.332132562063634</ele>
        <time>2022-11-02T13:35:00Z</time>
        <extensions>
          <gpxtpx:TrackPointExtension>
            <gpxtpx:hr>122</gpxtpx:hr>
          </gpxtpx:TrackPointExtension>
        </extensions>
      </trkpt>
      <trkpt lat="30.93597697957612" lon="113.55380089083228">
        <ele>30.02534868940711</ele>
        <time>2022-11-02T13:35:17Z</time>
        <extensions>
          <gpxtpx:TrackPointExtension>
            <gpxtpx:hr>130</gpxtpx:hr>
          </gpxtpx:TrackPointExtension>
        </extensions>
      </trkpt>
      <trkpt lat="30.935858878879678" lon="113.55357626570273">
        <ele>30.7591665526852</ele>
        <time>2022-11-02T13:35:29Z</time>
        <extensions>
          <gpxtpx:TrackPointExtension>
            <gpxtpx:hr>136</gpxtpx:hr>
          </gpxtpx:TrackPointExtension>
        </extensions>
      </trkpt>
      <trkpt lat="30.935809675528546" lon="113.55351949994608">
        <ele>30.111110399477184</ele>
        <time>2022-11-02T13:35:33Z</time>
        <extensions>
          <gpxtpx:TrackPointExtension>
            <gpxtpx:hr>136</gpxtpx:hr>
          </gpxtpx:TrackPointExtension>
        </extensions>
      </trkpt>
      <trkpt lat="30.93564863261967" lon="113.55323851508011">
        <ele>30.115223509259522</ele>
        <time>2022-11-02T13:35:49Z</time>
        <extensions>
          <gpxtpx:TrackPointExtension>
            <gpxtpx:hr>137</gpxtpx:hr>
          </gpxtpx:TrackPointExtension>
        </extensions>
      </trkpt>
      <trkpt lat="30.93558448653767" lon="113.5530978788116">
        <ele>29.846380184404552</ele>
        <time>2022-11-02T13:35:57Z</time>
        <extensions>
          <gpxtpx:TrackPointExtension>
            <gpxtpx:hr>137</gpxtpx:hr>
          </gpxtpx:TrackPointExtension>
        </extensions>
      </trkpt>
      <trkpt lat="30.93545645277796" lon="113.55289517769432">
        <ele>29.503451894968748</ele>
        <time>2022-11-02T13:36:09Z</time>
        <extensions>
          <gpxtpx:TrackPointExtension>
            <gpxtpx:hr>136</gpxtpx:hr>
          </gpxtpx:TrackPointExtension>
        </extensions>
      </trkpt>
      <trkpt lat="30.93529247718221" lon="113.55255893853017">
        <ele>30.615887042135</ele>
        <time>2022-11-02T13:36:29Z</time>
        <extensions>
          <gpxtpx:TrackPointExtension>
            <gpxtpx:hr>136</gpxtpx:hr>
          </gpxtpx:TrackPointExtension>
        </extensions>
      </trkpt>
      <trkpt lat="30.9351796038896" lon="113.55225274336752">
        <ele>29.988649936392903</ele>
        <time>2022-11-02T13:36:45Z</time>
        <extensions>
          <gpxtpx:TrackPointExtension>
            <gpxtpx:hr>140</gpxtpx:hr>
          </gpxtpx:TrackPointExtension>
        </extensions>
      </trkpt>
      <trkpt lat="30.935051970551626" lon="113.55191616139858">
        <ele>30.3280415777117</ele>
        <time>2022-11-02T13:37:04Z</time>
        <extensions>
          <gpxtpx:TrackPointExtension>
            <gpxtpx:hr>138</gpxtpx:hr>
          </gpxtpx:TrackPointExtension>
        </extensions>
      </trkpt>
      <trkpt lat="30.934917107359713" lon="113.55161928933317">
        <ele>29.69063468836248</ele>
        <time>2022-11-02T13:37:20Z</time>
        <extensions>
          <gpxtpx:TrackPointExtension>
            <gpxtpx:hr>137</gpxtpx:hr>
          </gpxtpx:TrackPointExtension>
        </extensions>
      </trkpt>
      <trkpt lat="30.93489200496327" lon="113.55146068811601">
        <ele>28.960020218975842</ele>
        <time>2022-11-02T13:37:28Z</time>
        <extensions>
          <gpxtpx:TrackPointExtension>
            <gpxtpx:hr>137</gpxtpx:hr>
          </gpxtpx:TrackPointExtension>
        </extensions>
      </trkpt>
      <trkpt lat="30.934901610062354" lon="113.55137838018253">
        <ele>28.61757400725037</ele>
        <time>2022-11-02T13:37:32Z</time>
        <extensions>
          <gpxtpx:TrackPointExtension>
            <gpxtpx:hr>137</gpxtpx:hr>
          </gpxtpx:TrackPointExtension>
        </extensions>
      </trkpt>
      <trkpt lat="30.934966224219636" lon="113.55123792197394">
        <ele>29.402068689465523</ele>
        <time>2022-11-02T13:37:40Z</time>
        <extensions>
          <gpxtpx:TrackPointExtension>
            <gpxtpx:hr>141</gpxtpx:hr>
          </gpxtpx:TrackPointExtension>
        </extensions>
      </trkpt>
      <trkpt lat="30.935160682329425" lon="113.55101604378514">
        <ele>30.46920818928629</ele>
        <time>2022-11-02T13:37:56Z</time>
        <extensions>
          <gpxtpx:TrackPointExtension>
            <gpxtpx:hr>138</gpxtpx:hr>
          </gpxtpx:TrackPointExtension>
        </extensions>
      </trkpt>
      <trkpt lat="30.935364934683204" lon="113.55079945535421">
        <ele>29.828296947292984</ele>
        <time>2022-11-02T13:38:12Z</time>
        <extensions>
          <gpxtpx:TrackPointExtension>
            <gpxtpx:hr>139</gpxtpx:hr>
          </gpxtpx:TrackPointExtension>
        </extensions>
      </trkpt>
      <trkpt lat="30.935406311688844" lon="113.55073155324615">
        <ele>29.922375053167343</ele>
        <time>2022-11-02T13:38:16Z</time>
        <extensions>
          <gpxtpx:TrackPointExtension>
            <gpxtpx:hr>139</gpxtpx:hr>
          </gpxtpx:TrackPointExtension>
        </extensions>
      </trkpt>
      <trkpt lat="30.935407871709977" lon="113.55067656134544">
        <ele>29.90255037881434</ele>
        <time>2022-11-02T13:38:20Z</time>
        <extensions>
          <gpxtpx:TrackPointExtension>
            <gpxtpx:hr>139</gpxtpx:hr>
          </gpxtpx:TrackPointExtension>
        </extensions>
      </trkpt>
      <trkpt lat="30.935121031346867" lon="113.55068578155414">
        <ele>31.258292057551444</ele>
        <time>2022-11-02T13:38:36Z</time>
        <extensions>
          <gpxtpx:TrackPointExtension>
            <gpxtpx:hr>137</gpxtpx:hr>
          </gpxtpx:TrackPointExtension>
        </extensions>
      </trkpt>
      <trkpt lat="30.93479889993526" lon="113.55069094449017">
        <ele>31.221060447394848</ele>
        <time>2022-11-02T13:38:55Z</time>
        <extensions>
          <gpxtpx:TrackPointExtension>
            <gpxtpx:hr>138</gpxtpx:hr>
          </gpxtpx:TrackPointExtension>
        </extensions>
      </trkpt>
      <trkpt lat="30.934496400580855" lon="113.55066414710777">
        <ele>30.682343871332705</ele>
        <time>2022-11-02T13:39:12Z</time>
        <extensions>
          <gpxtpx:TrackPointExtension>
            <gpxtpx:hr>136</gpxtpx:hr>
          </gpxtpx:TrackPointExtension>
        </extensions>
      </trkpt>
      <trkpt lat="30.934379826564047" lon="113.55069632642568">
        <ele>30.85658031143248</ele>
        <time>2022-11-02T13:39:19Z</time>
        <extensions>
          <gpxtpx:TrackPointExtension>
            <gpxtpx:hr>136</gpxtpx:hr>
          </gpxtpx:TrackPointExtension>
        </extensions>
      </trkpt>
      <trkpt lat="30.934346693273813" lon="113.55095371388211">
        <ele>29.922024593688548</ele>
        <time>2022-11-02T13:39:31Z</time>
        <extensions>
          <gpxtpx:TrackPointExtension>
            <gpxtpx:hr>136</gpxtpx:hr>
          </gpxtpx:TrackPointExtension>
        </extensions>
      </trkpt>
      <trkpt lat="30.934252240343874" lon="113.55128264834977">
        <ele>29.799937355332077</ele>
        <time>2022-11-02T13:39:47Z</time>
        <extensions>
          <gpxtpx:TrackPointExtension>
            <gpxtpx:hr>138</gpxtpx:hr>
          </gpxtpx:TrackPointExtension>
        </extensions>
      </trkpt>
      <trkpt lat="30.93420345626736" lon="113.55152516680464">
        <ele>30.41979062370956</ele>
        <time>2022-11-02T13:39:59Z</time>
        <extensions>
          <gpxtpx:TrackPointExtension>
            <gpxtpx:hr>138</gpxtpx:hr>
          </gpxtpx:TrackPointExtension>
        </extensions>
      </trkpt>
      <trkpt lat="30.934208670096847" lon="113.55186828306476">
        <ele>30.524992890655994</ele>
        <time>2022-11-02T13:40:15Z</time>
        <extensions>
          <gpxtpx:TrackPointExtension>
            <gpxtpx:hr>140</gpxtpx:hr>
          </gpxtpx:TrackPointExtension>
        </extensions>
      </trkpt>
      <trkpt lat="30.93422952649107" lon="113.55200879843382">
        <ele>28.93982162885368</ele>
        <time>2022-11-02T13:40:23Z</time>
        <extensions>
          <gpxtpx:TrackPointExtension>
            <gpxtpx:hr>139</gpxtpx:hr>
          </gpxtpx:TrackPointExtension>
        </extensions>
      </trkpt>
      <trkpt lat="30.93436765480061" lon="113.5522957691308">
        <ele>29.77384795062244</ele>
        <time>2022-11-02T13:40:39Z</time>
        <extensions>
          <gpxtpx:TrackPointExtension>
            <gpxtpx:hr>141</gpxtpx:hr>
          </gpxtpx:TrackPointExtension>
        </extensions>
      </trkpt>
      <trkpt lat="30.934414840387852" lon="113.55244406030387">
        <ele>28.97491441387683</ele>
        <time>2022-11-02T13:40:47Z</time>
        <extensions>
          <gpxtpx:TrackPointExtension>
            <gpxtpx:hr>142</gpxtpx:hr>
          </gpxtpx:TrackPointExtension>
        </extensions>
      </trkpt>
      <trkpt lat="30.934569859514212" lon="113.55273152270084">
        <ele>29.00961904320866</ele>
        <time>2022-11-02T13:41:03Z</time>
        <extensions>
          <gpxtpx:TrackPointExtension>
            <gpxtpx:hr>147</gpxtpx:hr>
          </gpxtpx:TrackPointExtension>
        </extensions>
      </trkpt>
      <trkpt lat="30.93472210134154" lon="113.5530571905115">
        <ele>30.483169350773096</ele>
        <time>2022-11-02T13:41:21Z</time>
        <extensions>
          <gpxtpx:TrackPointExtension>
            <gpxtpx:hr>147</gpxtpx:hr>
          </gpxtpx:TrackPointExtension>
        </extensions>
      </trkpt>
      <trkpt lat="30.934780852363726" lon="113.55321981051804">
        <ele>30.728916369378567</ele>
        <time>2022-11-02T13:41:29Z</time>
        <extensions>
          <gpxtpx:TrackPointExtension>
            <gpxtpx:hr>146</gpxtpx:hr>
          </gpxtpx:TrackPointExtension>
        </extensions>
      </trkpt>
      <trkpt lat="30.93493149902011" lon="113.55347532598452">
        <ele>32.21568991616368</ele>
        <time>2022-11-02T13:41:49Z</time>
        <extensions>
          <gpxtpx:TrackPointExtension>
            <gpxtpx:hr>130</gpxtpx:hr>
          </gpxtpx:TrackPointExtension>
        </extensions>
      </trkpt>
      <trkpt lat="30.935073927570635" lon="113.55365647855993">
        <ele>32.14334518648684</ele>
        <time>2022-11-02T13:42:05Z</time>
        <extensions>
          <gpxtpx:TrackPointExtension>
            <gpxtpx:hr>129</gpxtpx:hr>
          </gpxtpx:TrackPointExtension>
        </extensions>
      </trkpt>
      <trkpt lat="30.9351405435503" lon="113.5537961556071">
        <ele>32.36084847804159</ele>
        <time>2022-11-02T13:42:15Z</time>
        <extensions>
          <gpxtpx:TrackPointExtension>
            <gpxtpx:hr>127</gpxtpx:hr>
          </gpxtpx:TrackPointExtension>
        </extensions>
      </trkpt>
      <trkpt lat="30.935306163404547" lon="113.55405982073553">
        <ele>31.890869257971644</ele>
        <time>2022-11-02T13:42:37Z</time>
        <extensions>
          <gpxtpx:TrackPointExtension>
            <gpxtpx:hr>112</gpxtpx:hr>
          </gpxtpx:TrackPointExtension>
        </extensions>
      </trkpt>
      <trkpt lat="30.935449310781802" lon="113.55435196131322">
        <ele>29.268455713056028</ele>
        <time>2022-11-02T13:42:57Z</time>
        <extensions>
          <gpxtpx:TrackPointExtension>
            <gpxtpx:hr>117</gpxtpx:hr>
          </gpxtpx:TrackPointExtension>
        </extensions>
      </trkpt>
      <trkpt lat="30.93552540715048" lon="113.55450788221269">
        <ele>29.704709391109645</ele>
        <time>2022-11-02T13:43:05Z</time>
        <extensions>
          <gpxtpx:TrackPointExtension>
            <gpxtpx:hr>122</gpxtpx:hr>
          </gpxtpx:TrackPointExtension>
        </extensions>
      </trkpt>
      <trkpt lat="30.93567704151722" lon="113.55477138065118">
        <ele>30.002295090816915</ele>
        <time>2022-11-02T13:43:20Z</time>
        <extensions>
          <gpxtpx:TrackPointExtension>
            <gpxtpx:hr>128</gpxtpx:hr>
          </gpxtpx:TrackPointExtension>
        </extensions>
      </trkpt>
      <trkpt lat="30.93583157869349" lon="113.55504864951236">
        <ele>29.723859413526952</ele>
        <time>2022-11-02T13:43:36Z</time>
        <extensions>
          <gpxtpx:TrackPointExtension>
            <gpxtpx:hr>136</gpxtpx:hr>
          </gpxtpx:TrackPointExtension>
        </extensions>
      </trkpt>
      <trkpt lat="30.935989457468786" lon="113.55533835336243">
        <ele>29.70422521047294</ele>
        <time>2022-11-02T13:43:52Z</time>
        <extensions>
          <gpxtpx:TrackPointExtension>
            <gpxtpx:hr>139</gpxtpx:hr>
          </gpxtpx:TrackPointExtension>
        </extensions>
      </trkpt>
      <trkpt lat="30.936142454303518" lon="113.55560604771965">
        <ele>28.212361517362297</ele>
        <time>2022-11-02T13:44:08Z</time>
        <extensions>
          <gpxtpx:TrackPointExtension>
            <gpxtpx:hr>141</gpxtpx:hr>
          </gpxtpx:TrackPointExtension>
        </extensions>
      </trkpt>
      <trkpt lat="30.93629149522067" lon="113.55589781495229">
        <ele>29.649537844583392</ele>
        <time>2022-11-02T13:44:24Z</time>
        <extensions>
          <gpxtpx:TrackPointExtension>
            <gpxtpx:hr>139</gpxtpx:hr>
          </gpxtpx:TrackPointExtension>
        </extensions>
      </trkpt>
      <trkpt lat="30.936371833053382" lon="113.55621146567292">
        <ele>29.6100235581398</ele>
        <time>2022-11-02T13:44:40Z</time>
        <extensions>
          <gpxtpx:TrackPointExtension>
            <gpxtpx:hr>138</gpxtpx:hr>
          </gpxtpx:TrackPointExtension>
        </extensions>
      </trkpt>
      <trkpt lat="30.936381781783684" lon="113.55639400612841">
        <ele>29.650907463394105</ele>
        <time>2022-11-02T13:44:48Z</time>
        <extensions>
          <gpxtpx:TrackPointExtension>
            <gpxtpx:hr>141</gpxtpx:hr>
          </gpxtpx:TrackPointExtension>
        </extensions>
      </trkpt>
      <trkpt lat="30.936354198935113" lon="113.55657123596202">
        <ele>30.29081389773637</ele>
        <time>2022-11-02T13:44:56Z</time>
        <extensions>
          <gpxtpx:TrackPointExtension>
            <gpxtpx:hr>140</gpxtpx:hr>
          </gpxtpx:TrackPointExtension>
        </extensions>
      </trkpt>
      <trkpt lat="30.93625114411315" lon="113.55678929714706">
        <ele>30.013269961811602</ele>
        <time>2022-11-02T13:45:08Z</time>
        <extensions>
          <gpxtpx:TrackPointExtension>
            <gpxtpx:hr>138</gpxtpx:hr>
          </gpxtpx:TrackPointExtension>
        </extensions>
      </trkpt>
      <trkpt lat="30.936163166317897" lon="113.5569142916305">
        <ele>29.61957784090191</ele>
        <time>2022-11-02T13:45:16Z</time>
        <extensions>
          <gpxtpx:TrackPointExtension>
            <gpxtpx:hr>141</gpxtpx:hr>
          </gpxtpx:TrackPointExtension>
        </extensions>
      </trkpt>
      <trkpt lat="30.935918896420855" lon="113.55712032071736">
        <ele>29.736204012297094</ele>
        <time>2022-11-02T13:45:33Z</time>
        <extensions>
          <gpxtpx:TrackPointExtension>
            <gpxtpx:hr>138</gpxtpx:hr>
          </gpxtpx:TrackPointExtension>
        </extensions>
      </trkpt>
      <trkpt lat="30.93570953885153" lon="113.55725265279729">
        <ele>30.363003607839346</ele>
        <time>2022-11-02T13:45:48Z</time>
        <extensions>
          <gpxtpx:TrackPointExtension>
            <gpxtpx:hr>138</gpxtpx:hr>
          </gpxtpx:TrackPointExtension>
        </extensions>
      </trkpt>
      <trkpt lat="30.935443614299647" lon="113.55737061169567">
        <ele>30.430742412805557</ele>
        <time>2022-11-02T13:46:04Z</time>
        <extensions>
          <gpxtpx:TrackPointExtension>
            <gpxtpx:hr>136</gpxtpx:hr>
          </gpxtpx:TrackPointExtension>
        </extensions>
      </trkpt>
      <trkpt lat="30.93530737022019" lon="113.55744041971913">
        <ele>30.155636455863714</ele>
        <time>2022-11-02T13:46:12Z</time>
        <extensions>
          <gpxtpx:TrackPointExtension>
            <gpxtpx:hr>140</gpxtpx:hr>
          </gpxtpx:TrackPointExtension>
        </extensions>
      </trkpt>
      <trkpt lat="30.935011591716975" lon="113.55754375363142">
        <ele>30.219155468977988</ele>
        <time>2022-11-02T13:46:31Z</time>
        <extensions>
          <gpxtpx:TrackPointExtension>
            <gpxtpx:hr>138</gpxtpx:hr>
          </gpxtpx:TrackPointExtension>
        </extensions>
      </trkpt>
      <trkpt lat="30.93473316322616" lon="113.5575815019914">
        <ele>30.483824818395078</ele>
        <time>2022-11-02T13:46:47Z</time>
        <extensions>
          <gpxtpx:TrackPointExtension>
            <gpxtpx:hr>139</gpxtpx:hr>
          </gpxtpx:TrackPointExtension>
        </extensions>
      </trkpt>
      <trkpt lat="30.93441576463781" lon="113.5576349368864">
        <ele>30.769926668144763</ele>
        <time>2022-11-02T13:47:03Z</time>
        <extensions>
          <gpxtpx:TrackPointExtension>
            <gpxtpx:hr>137</gpxtpx:hr>
          </gpxtpx:TrackPointExtension>
        </extensions>
      </trkpt>
      <trkpt lat="30.93419929432284" lon="113.55764322803181">
        <ele>30.623337388038635</ele>
        <time>2022-11-02T13:47:15Z</time>
        <extensions>
          <gpxtpx:TrackPointExtension>
            <gpxtpx:hr>137</gpxtpx:hr>
          </gpxtpx:TrackPointExtension>
        </extensions>
      </trkpt>
      <trkpt lat="30.934142878812025" lon="113.55760112979334">
        <ele>30.8875968484208</ele>
        <time>2022-11-02T13:47:19Z</time>
        <extensions>
          <gpxtpx:TrackPointExtension>
            <gpxtpx:hr>138</gpxtpx:hr>
          </gpxtpx:TrackPointExtension>
        </extensions>
      </trkpt>
      <trkpt lat="30.934069781046922" lon="113.55761689192177">
        <ele>30.823621134273708</ele>
        <time>2022-11-02T13:47:23Z</time>
        <extensions>
          <gpxtpx:TrackPointExtension>
            <gpxtpx:hr>139</gpxtpx:hr>
          </gpxtpx:TrackPointExtension>
        </extensions>
      </trkpt>
      <trkpt lat="30.934021544083024" lon="113.55758732429891">
        <ele>30.81864044442773</ele>
        <time>2022-11-02T13:47:26Z</time>
        <extensions>
          <gpxtpx:TrackPointExtension>
            <gpxtpx:hr>136</gpxtpx:hr>
          </gpxtpx:TrackPointExtension>
        </extensions>
      </trkpt>
      <trkpt lat="30.933705052416787" lon="113.55749539565099">
        <ele>30.400313154794276</ele>
        <time>2022-11-02T13:47:46Z</time>
        <extensions>
          <gpxtpx:TrackPointExtension>
            <gpxtpx:hr>139</gpxtpx:hr>
          </gpxtpx:TrackPointExtension>
        </extensions>
      </trkpt>
      <trkpt lat="30.933438202357078" lon="113.55740917176105">
        <ele>31.078388850204647</ele>
        <time>2022-11-02T13:48:02Z</time>
        <extensions>
          <gpxtpx:TrackPointExtension>
            <gpxtpx:hr>137</gpxtpx:hr>
          </gpxtpx:TrackPointExtension>
        </extensions>
      </trkpt>
      <trkpt lat="30.933162467585717" lon="113.55729191346218">
        <ele>31.25105387158692</ele>
        <time>2022-11-02T13:48:18Z</time>
        <extensions>
          <gpxtpx:TrackPointExtension>
            <gpxtpx:hr>134</gpxtpx:hr>
          </gpxtpx:TrackPointExtension>
        </extensions>
      </trkpt>
      <trkpt lat="30.933039659836634" lon="113.55721942266793">
        <ele>30.644761486910284</ele>
        <time>2022-11-02T13:48:26Z</time>
        <extensions>
          <gpxtpx:TrackPointExtension>
            <gpxtpx:hr>137</gpxtpx:hr>
          </gpxtpx:TrackPointExtension>
        </extensions>
      </trkpt>
      <trkpt lat="30.932813981318787" lon="113.55693769406194">
        <ele>33.802108879201114</ele>
        <time>2022-11-02T13:48:46Z</time>
        <extensions>
          <gpxtpx:TrackPointExtension>
            <gpxtpx:hr>138</gpxtpx:hr>
          </gpxtpx:TrackPointExtension>
        </extensions>
      </trkpt>
      <trkpt lat="30.932599502079743" lon="113.55665077727967">
        <ele>32.403843075968325</ele>
        <time>2022-11-02T13:49:06Z</time>
        <extensions>
          <gpxtpx:TrackPointExtension>
            <gpxtpx:hr>138</gpxtpx:hr>
          </gpxtpx:TrackPointExtension>
        </extensions>
      </trkpt>
      <trkpt lat="30.93256379828236" lon="113.55668857124964">
        <ele>33.596355734393</ele>
        <time>2022-11-02T13:49:10Z</time>
        <extensions>
          <gpxtpx:TrackPointExtension>
            <gpxtpx:hr>138</gpxtpx:hr>
          </gpxtpx:TrackPointExtension>
        </extensions>
      </trkpt>
      <trkpt lat="30.932543877547232" lon="113.55702663180999">
        <ele>32.194715864025056</ele>
        <time>2022-11-02T13:49:26Z</time>
        <extensions>
          <gpxtpx:TrackPointExtension>
            <gpxtpx:hr>137</gpxtpx:hr>
          </gpxtpx:TrackPointExtension>
        </extensions>
      </trkpt>
      <trkpt lat="30.932529733273068" lon="113.55739298201927">
        <ele>29.475260958075523</ele>
        <time>2022-11-02T13:49:45Z</time>
        <extensions>
          <gpxtpx:TrackPointExtension>
            <gpxtpx:hr>139</gpxtpx:hr>
          </gpxtpx:TrackPointExtension>
        </extensions>
      </trkpt>
      <trkpt lat="30.932530841699144" lon="113.55762338357091">
        <ele>29.26380126364529</ele>
        <time>2022-11-02T13:49:57Z</time>
        <extensions>
          <gpxtpx:TrackPointExtension>
            <gpxtpx:hr>139</gpxtpx:hr>
          </gpxtpx:TrackPointExtension>
        </extensions>
      </trkpt>
      <trkpt lat="30.93256587310778" lon="113.55782601828916">
        <ele>30.157714856788516</ele>
        <time>2022-11-02T13:50:09Z</time>
        <extensions>
          <gpxtpx:TrackPointExtension>
            <gpxtpx:hr>135</gpxtpx:hr>
          </gpxtpx:TrackPointExtension>
        </extensions>
      </trkpt>
      <trkpt lat="30.932625537763716" lon="113.55789369448895">
        <ele>30.56706922221929</ele>
        <time>2022-11-02T13:50:15Z</time>
        <extensions>
          <gpxtpx:TrackPointExtension>
            <gpxtpx:hr>135</gpxtpx:hr>
          </gpxtpx:TrackPointExtension>
        </extensions>
      </trkpt>
      <trkpt lat="30.932764091443808" lon="113.55791291274876">
        <ele>29.35543456953019</ele>
        <time>2022-11-02T13:50:25Z</time>
        <extensions>
          <gpxtpx:TrackPointExtension>
            <gpxtpx:hr>126</gpxtpx:hr>
          </gpxtpx:TrackPointExtension>
        </extensions>
      </trkpt>
      <trkpt lat="30.93292118674592" lon="113.55797658550729">
        <ele>28.959735091775656</ele>
        <time>2022-11-02T13:50:37Z</time>
        <extensions>
          <gpxtpx:TrackPointExtension>
            <gpxtpx:hr>116</gpxtpx:hr>
          </gpxtpx:TrackPointExtension>
        </extensions>
      </trkpt>
      <trkpt lat="30.933200209503113" lon="113.55804237473701">
        <ele>29.061443935148418</ele>
        <time>2022-11-02T13:50:57Z</time>
        <extensions>
          <gpxtpx:TrackPointExtension>
            <gpxtpx:hr>116</gpxtpx:hr>
          </gpxtpx:TrackPointExtension>
        </extensions>
      </trkpt>
      <trkpt lat="30.93349168235507" lon="113.55808785009101">
        <ele>28.045041345991194</ele>
        <time>2022-11-02T13:51:17Z</time>
        <extensions>
          <gpxtpx:TrackPointExtension>
            <gpxtpx:hr>116</gpxtpx:hr>
          </gpxtpx:TrackPointExtension>
        </extensions>
      </trkpt>
      <trkpt lat="30.933794105229783" lon="113.55814712946322">
        <ele>29.96888119727373</ele>
        <time>2022-11-02T13:51:33Z</time>
        <extensions>
          <gpxtpx:TrackPointExtension>
            <gpxtpx:hr>126</gpxtpx:hr>
          </gpxtpx:TrackPointExtension>
        </extensions>
      </trkpt>
      <trkpt lat="30.934135310617766" lon="113.55821277415326">
        <ele>30.148138906806707</ele>
        <time>2022-11-02T13:51:52Z</time>
        <extensions>
          <gpxtpx:TrackPointExtension>
            <gpxtpx:hr>133</gpxtpx:hr>
          </gpxtpx:TrackPointExtension>
        </extensions>
      </trkpt>
      <trkpt lat="30.93445235075174" lon="113.55827742690077">
        <ele>31.321070826612413</ele>
        <time>2022-11-02T13:52:11Z</time>
        <extensions>
          <gpxtpx:TrackPointExtension>
            <gpxtpx:hr>141</gpxtpx:hr>
          </gpxtpx:TrackPointExtension>
        </extensions>
      </trkpt>
      <trkpt lat="30.934808690752877" lon="113.55832846732041">
        <ele>31.79918916337192</ele>
        <time>2022-11-02T13:52:31Z</time>
        <extensions>
          <gpxtpx:TrackPointExtension>
            <gpxtpx:hr>139</gpxtpx:hr>
          </gpxtpx:TrackPointExtension>
        </extensions>
      </trkpt>
      <trkpt lat="30.93508479410284" lon="113.55830810886263">
        <ele>31.299681668169796</ele>
        <time>2022-11-02T13:52:47Z</time>
        <extensions>
          <gpxtpx:TrackPointExtension>
            <gpxtpx:hr>138</gpxtpx:hr>
          </gpxtpx:TrackPointExtension>
        </extensions>
      </trkpt>
      <trkpt lat="30.93527901372016" lon="113.55832428289256">
        <ele>29.049496193416417</ele>
        <time>2022-11-02T13:52:59Z</time>
        <extensions>
          <gpxtpx:TrackPointExtension>
            <gpxtpx:hr>140</gpxtpx:hr>
          </gpxtpx:TrackPointExtension>
        </extensions>
      </trkpt>
      <trkpt lat="30.935575019568336" lon="113.55822344902731">
        <ele>29.59350912645459</ele>
        <time>2022-11-02T13:53:15Z</time>
        <extensions>
          <gpxtpx:TrackPointExtension>
            <gpxtpx:hr>140</gpxtpx:hr>
          </gpxtpx:TrackPointExtension>
        </extensions>
      </trkpt>
      <trkpt lat="30.935800018930696" lon="113.55816403694037">
        <ele>29.928975007496774</ele>
        <time>2022-11-02T13:53:27Z</time>
        <extensions>
          <gpxtpx:TrackPointExtension>
            <gpxtpx:hr>139</gpxtpx:hr>
          </gpxtpx:TrackPointExtension>
        </extensions>
      </trkpt>
      <trkpt lat="30.93593719073152" lon="113.5580772433043">
        <ele>31.090159060433507</ele>
        <time>2022-11-02T13:53:35Z</time>
        <extensions>
          <gpxtpx:TrackPointExtension>
            <gpxtpx:hr>140</gpxtpx:hr>
          </gpxtpx:TrackPointExtension>
        </extensions>
      </trkpt>
      <trkpt lat="30.936039842638625" lon="113.55794847818885">
        <ele>31.550721434876323</ele>
        <time>2022-11-02T13:53:43Z</time>
        <extensions>
          <gpxtpx:TrackPointExtension>
            <gpxtpx:hr>143</gpxtpx:hr>
          </gpxtpx:TrackPointExtension>
        </extensions>
      </trkpt>
      <trkpt lat="30.936167608012695" lon="113.55785353160915">
        <ele>31.22563323006034</ele>
        <time>2022-11-02T13:53:51Z</time>
        <extensions>
          <gpxtpx:TrackPointExtension>
            <gpxtpx:hr>141</gpxtpx:hr>
          </gpxtpx:TrackPointExtension>
        </extensions>
      </trkpt>
      <trkpt lat="30.936308417585447" lon="113.5576763313346">
        <ele>31.673246604390442</ele>
        <time>2022-11-02T13:54:02Z</time>
        <extensions>
          <gpxtpx:TrackPointExtension>
            <gpxtpx:hr>144</gpxtpx:hr>
          </gpxtpx:TrackPointExtension>
        </extensions>
      </trkpt>
      <trkpt lat="30.936429087786504" lon="113.55760394890633">
        <ele>31.21300325728953</ele>
        <time>2022-11-02T13:54:10Z</time>
        <extensions>
          <gpxtpx:TrackPointExtension>
            <gpxtpx:hr>144</gpxtpx:hr>
          </gpxtpx:TrackPointExtension>
        </extensions>
      </trkpt>
      <trkpt lat="30.936674892619557" lon="113.55741904222772">
        <ele>32.10701444000006</ele>
        <time>2022-11-02T13:54:26Z</time>
        <extensions>
          <gpxtpx:TrackPointExtension>
            <gpxtpx:hr>140</gpxtpx:hr>
          </gpxtpx:TrackPointExtension>
        </extensions>
      </trkpt>
      <trkpt lat="30.936909700322218" lon="113.55719101245914">
        <ele>31.63792948797345</ele>
        <time>2022-11-02T13:54:42Z</time>
        <extensions>
          <gpxtpx:TrackPointExtension>
            <gpxtpx:hr>140</gpxtpx:hr>
          </gpxtpx:TrackPointExtension>
        </extensions>
      </trkpt>
      <trkpt lat="30.93711082806168" lon="113.55693252852514">
        <ele>31.399738701991737</ele>
        <time>2022-11-02T13:54:58Z</time>
        <extensions>
          <gpxtpx:TrackPointExtension>
            <gpxtpx:hr>142</gpxtpx:hr>
          </gpxtpx:TrackPointExtension>
        </extensions>
      </trkpt>
      <trkpt lat="30.93718471745461" lon="113.55671576685661">
        <ele>30.65674410108477</ele>
        <time>2022-11-02T13:55:10Z</time>
        <extensions>
          <gpxtpx:TrackPointExtension>
            <gpxtpx:hr>139</gpxtpx:hr>
          </gpxtpx:TrackPointExtension>
        </extensions>
      </trkpt>
      <trkpt lat="30.93721244865652" lon="113.55640222941435">
        <ele>30.824156377464533</ele>
        <time>2022-11-02T13:55:26Z</time>
        <extensions>
          <gpxtpx:TrackPointExtension>
            <gpxtpx:hr>141</gpxtpx:hr>
          </gpxtpx:TrackPointExtension>
        </extensions>
      </trkpt>
      <trkpt lat="30.937163575975184" lon="113.5560839015343">
        <ele>30.898012162186205</ele>
        <time>2022-11-02T13:55:42Z</time>
        <extensions>
          <gpxtpx:TrackPointExtension>
            <gpxtpx:hr>141</gpxtpx:hr>
          </gpxtpx:TrackPointExtension>
        </extensions>
      </trkpt>
      <trkpt lat="30.937093965915885" lon="113.55580009013711">
        <ele>31.291133324615657</ele>
        <time>2022-11-02T13:55:56Z</time>
        <extensions>
          <gpxtpx:TrackPointExtension>
            <gpxtpx:hr>136</gpxtpx:hr>
          </gpxtpx:TrackPointExtension>
        </extensions>
      </trkpt>
      <trkpt lat="30.936979321521015" lon="113.55556757997157">
        <ele>32.66249571740627</ele>
        <time>2022-11-02T13:56:09Z</time>
        <extensions>
          <gpxtpx:TrackPointExtension>
            <gpxtpx:hr>141</gpxtpx:hr>
          </gpxtpx:TrackPointExtension>
        </extensions>
      </trkpt>
      <trkpt lat="30.936947813871036" lon="113.55544034955564">
        <ele>31.972346233204007</ele>
        <time>2022-11-02T13:56:15Z</time>
        <extensions>
          <gpxtpx:TrackPointExtension>
            <gpxtpx:hr>143</gpxtpx:hr>
          </gpxtpx:TrackPointExtension>
        </extensions>
      </trkpt>
      <trkpt lat="30.93698051901472" lon="113.55535401122408">
        <ele>31.098458293825388</ele>
        <time>2022-11-02T13:56:19Z</time>
        <extensions>
          <gpxtpx:TrackPointExtension>
            <gpxtpx:hr>144</gpxtpx:hr>
          </gpxtpx:TrackPointExtension>
        </extensions>
      </trkpt>
      <trkpt lat="30.937048712161907" lon="113.55534670678338">
        <ele>31.002911155112088</ele>
        <time>2022-11-02T13:56:23Z</time>
        <extensions>
          <gpxtpx:TrackPointExtension>
            <gpxtpx:hr>144</gpxtpx:hr>
          </gpxtpx:TrackPointExtension>
        </extensions>
      </trkpt>
      <trkpt lat="30.937168589289502" lon="113.55537797526651">
        <ele>29.916997900232673</ele>
        <time>2022-11-02T13:56:31Z</time>
        <extensions>
          <gpxtpx:TrackPointExtension>
            <gpxtpx:hr>140</gpxtpx:hr>
          </gpxtpx:TrackPointExtension>
        </extensions>
      </trkpt>
      <trkpt lat="30.937476566832796" lon="113.555399272078">
        <ele>30.927801641635597</ele>
        <time>2022-11-02T13:56:51Z</time>
        <extensions>
          <gpxtpx:TrackPointExtension>
            <gpxtpx:hr>131</gpxtpx:hr>
          </gpxtpx:TrackPointExtension>
        </extensions>
      </trkpt>
      <trkpt lat="30.937530872214165" lon="113.55546679665116">
        <ele>30.7386474898085</ele>
        <time>2022-11-02T13:56:59Z</time>
        <extensions>
          <gpxtpx:TrackPointExtension>
            <gpxtpx:hr>129</gpxtpx:hr>
          </gpxtpx:TrackPointExtension>
        </extensions>
      </trkpt>
      <trkpt lat="30.937538567579573" lon="113.55557880474238">
        <ele>30.971752080135047</ele>
        <time>2022-11-02T13:57:07Z</time>
        <extensions>
          <gpxtpx:TrackPointExtension>
            <gpxtpx:hr>122</gpxtpx:hr>
          </gpxtpx:TrackPointExtension>
        </extensions>
      </trkpt>
      <trkpt lat="30.937538567579573" lon="113.55557880474238">
        <ele>30.971752080135047</ele>
        <time>2022-11-02T13:57:11Z</time>
        <extensions>
          <gpxtpx:TrackPointExtension>
            <gpxtpx:hr>122</gpxtpx:hr>
          </gpxtpx:TrackPointExtension>
        </extensions>
      </trkpt>
    </trkseg>
  </trk>
</gpx>