<?xml version="1.0" encoding="UTF-8"?>
<gpx xmlns="http://www.topografix.com/GPX/1/1" xmlns:gpxtpx="http://www.garmin.com/xmlschemas/TrackPointExtension/v1" xmlns:xsi="http://www.w3.org/2001/XMLSchema-instance" xsi:schemaLocation="http://www.topografix.com/GPX/1/1 http://www.topografix.com/GPX/1/1/gpx.xsd" version="1.1" creator="gpx.py -- https://github.com/tkrajina/gpxpy">
  <trk>
    <name>gpx from keep</name>
    <type>Run</type>
    <trkseg>
      <trkpt lat="30.93765381163928" lon="113.55605408773219">
        <ele>35.65694822650403</ele>
        <time>2022-10-03T13:21:30Z</time>
      </trkpt>
      <trkpt lat="30.937622308132" lon="113.55602875736842">
        <ele>41.064968245103955</ele>
        <time>2022-10-03T13:21:32Z</time>
      </trkpt>
      <trkpt lat="30.93761086479916" lon="113.55600383212985">
        <ele>43.808193346485496</ele>
        <time>2022-10-03T13:21:34Z</time>
      </trkpt>
      <trkpt lat="30.93765828663299" lon="113.55591840207249">
        <ele>44.192348633892834</ele>
        <time>2022-10-03T13:21:42Z</time>
      </trkpt>
      <trkpt lat="30.93766223759633" lon="113.55583761339763">
        <ele>46.7138330899179</ele>
        <time>2022-10-03T13:21:46Z</time>
      </trkpt>
      <trkpt lat="30.93777315630297" lon="113.55582289601352">
        <ele>31.538297315128148</ele>
        <time>2022-10-03T13:21:50Z</time>
      </trkpt>
      <trkpt lat="30.937714322116253" lon="113.5556829174851">
        <ele>32.16946762986481</ele>
        <time>2022-10-03T13:21:58Z</time>
      </trkpt>
      <trkpt lat="30.937715543672386" lon="113.55562625169038">
        <ele>32.243905815295875</ele>
        <time>2022-10-03T13:22:02Z</time>
      </trkpt>
      <trkpt lat="30.9376850905844" lon="113.55555497863655">
        <ele>32.4052337128669</ele>
        <time>2022-10-03T13:22:06Z</time>
      </trkpt>
      <trkpt lat="30.937539138028814" lon="113.55539818128563">
        <ele>32.8393181739375</ele>
        <time>2022-10-03T13:22:18Z</time>
      </trkpt>
      <trkpt lat="30.93741197600315" lon="113.55535019696453">
        <ele>32.749951638281345</ele>
        <time>2022-10-03T13:22:26Z</time>
      </trkpt>
      <trkpt lat="30.937108457971043" lon="113.55535790944886">
        <ele>34.05858718417585</ele>
        <time>2022-10-03T13:22:47Z</time>
      </trkpt>
      <trkpt lat="30.937001272825185" lon="113.55533832518506">
        <ele>33.792396794073284</ele>
        <time>2022-10-03T13:22:55Z</time>
      </trkpt>
      <trkpt lat="30.936808301067327" lon="113.55501696901668">
        <ele>30.727105683647096</ele>
        <time>2022-10-03T13:23:14Z</time>
      </trkpt>
      <trkpt lat="30.93665257229111" lon="113.55467034840015">
        <ele>30.890433935448527</ele>
        <time>2022-10-03T13:23:29Z</time>
      </trkpt>
      <trkpt lat="30.93656952917098" lon="113.5545347716362">
        <ele>32.872352943755686</ele>
        <time>2022-10-03T13:23:36Z</time>
      </trkpt>
      <trkpt lat="30.936525100979633" lon="113.5544908506032">
        <ele>31.471067115664482</ele>
        <time>2022-10-03T13:23:39Z</time>
      </trkpt>
      <trkpt lat="30.93645185117163" lon="113.55433344594671">
        <ele>32.09554132632911</ele>
        <time>2022-10-03T13:23:47Z</time>
      </trkpt>
      <trkpt lat="30.936279242156868" lon="113.55403851461737">
        <ele>32.094767451286316</ele>
        <time>2022-10-03T13:24:03Z</time>
      </trkpt>
      <trkpt lat="30.936112589693426" lon="113.5537354122908">
        <ele>31.187315673567355</ele>
        <time>2022-10-03T13:24:19Z</time>
      </trkpt>
      <trkpt lat="30.935907157524206" lon="113.55346692458627">
        <ele>29.84012378565967</ele>
        <time>2022-10-03T13:24:35Z</time>
      </trkpt>
      <trkpt lat="30.935708868580633" lon="113.55313556918395">
        <ele>30.57314210664481</ele>
        <time>2022-10-03T13:24:51Z</time>
      </trkpt>
      <trkpt lat="30.93557993641804" lon="113.55289241786505">
        <ele>30.420997574925423</ele>
        <time>2022-10-03T13:25:03Z</time>
      </trkpt>
      <trkpt lat="30.93544280152053" lon="113.55258558139042">
        <ele>30.72949680313468</ele>
        <time>2022-10-03T13:25:19Z</time>
      </trkpt>
      <trkpt lat="30.935393522295403" lon="113.55251461016412">
        <ele>31.266182682476938</ele>
        <time>2022-10-03T13:25:23Z</time>
      </trkpt>
      <trkpt lat="30.935272980701544" lon="113.55219266973774">
        <ele>32.84593625366688</ele>
        <time>2022-10-03T13:25:39Z</time>
      </trkpt>
      <trkpt lat="30.93525062165922" lon="113.55210418549538">
        <ele>30.91712267138064</ele>
        <time>2022-10-03T13:25:43Z</time>
      </trkpt>
      <trkpt lat="30.935218945493016" lon="113.55205453760044">
        <ele>30.362537047825754</ele>
        <time>2022-10-03T13:25:46Z</time>
      </trkpt>
      <trkpt lat="30.9351024675408" lon="113.55174582436113">
        <ele>30.702367982827127</ele>
        <time>2022-10-03T13:26:01Z</time>
      </trkpt>
      <trkpt lat="30.935079969964363" lon="113.55166625860672">
        <ele>29.96709600649774</ele>
        <time>2022-10-03T13:26:05Z</time>
      </trkpt>
      <trkpt lat="30.935039752474594" lon="113.55159331031486">
        <ele>29.823503132909536</ele>
        <time>2022-10-03T13:26:09Z</time>
      </trkpt>
      <trkpt lat="30.93505926665347" lon="113.55142249595865">
        <ele>29.920144986361265</ele>
        <time>2022-10-03T13:26:17Z</time>
      </trkpt>
      <trkpt lat="30.93509237715504" lon="113.55135068116148">
        <ele>29.156569306738675</ele>
        <time>2022-10-03T13:26:21Z</time>
      </trkpt>
      <trkpt lat="30.93527620676858" lon="113.55110304099935">
        <ele>30.571371850557625</ele>
        <time>2022-10-03T13:26:37Z</time>
      </trkpt>
      <trkpt lat="30.93533881827909" lon="113.55104943184003">
        <ele>30.548319522291422</ele>
        <time>2022-10-03T13:26:41Z</time>
      </trkpt>
      <trkpt lat="30.935476441083072" lon="113.55083866618315">
        <ele>28.466387423686683</ele>
        <time>2022-10-03T13:26:53Z</time>
      </trkpt>
      <trkpt lat="30.935447273248343" lon="113.55077869142745">
        <ele>29.772705710493028</ele>
        <time>2022-10-03T13:26:57Z</time>
      </trkpt>
      <trkpt lat="30.935385699128826" lon="113.55075210605102">
        <ele>30.302958752959967</ele>
        <time>2022-10-03T13:27:01Z</time>
      </trkpt>
      <trkpt lat="30.935104324965067" lon="113.55072383736774">
        <ele>30.313349994830787</ele>
        <time>2022-10-03T13:27:17Z</time>
      </trkpt>
      <trkpt lat="30.93482874508653" lon="113.55067550308777">
        <ele>32.3162837093696</ele>
        <time>2022-10-03T13:27:33Z</time>
      </trkpt>
      <trkpt lat="30.93467114346487" lon="113.55068355795277">
        <ele>31.22088265698403</ele>
        <time>2022-10-03T13:27:41Z</time>
      </trkpt>
      <trkpt lat="30.93459647241548" lon="113.55070810084882">
        <ele>31.22769929189235</ele>
        <time>2022-10-03T13:27:45Z</time>
      </trkpt>
      <trkpt lat="30.93453674103556" lon="113.55075514346322">
        <ele>31.23331923596561</ele>
        <time>2022-10-03T13:27:49Z</time>
        <extensions>
          <gpxtpx:TrackPointExtension>
            <gpxtpx:hr>142</gpxtpx:hr>
          </gpxtpx:TrackPointExtension>
        </extensions>
      </trkpt>
      <trkpt lat="30.934472837724716" lon="113.55077710482634">
        <ele>31.057933314703405</ele>
        <time>2022-10-03T13:27:53Z</time>
        <extensions>
          <gpxtpx:TrackPointExtension>
            <gpxtpx:hr>142</gpxtpx:hr>
          </gpxtpx:TrackPointExtension>
        </extensions>
      </trkpt>
      <trkpt lat="30.93445668647887" lon="113.55092643305683">
        <ele>32.13827786780894</ele>
        <time>2022-10-03T13:28:01Z</time>
        <extensions>
          <gpxtpx:TrackPointExtension>
            <gpxtpx:hr>140</gpxtpx:hr>
          </gpxtpx:TrackPointExtension>
        </extensions>
      </trkpt>
      <trkpt lat="30.934353303798797" lon="113.55125158622975">
        <ele>31.128926006145775</ele>
        <time>2022-10-03T13:28:17Z</time>
        <extensions>
          <gpxtpx:TrackPointExtension>
            <gpxtpx:hr>140</gpxtpx:hr>
          </gpxtpx:TrackPointExtension>
        </extensions>
      </trkpt>
      <trkpt lat="30.93430796341089" lon="113.55141546787351">
        <ele>31.611370521597564</ele>
        <time>2022-10-03T13:28:25Z</time>
        <extensions>
          <gpxtpx:TrackPointExtension>
            <gpxtpx:hr>141</gpxtpx:hr>
          </gpxtpx:TrackPointExtension>
        </extensions>
      </trkpt>
      <trkpt lat="30.93428372829042" lon="113.551752426326">
        <ele>31.302464859560132</ele>
        <time>2022-10-03T13:28:41Z</time>
        <extensions>
          <gpxtpx:TrackPointExtension>
            <gpxtpx:hr>142</gpxtpx:hr>
          </gpxtpx:TrackPointExtension>
        </extensions>
      </trkpt>
      <trkpt lat="30.934302996136115" lon="113.55202461042205">
        <ele>31.541976938024163</ele>
        <time>2022-10-03T13:28:53Z</time>
        <extensions>
          <gpxtpx:TrackPointExtension>
            <gpxtpx:hr>142</gpxtpx:hr>
          </gpxtpx:TrackPointExtension>
        </extensions>
      </trkpt>
      <trkpt lat="30.934414873284414" lon="113.55236571335858">
        <ele>32.241989630274475</ele>
        <time>2022-10-03T13:29:09Z</time>
        <extensions>
          <gpxtpx:TrackPointExtension>
            <gpxtpx:hr>144</gpxtpx:hr>
          </gpxtpx:TrackPointExtension>
        </extensions>
      </trkpt>
      <trkpt lat="30.934560753165567" lon="113.55268523639131">
        <ele>32.61055348999798</ele>
        <time>2022-10-03T13:29:25Z</time>
        <extensions>
          <gpxtpx:TrackPointExtension>
            <gpxtpx:hr>145</gpxtpx:hr>
          </gpxtpx:TrackPointExtension>
        </extensions>
      </trkpt>
      <trkpt lat="30.934705232426836" lon="113.55298317617435">
        <ele>33.27125810272992</ele>
        <time>2022-10-03T13:29:41Z</time>
        <extensions>
          <gpxtpx:TrackPointExtension>
            <gpxtpx:hr>145</gpxtpx:hr>
          </gpxtpx:TrackPointExtension>
        </extensions>
      </trkpt>
      <trkpt lat="30.93482201603856" lon="113.55318544775444">
        <ele>33.700612764805555</ele>
        <time>2022-10-03T13:29:53Z</time>
        <extensions>
          <gpxtpx:TrackPointExtension>
            <gpxtpx:hr>144</gpxtpx:hr>
          </gpxtpx:TrackPointExtension>
        </extensions>
      </trkpt>
      <trkpt lat="30.934970196714556" lon="113.55349355175574">
        <ele>32.77452654577792</ele>
        <time>2022-10-03T13:30:11Z</time>
        <extensions>
          <gpxtpx:TrackPointExtension>
            <gpxtpx:hr>142</gpxtpx:hr>
          </gpxtpx:TrackPointExtension>
        </extensions>
      </trkpt>
      <trkpt lat="30.935162572929727" lon="113.55378914301862">
        <ele>32.436919868923724</ele>
        <time>2022-10-03T13:30:31Z</time>
        <extensions>
          <gpxtpx:TrackPointExtension>
            <gpxtpx:hr>145</gpxtpx:hr>
          </gpxtpx:TrackPointExtension>
        </extensions>
      </trkpt>
      <trkpt lat="30.935316499942342" lon="113.55405415892173">
        <ele>33.18067282065749</ele>
        <time>2022-10-03T13:30:47Z</time>
        <extensions>
          <gpxtpx:TrackPointExtension>
            <gpxtpx:hr>144</gpxtpx:hr>
          </gpxtpx:TrackPointExtension>
        </extensions>
      </trkpt>
      <trkpt lat="30.93540664599748" lon="113.55418229039539">
        <ele>32.15686563029885</ele>
        <time>2022-10-03T13:30:55Z</time>
        <extensions>
          <gpxtpx:TrackPointExtension>
            <gpxtpx:hr>140</gpxtpx:hr>
          </gpxtpx:TrackPointExtension>
        </extensions>
      </trkpt>
      <trkpt lat="30.935548887840188" lon="113.55445179730391">
        <ele>31.786048223264515</ele>
        <time>2022-10-03T13:31:11Z</time>
        <extensions>
          <gpxtpx:TrackPointExtension>
            <gpxtpx:hr>139</gpxtpx:hr>
          </gpxtpx:TrackPointExtension>
        </extensions>
      </trkpt>
      <trkpt lat="30.93569291203548" lon="113.55472522796983">
        <ele>31.854963516816497</ele>
        <time>2022-10-03T13:31:27Z</time>
        <extensions>
          <gpxtpx:TrackPointExtension>
            <gpxtpx:hr>140</gpxtpx:hr>
          </gpxtpx:TrackPointExtension>
        </extensions>
      </trkpt>
      <trkpt lat="30.93584729101953" lon="113.55497876419592">
        <ele>31.321264386177063</ele>
        <time>2022-10-03T13:31:43Z</time>
        <extensions>
          <gpxtpx:TrackPointExtension>
            <gpxtpx:hr>138</gpxtpx:hr>
          </gpxtpx:TrackPointExtension>
        </extensions>
      </trkpt>
      <trkpt lat="30.936013455945464" lon="113.55529223636819">
        <ele>31.88626977149397</ele>
        <time>2022-10-03T13:32:02Z</time>
        <extensions>
          <gpxtpx:TrackPointExtension>
            <gpxtpx:hr>137</gpxtpx:hr>
          </gpxtpx:TrackPointExtension>
        </extensions>
      </trkpt>
      <trkpt lat="30.936205335488122" lon="113.55561041205557">
        <ele>32.01958929467946</ele>
        <time>2022-10-03T13:32:21Z</time>
        <extensions>
          <gpxtpx:TrackPointExtension>
            <gpxtpx:hr>139</gpxtpx:hr>
          </gpxtpx:TrackPointExtension>
        </extensions>
      </trkpt>
      <trkpt lat="30.936230864585802" lon="113.55568709959518">
        <ele>32.32022774592042</ele>
        <time>2022-10-03T13:32:25Z</time>
        <extensions>
          <gpxtpx:TrackPointExtension>
            <gpxtpx:hr>140</gpxtpx:hr>
          </gpxtpx:TrackPointExtension>
        </extensions>
      </trkpt>
      <trkpt lat="30.936402620461358" lon="113.55601828834924">
        <ele>32.11664949171245</ele>
        <time>2022-10-03T13:32:45Z</time>
        <extensions>
          <gpxtpx:TrackPointExtension>
            <gpxtpx:hr>139</gpxtpx:hr>
          </gpxtpx:TrackPointExtension>
        </extensions>
      </trkpt>
      <trkpt lat="30.93647125818236" lon="113.55623969038838">
        <ele>31.96613958850503</ele>
        <time>2022-10-03T13:32:57Z</time>
        <extensions>
          <gpxtpx:TrackPointExtension>
            <gpxtpx:hr>142</gpxtpx:hr>
          </gpxtpx:TrackPointExtension>
        </extensions>
      </trkpt>
      <trkpt lat="30.936458277075307" lon="113.55648171725804">
        <ele>32.536654917523265</ele>
        <time>2022-10-03T13:33:09Z</time>
        <extensions>
          <gpxtpx:TrackPointExtension>
            <gpxtpx:hr>141</gpxtpx:hr>
          </gpxtpx:TrackPointExtension>
        </extensions>
      </trkpt>
      <trkpt lat="30.936419719400586" lon="113.55663770589709">
        <ele>32.51562981586903</ele>
        <time>2022-10-03T13:33:17Z</time>
        <extensions>
          <gpxtpx:TrackPointExtension>
            <gpxtpx:hr>141</gpxtpx:hr>
          </gpxtpx:TrackPointExtension>
        </extensions>
      </trkpt>
      <trkpt lat="30.93630016180581" lon="113.55683530646085">
        <ele>30.788846754468977</ele>
        <time>2022-10-03T13:33:29Z</time>
        <extensions>
          <gpxtpx:TrackPointExtension>
            <gpxtpx:hr>139</gpxtpx:hr>
          </gpxtpx:TrackPointExtension>
        </extensions>
      </trkpt>
      <trkpt lat="30.936087956815136" lon="113.55705578458782">
        <ele>30.42042633984238</ele>
        <time>2022-10-03T13:33:45Z</time>
        <extensions>
          <gpxtpx:TrackPointExtension>
            <gpxtpx:hr>130</gpxtpx:hr>
          </gpxtpx:TrackPointExtension>
        </extensions>
      </trkpt>
      <trkpt lat="30.935828458105423" lon="113.55723186894171">
        <ele>31.181465377099812</ele>
        <time>2022-10-03T13:34:01Z</time>
        <extensions>
          <gpxtpx:TrackPointExtension>
            <gpxtpx:hr>145</gpxtpx:hr>
          </gpxtpx:TrackPointExtension>
        </extensions>
      </trkpt>
      <trkpt lat="30.93570670395492" lon="113.55726978363478">
        <ele>30.661500559188426</ele>
        <time>2022-10-03T13:34:08Z</time>
        <extensions>
          <gpxtpx:TrackPointExtension>
            <gpxtpx:hr>145</gpxtpx:hr>
          </gpxtpx:TrackPointExtension>
        </extensions>
      </trkpt>
      <trkpt lat="30.935608373029744" lon="113.55733155358803">
        <ele>30.94044497795403</ele>
        <time>2022-10-03T13:34:14Z</time>
        <extensions>
          <gpxtpx:TrackPointExtension>
            <gpxtpx:hr>146</gpxtpx:hr>
          </gpxtpx:TrackPointExtension>
        </extensions>
      </trkpt>
      <trkpt lat="30.935556426174635" lon="113.55734102464339">
        <ele>30.278706155717373</ele>
        <time>2022-10-03T13:34:17Z</time>
        <extensions>
          <gpxtpx:TrackPointExtension>
            <gpxtpx:hr>145</gpxtpx:hr>
          </gpxtpx:TrackPointExtension>
        </extensions>
      </trkpt>
      <trkpt lat="30.935417816508686" lon="113.55741996932598">
        <ele>31.34380132239312</ele>
        <time>2022-10-03T13:34:26Z</time>
        <extensions>
          <gpxtpx:TrackPointExtension>
            <gpxtpx:hr>144</gpxtpx:hr>
          </gpxtpx:TrackPointExtension>
        </extensions>
      </trkpt>
      <trkpt lat="30.935256435620992" lon="113.55748173522441">
        <ele>31.487502914853394</ele>
        <time>2022-10-03T13:34:36Z</time>
        <extensions>
          <gpxtpx:TrackPointExtension>
            <gpxtpx:hr>146</gpxtpx:hr>
          </gpxtpx:TrackPointExtension>
        </extensions>
      </trkpt>
      <trkpt lat="30.935196705709725" lon="113.55752120351903">
        <ele>30.77810966409743</ele>
        <time>2022-10-03T13:34:40Z</time>
        <extensions>
          <gpxtpx:TrackPointExtension>
            <gpxtpx:hr>144</gpxtpx:hr>
          </gpxtpx:TrackPointExtension>
        </extensions>
      </trkpt>
      <trkpt lat="30.934920464150817" lon="113.55755820045769">
        <ele>32.848180782049894</ele>
        <time>2022-10-03T13:34:56Z</time>
        <extensions>
          <gpxtpx:TrackPointExtension>
            <gpxtpx:hr>144</gpxtpx:hr>
          </gpxtpx:TrackPointExtension>
        </extensions>
      </trkpt>
      <trkpt lat="30.934618856650374" lon="113.55757889736665">
        <ele>32.456968882121146</ele>
        <time>2022-10-03T13:35:12Z</time>
        <extensions>
          <gpxtpx:TrackPointExtension>
            <gpxtpx:hr>141</gpxtpx:hr>
          </gpxtpx:TrackPointExtension>
        </extensions>
      </trkpt>
      <trkpt lat="30.93440009952441" lon="113.5575580431851">
        <ele>33.516307421028614</ele>
        <time>2022-10-03T13:35:24Z</time>
        <extensions>
          <gpxtpx:TrackPointExtension>
            <gpxtpx:hr>144</gpxtpx:hr>
          </gpxtpx:TrackPointExtension>
        </extensions>
      </trkpt>
      <trkpt lat="30.9343167903043" lon="113.5575803438002">
        <ele>33.59193533565849</ele>
        <time>2022-10-03T13:35:28Z</time>
        <extensions>
          <gpxtpx:TrackPointExtension>
            <gpxtpx:hr>142</gpxtpx:hr>
          </gpxtpx:TrackPointExtension>
        </extensions>
      </trkpt>
      <trkpt lat="30.934015364925962" lon="113.55750931491087">
        <ele>31.372718496248126</ele>
        <time>2022-10-03T13:35:44Z</time>
        <extensions>
          <gpxtpx:TrackPointExtension>
            <gpxtpx:hr>146</gpxtpx:hr>
          </gpxtpx:TrackPointExtension>
        </extensions>
      </trkpt>
      <trkpt lat="30.933806465067246" lon="113.55748799829324">
        <ele>31.717706845141947</ele>
        <time>2022-10-03T13:35:56Z</time>
        <extensions>
          <gpxtpx:TrackPointExtension>
            <gpxtpx:hr>148</gpxtpx:hr>
          </gpxtpx:TrackPointExtension>
        </extensions>
      </trkpt>
      <trkpt lat="30.93360303562645" lon="113.55739516245977">
        <ele>34.035837478004396</ele>
        <time>2022-10-03T13:36:08Z</time>
        <extensions>
          <gpxtpx:TrackPointExtension>
            <gpxtpx:hr>144</gpxtpx:hr>
          </gpxtpx:TrackPointExtension>
        </extensions>
      </trkpt>
      <trkpt lat="30.93329123444784" lon="113.5572726806649">
        <ele>35.27908588387072</ele>
        <time>2022-10-03T13:36:26Z</time>
        <extensions>
          <gpxtpx:TrackPointExtension>
            <gpxtpx:hr>148</gpxtpx:hr>
          </gpxtpx:TrackPointExtension>
        </extensions>
      </trkpt>
      <trkpt lat="30.933200188765912" lon="113.55720394778831">
        <ele>34.48055362328887</ele>
        <time>2022-10-03T13:36:32Z</time>
        <extensions>
          <gpxtpx:TrackPointExtension>
            <gpxtpx:hr>146</gpxtpx:hr>
          </gpxtpx:TrackPointExtension>
        </extensions>
      </trkpt>
      <trkpt lat="30.93316085637697" lon="113.55715513447875">
        <ele>34.30585546139628</ele>
        <time>2022-10-03T13:36:35Z</time>
        <extensions>
          <gpxtpx:TrackPointExtension>
            <gpxtpx:hr>145</gpxtpx:hr>
          </gpxtpx:TrackPointExtension>
        </extensions>
      </trkpt>
      <trkpt lat="30.933110178697266" lon="113.55712800697685">
        <ele>33.87896381597966</ele>
        <time>2022-10-03T13:36:38Z</time>
        <extensions>
          <gpxtpx:TrackPointExtension>
            <gpxtpx:hr>145</gpxtpx:hr>
          </gpxtpx:TrackPointExtension>
        </extensions>
      </trkpt>
      <trkpt lat="30.932915435724915" lon="113.55686807544674">
        <ele>35.76878010574728</ele>
        <time>2022-10-03T13:36:54Z</time>
        <extensions>
          <gpxtpx:TrackPointExtension>
            <gpxtpx:hr>146</gpxtpx:hr>
          </gpxtpx:TrackPointExtension>
        </extensions>
      </trkpt>
      <trkpt lat="30.932837348708347" lon="113.55674763529024">
        <ele>34.52591658849269</ele>
        <time>2022-10-03T13:37:02Z</time>
        <extensions>
          <gpxtpx:TrackPointExtension>
            <gpxtpx:hr>146</gpxtpx:hr>
          </gpxtpx:TrackPointExtension>
        </extensions>
      </trkpt>
      <trkpt lat="30.932731265120477" lon="113.55664720746766">
        <ele>36.760432090610266</ele>
        <time>2022-10-03T13:37:10Z</time>
        <extensions>
          <gpxtpx:TrackPointExtension>
            <gpxtpx:hr>148</gpxtpx:hr>
          </gpxtpx:TrackPointExtension>
        </extensions>
      </trkpt>
      <trkpt lat="30.932690241597" lon="113.55673837862962">
        <ele>37.08002137765288</ele>
        <time>2022-10-03T13:37:14Z</time>
        <extensions>
          <gpxtpx:TrackPointExtension>
            <gpxtpx:hr>148</gpxtpx:hr>
          </gpxtpx:TrackPointExtension>
        </extensions>
      </trkpt>
      <trkpt lat="30.93265608523755" lon="113.55714374398241">
        <ele>36.65930553898215</ele>
        <time>2022-10-03T13:37:30Z</time>
        <extensions>
          <gpxtpx:TrackPointExtension>
            <gpxtpx:hr>153</gpxtpx:hr>
          </gpxtpx:TrackPointExtension>
        </extensions>
      </trkpt>
      <trkpt lat="30.932623019834264" lon="113.55753318990746">
        <ele>32.275292868725955</ele>
        <time>2022-10-03T13:37:46Z</time>
        <extensions>
          <gpxtpx:TrackPointExtension>
            <gpxtpx:hr>151</gpxtpx:hr>
          </gpxtpx:TrackPointExtension>
        </extensions>
      </trkpt>
      <trkpt lat="30.93261884166254" lon="113.55783304377898">
        <ele>32.22293668240309</ele>
        <time>2022-10-03T13:37:58Z</time>
        <extensions>
          <gpxtpx:TrackPointExtension>
            <gpxtpx:hr>151</gpxtpx:hr>
          </gpxtpx:TrackPointExtension>
        </extensions>
      </trkpt>
      <trkpt lat="30.93268016951747" lon="113.55789699288691">
        <ele>32.38589876331389</ele>
        <time>2022-10-03T13:38:02Z</time>
        <extensions>
          <gpxtpx:TrackPointExtension>
            <gpxtpx:hr>154</gpxtpx:hr>
          </gpxtpx:TrackPointExtension>
        </extensions>
      </trkpt>
      <trkpt lat="30.932954720751017" lon="113.55803405624282">
        <ele>32.425891887396574</ele>
        <time>2022-10-03T13:38:18Z</time>
        <extensions>
          <gpxtpx:TrackPointExtension>
            <gpxtpx:hr>153</gpxtpx:hr>
          </gpxtpx:TrackPointExtension>
        </extensions>
      </trkpt>
      <trkpt lat="30.93325326438523" lon="113.55809460065392">
        <ele>30.853557487018406</ele>
        <time>2022-10-03T13:38:34Z</time>
        <extensions>
          <gpxtpx:TrackPointExtension>
            <gpxtpx:hr>152</gpxtpx:hr>
          </gpxtpx:TrackPointExtension>
        </extensions>
      </trkpt>
      <trkpt lat="30.933521658553175" lon="113.5581774619878">
        <ele>30.95618940703571</ele>
        <time>2022-10-03T13:38:48Z</time>
        <extensions>
          <gpxtpx:TrackPointExtension>
            <gpxtpx:hr>153</gpxtpx:hr>
          </gpxtpx:TrackPointExtension>
        </extensions>
      </trkpt>
      <trkpt lat="30.933846083356293" lon="113.55820465886197">
        <ele>32.438732587732375</ele>
        <time>2022-10-03T13:39:04Z</time>
        <extensions>
          <gpxtpx:TrackPointExtension>
            <gpxtpx:hr>151</gpxtpx:hr>
          </gpxtpx:TrackPointExtension>
        </extensions>
      </trkpt>
      <trkpt lat="30.934151926608187" lon="113.55827311306578">
        <ele>30.914835767820477</ele>
        <time>2022-10-03T13:39:20Z</time>
        <extensions>
          <gpxtpx:TrackPointExtension>
            <gpxtpx:hr>151</gpxtpx:hr>
          </gpxtpx:TrackPointExtension>
        </extensions>
      </trkpt>
      <trkpt lat="30.934418614089846" lon="113.55832589706463">
        <ele>32.33465915825218</ele>
        <time>2022-10-03T13:39:36Z</time>
        <extensions>
          <gpxtpx:TrackPointExtension>
            <gpxtpx:hr>147</gpxtpx:hr>
          </gpxtpx:TrackPointExtension>
        </extensions>
      </trkpt>
      <trkpt lat="30.93462534599676" lon="113.55836905482225">
        <ele>32.95851704571396</ele>
        <time>2022-10-03T13:39:48Z</time>
        <extensions>
          <gpxtpx:TrackPointExtension>
            <gpxtpx:hr>148</gpxtpx:hr>
          </gpxtpx:TrackPointExtension>
        </extensions>
      </trkpt>
      <trkpt lat="30.93482638397622" lon="113.55838836019964">
        <ele>32.470442534424365</ele>
        <time>2022-10-03T13:40:00Z</time>
        <extensions>
          <gpxtpx:TrackPointExtension>
            <gpxtpx:hr>147</gpxtpx:hr>
          </gpxtpx:TrackPointExtension>
        </extensions>
      </trkpt>
      <trkpt lat="30.93496647966016" lon="113.55837550193873">
        <ele>32.30341384746134</ele>
        <time>2022-10-03T13:40:08Z</time>
        <extensions>
          <gpxtpx:TrackPointExtension>
            <gpxtpx:hr>147</gpxtpx:hr>
          </gpxtpx:TrackPointExtension>
        </extensions>
      </trkpt>
      <trkpt lat="30.935033521883124" lon="113.55835269517362">
        <ele>31.12583042215556</ele>
        <time>2022-10-03T13:40:12Z</time>
        <extensions>
          <gpxtpx:TrackPointExtension>
            <gpxtpx:hr>148</gpxtpx:hr>
          </gpxtpx:TrackPointExtension>
        </extensions>
      </trkpt>
      <trkpt lat="30.935241202033527" lon="113.55837089798416">
        <ele>33.04677024576813</ele>
        <time>2022-10-03T13:40:24Z</time>
        <extensions>
          <gpxtpx:TrackPointExtension>
            <gpxtpx:hr>146</gpxtpx:hr>
          </gpxtpx:TrackPointExtension>
        </extensions>
      </trkpt>
      <trkpt lat="30.93551394565926" lon="113.55828595772445">
        <ele>32.78373368270695</ele>
        <time>2022-10-03T13:40:43Z</time>
        <extensions>
          <gpxtpx:TrackPointExtension>
            <gpxtpx:hr>138</gpxtpx:hr>
          </gpxtpx:TrackPointExtension>
        </extensions>
      </trkpt>
      <trkpt lat="30.935757962241816" lon="113.55824883084294">
        <ele>32.166568702086806</ele>
        <time>2022-10-03T13:41:03Z</time>
        <extensions>
          <gpxtpx:TrackPointExtension>
            <gpxtpx:hr>133</gpxtpx:hr>
          </gpxtpx:TrackPointExtension>
        </extensions>
      </trkpt>
      <trkpt lat="30.93584474523574" lon="113.55825099588343">
        <ele>31.78754521999508</ele>
        <time>2022-10-03T13:41:11Z</time>
        <extensions>
          <gpxtpx:TrackPointExtension>
            <gpxtpx:hr>130</gpxtpx:hr>
          </gpxtpx:TrackPointExtension>
        </extensions>
      </trkpt>
      <trkpt lat="30.935992512437384" lon="113.55809718860411">
        <ele>31.03898643516004</ele>
        <time>2022-10-03T13:41:23Z</time>
        <extensions>
          <gpxtpx:TrackPointExtension>
            <gpxtpx:hr>130</gpxtpx:hr>
          </gpxtpx:TrackPointExtension>
        </extensions>
      </trkpt>
      <trkpt lat="30.936032163875918" lon="113.55803114207319">
        <ele>28.933904081583023</ele>
        <time>2022-10-03T13:41:27Z</time>
        <extensions>
          <gpxtpx:TrackPointExtension>
            <gpxtpx:hr>130</gpxtpx:hr>
          </gpxtpx:TrackPointExtension>
        </extensions>
      </trkpt>
      <trkpt lat="30.93626106154473" lon="113.55780436819994">
        <ele>31.51195180043578</ele>
        <time>2022-10-03T13:41:43Z</time>
        <extensions>
          <gpxtpx:TrackPointExtension>
            <gpxtpx:hr>139</gpxtpx:hr>
          </gpxtpx:TrackPointExtension>
        </extensions>
      </trkpt>
      <trkpt lat="30.936523488950662" lon="113.55764282952319">
        <ele>31.862386222928762</ele>
        <time>2022-10-03T13:41:59Z</time>
        <extensions>
          <gpxtpx:TrackPointExtension>
            <gpxtpx:hr>135</gpxtpx:hr>
          </gpxtpx:TrackPointExtension>
        </extensions>
      </trkpt>
      <trkpt lat="30.936753077775936" lon="113.55743242473962">
        <ele>31.465687880292535</ele>
        <time>2022-10-03T13:42:15Z</time>
        <extensions>
          <gpxtpx:TrackPointExtension>
            <gpxtpx:hr>142</gpxtpx:hr>
          </gpxtpx:TrackPointExtension>
        </extensions>
      </trkpt>
      <trkpt lat="30.936942147378932" lon="113.55726354654381">
        <ele>31.620486875995994</ele>
        <time>2022-10-03T13:42:27Z</time>
        <extensions>
          <gpxtpx:TrackPointExtension>
            <gpxtpx:hr>149</gpxtpx:hr>
          </gpxtpx:TrackPointExtension>
        </extensions>
      </trkpt>
      <trkpt lat="30.937004499206665" lon="113.55722909289439">
        <ele>31.581714503467083</ele>
        <time>2022-10-03T13:42:31Z</time>
        <extensions>
          <gpxtpx:TrackPointExtension>
            <gpxtpx:hr>148</gpxtpx:hr>
          </gpxtpx:TrackPointExtension>
        </extensions>
      </trkpt>
      <trkpt lat="30.937206288258402" lon="113.55691151600388">
        <ele>31.51917806547135</ele>
        <time>2022-10-03T13:42:49Z</time>
        <extensions>
          <gpxtpx:TrackPointExtension>
            <gpxtpx:hr>145</gpxtpx:hr>
          </gpxtpx:TrackPointExtension>
        </extensions>
      </trkpt>
      <trkpt lat="30.937263689585567" lon="113.55681953994498">
        <ele>31.48499215953052</ele>
        <time>2022-10-03T13:42:53Z</time>
        <extensions>
          <gpxtpx:TrackPointExtension>
            <gpxtpx:hr>146</gpxtpx:hr>
          </gpxtpx:TrackPointExtension>
        </extensions>
      </trkpt>
      <trkpt lat="30.937347644414473" lon="113.55654902606202">
        <ele>31.892542777583003</ele>
        <time>2022-10-03T13:43:05Z</time>
        <extensions>
          <gpxtpx:TrackPointExtension>
            <gpxtpx:hr>149</gpxtpx:hr>
          </gpxtpx:TrackPointExtension>
        </extensions>
      </trkpt>
      <trkpt lat="30.93739915676707" lon="113.55627744367725">
        <ele>33.33306406438351</ele>
        <time>2022-10-03T13:43:17Z</time>
        <extensions>
          <gpxtpx:TrackPointExtension>
            <gpxtpx:hr>148</gpxtpx:hr>
          </gpxtpx:TrackPointExtension>
        </extensions>
      </trkpt>
      <trkpt lat="30.937339845612158" lon="113.55592455699524">
        <ele>34.26501761749387</ele>
        <time>2022-10-03T13:43:33Z</time>
        <extensions>
          <gpxtpx:TrackPointExtension>
            <gpxtpx:hr>148</gpxtpx:hr>
          </gpxtpx:TrackPointExtension>
        </extensions>
      </trkpt>
      <trkpt lat="30.93728239607686" lon="113.55576172401798">
        <ele>34.772808369249105</ele>
        <time>2022-10-03T13:43:41Z</time>
        <extensions>
          <gpxtpx:TrackPointExtension>
            <gpxtpx:hr>147</gpxtpx:hr>
          </gpxtpx:TrackPointExtension>
        </extensions>
      </trkpt>
      <trkpt lat="30.93708200218475" lon="113.55543894392663">
        <ele>32.57042674720287</ele>
        <time>2022-10-03T13:43:57Z</time>
        <extensions>
          <gpxtpx:TrackPointExtension>
            <gpxtpx:hr>149</gpxtpx:hr>
          </gpxtpx:TrackPointExtension>
        </extensions>
      </trkpt>
      <trkpt lat="30.937027498805385" lon="113.5553595677134">
        <ele>33.14100010879338</ele>
        <time>2022-10-03T13:44:01Z</time>
        <extensions>
          <gpxtpx:TrackPointExtension>
            <gpxtpx:hr>149</gpxtpx:hr>
          </gpxtpx:TrackPointExtension>
        </extensions>
      </trkpt>
      <trkpt lat="30.936965553534552" lon="113.55530168000588">
        <ele>32.89921486377716</ele>
        <time>2022-10-03T13:44:05Z</time>
        <extensions>
          <gpxtpx:TrackPointExtension>
            <gpxtpx:hr>149</gpxtpx:hr>
          </gpxtpx:TrackPointExtension>
        </extensions>
      </trkpt>
      <trkpt lat="30.936792279119075" lon="113.55501773249792">
        <ele>33.41492508351803</ele>
        <time>2022-10-03T13:44:21Z</time>
        <extensions>
          <gpxtpx:TrackPointExtension>
            <gpxtpx:hr>150</gpxtpx:hr>
          </gpxtpx:TrackPointExtension>
        </extensions>
      </trkpt>
      <trkpt lat="30.936642790002377" lon="113.55475065142399">
        <ele>31.40532220620662</ele>
        <time>2022-10-03T13:44:37Z</time>
        <extensions>
          <gpxtpx:TrackPointExtension>
            <gpxtpx:hr>149</gpxtpx:hr>
          </gpxtpx:TrackPointExtension>
        </extensions>
      </trkpt>
      <trkpt lat="30.936476906029817" lon="113.55446186375993">
        <ele>32.19020393770188</ele>
        <time>2022-10-03T13:44:53Z</time>
        <extensions>
          <gpxtpx:TrackPointExtension>
            <gpxtpx:hr>147</gpxtpx:hr>
          </gpxtpx:TrackPointExtension>
        </extensions>
      </trkpt>
      <trkpt lat="30.9363428055135" lon="113.55416977181983">
        <ele>31.985557006672025</ele>
        <time>2022-10-03T13:45:09Z</time>
        <extensions>
          <gpxtpx:TrackPointExtension>
            <gpxtpx:hr>149</gpxtpx:hr>
          </gpxtpx:TrackPointExtension>
        </extensions>
      </trkpt>
      <trkpt lat="30.936221375872172" lon="113.55397917198769">
        <ele>31.84263650048524</ele>
        <time>2022-10-03T13:45:21Z</time>
        <extensions>
          <gpxtpx:TrackPointExtension>
            <gpxtpx:hr>151</gpxtpx:hr>
          </gpxtpx:TrackPointExtension>
        </extensions>
      </trkpt>
      <trkpt lat="30.93607922119218" lon="113.55368654385337">
        <ele>33.05743759125471</ele>
        <time>2022-10-03T13:45:37Z</time>
        <extensions>
          <gpxtpx:TrackPointExtension>
            <gpxtpx:hr>148</gpxtpx:hr>
          </gpxtpx:TrackPointExtension>
        </extensions>
      </trkpt>
      <trkpt lat="30.93590361342427" lon="113.55344522919009">
        <ele>33.95877047255635</ele>
        <time>2022-10-03T13:45:53Z</time>
        <extensions>
          <gpxtpx:TrackPointExtension>
            <gpxtpx:hr>148</gpxtpx:hr>
          </gpxtpx:TrackPointExtension>
        </extensions>
      </trkpt>
      <trkpt lat="30.935741640213447" lon="113.55318371402073">
        <ele>33.00828848220408</ele>
        <time>2022-10-03T13:46:09Z</time>
        <extensions>
          <gpxtpx:TrackPointExtension>
            <gpxtpx:hr>149</gpxtpx:hr>
          </gpxtpx:TrackPointExtension>
        </extensions>
      </trkpt>
      <trkpt lat="30.935606195164727" lon="113.55289745132319">
        <ele>32.93651315011084</ele>
        <time>2022-10-03T13:46:25Z</time>
        <extensions>
          <gpxtpx:TrackPointExtension>
            <gpxtpx:hr>148</gpxtpx:hr>
          </gpxtpx:TrackPointExtension>
        </extensions>
      </trkpt>
      <trkpt lat="30.935477091765026" lon="113.55262069954266">
        <ele>33.57254792936146</ele>
        <time>2022-10-03T13:46:41Z</time>
        <extensions>
          <gpxtpx:TrackPointExtension>
            <gpxtpx:hr>150</gpxtpx:hr>
          </gpxtpx:TrackPointExtension>
        </extensions>
      </trkpt>
      <trkpt lat="30.935332212259127" lon="113.5522719155276">
        <ele>32.93387536332011</ele>
        <time>2022-10-03T13:47:00Z</time>
        <extensions>
          <gpxtpx:TrackPointExtension>
            <gpxtpx:hr>148</gpxtpx:hr>
          </gpxtpx:TrackPointExtension>
        </extensions>
      </trkpt>
      <trkpt lat="30.935209356414667" lon="113.55198597396941">
        <ele>34.41524040047079</ele>
        <time>2022-10-03T13:47:16Z</time>
        <extensions>
          <gpxtpx:TrackPointExtension>
            <gpxtpx:hr>141</gpxtpx:hr>
          </gpxtpx:TrackPointExtension>
        </extensions>
      </trkpt>
      <trkpt lat="30.935070571008517" lon="113.55172417793341">
        <ele>30.502758314833045</ele>
        <time>2022-10-03T13:47:32Z</time>
        <extensions>
          <gpxtpx:TrackPointExtension>
            <gpxtpx:hr>148</gpxtpx:hr>
          </gpxtpx:TrackPointExtension>
        </extensions>
      </trkpt>
      <trkpt lat="30.935026481723558" lon="113.55156921021788">
        <ele>31.101837504655123</ele>
        <time>2022-10-03T13:47:40Z</time>
        <extensions>
          <gpxtpx:TrackPointExtension>
            <gpxtpx:hr>148</gpxtpx:hr>
          </gpxtpx:TrackPointExtension>
        </extensions>
      </trkpt>
      <trkpt lat="30.93503688429386" lon="113.55141358596418">
        <ele>29.949823642149568</ele>
        <time>2022-10-03T13:47:48Z</time>
        <extensions>
          <gpxtpx:TrackPointExtension>
            <gpxtpx:hr>147</gpxtpx:hr>
          </gpxtpx:TrackPointExtension>
        </extensions>
      </trkpt>
      <trkpt lat="30.935176912511782" lon="113.55115176803105">
        <ele>29.89860363956541</ele>
        <time>2022-10-03T13:48:04Z</time>
        <extensions>
          <gpxtpx:TrackPointExtension>
            <gpxtpx:hr>149</gpxtpx:hr>
          </gpxtpx:TrackPointExtension>
        </extensions>
      </trkpt>
      <trkpt lat="30.93519499126402" lon="113.55108519817794">
        <ele>28.596370378509164</ele>
        <time>2022-10-03T13:48:08Z</time>
        <extensions>
          <gpxtpx:TrackPointExtension>
            <gpxtpx:hr>148</gpxtpx:hr>
          </gpxtpx:TrackPointExtension>
        </extensions>
      </trkpt>
      <trkpt lat="30.93534713343828" lon="113.5509270055764">
        <ele>29.912471196614206</ele>
        <time>2022-10-03T13:48:20Z</time>
        <extensions>
          <gpxtpx:TrackPointExtension>
            <gpxtpx:hr>148</gpxtpx:hr>
          </gpxtpx:TrackPointExtension>
        </extensions>
      </trkpt>
      <trkpt lat="30.93536064038123" lon="113.55086397796444">
        <ele>31.358129682950675</ele>
        <time>2022-10-03T13:48:24Z</time>
        <extensions>
          <gpxtpx:TrackPointExtension>
            <gpxtpx:hr>148</gpxtpx:hr>
          </gpxtpx:TrackPointExtension>
        </extensions>
      </trkpt>
      <trkpt lat="30.935238275083556" lon="113.5509133839119">
        <ele>30.968318511731923</ele>
        <time>2022-10-03T13:48:40Z</time>
        <extensions>
          <gpxtpx:TrackPointExtension>
            <gpxtpx:hr>138</gpxtpx:hr>
          </gpxtpx:TrackPointExtension>
        </extensions>
      </trkpt>
      <trkpt lat="30.935035167897084" lon="113.55114336701324">
        <ele>31.10717710480094</ele>
        <time>2022-10-03T13:48:55Z</time>
        <extensions>
          <gpxtpx:TrackPointExtension>
            <gpxtpx:hr>140</gpxtpx:hr>
          </gpxtpx:TrackPointExtension>
        </extensions>
      </trkpt>
      <trkpt lat="30.93498286091461" lon="113.55120720577251">
        <ele>31.355552904307842</ele>
        <time>2022-10-03T13:48:59Z</time>
        <extensions>
          <gpxtpx:TrackPointExtension>
            <gpxtpx:hr>142</gpxtpx:hr>
          </gpxtpx:TrackPointExtension>
        </extensions>
      </trkpt>
      <trkpt lat="30.93489521524754" lon="113.55144109244874">
        <ele>30.96820217370987</ele>
        <time>2022-10-03T13:49:11Z</time>
        <extensions>
          <gpxtpx:TrackPointExtension>
            <gpxtpx:hr>145</gpxtpx:hr>
          </gpxtpx:TrackPointExtension>
        </extensions>
      </trkpt>
      <trkpt lat="30.934882489323535" lon="113.55168558872504">
        <ele>31.340360812842846</ele>
        <time>2022-10-03T13:49:23Z</time>
        <extensions>
          <gpxtpx:TrackPointExtension>
            <gpxtpx:hr>145</gpxtpx:hr>
          </gpxtpx:TrackPointExtension>
        </extensions>
      </trkpt>
      <trkpt lat="30.934990703884516" lon="113.55198281506189">
        <ele>31.540046215988696</ele>
        <time>2022-10-03T13:49:39Z</time>
        <extensions>
          <gpxtpx:TrackPointExtension>
            <gpxtpx:hr>144</gpxtpx:hr>
          </gpxtpx:TrackPointExtension>
        </extensions>
      </trkpt>
      <trkpt lat="30.935110518785102" lon="113.55227870478389">
        <ele>31.095944622531533</ele>
        <time>2022-10-03T13:49:55Z</time>
        <extensions>
          <gpxtpx:TrackPointExtension>
            <gpxtpx:hr>151</gpxtpx:hr>
          </gpxtpx:TrackPointExtension>
        </extensions>
      </trkpt>
      <trkpt lat="30.9352446618694" lon="113.55263117869995">
        <ele>31.609936603344977</ele>
        <time>2022-10-03T13:50:15Z</time>
        <extensions>
          <gpxtpx:TrackPointExtension>
            <gpxtpx:hr>148</gpxtpx:hr>
          </gpxtpx:TrackPointExtension>
        </extensions>
      </trkpt>
      <trkpt lat="30.93538553437419" lon="113.552975128693">
        <ele>30.697243621572852</ele>
        <time>2022-10-03T13:50:35Z</time>
        <extensions>
          <gpxtpx:TrackPointExtension>
            <gpxtpx:hr>151</gpxtpx:hr>
          </gpxtpx:TrackPointExtension>
        </extensions>
      </trkpt>
      <trkpt lat="30.935530531757284" lon="113.55324216150528">
        <ele>30.698407985270023</ele>
        <time>2022-10-03T13:50:51Z</time>
        <extensions>
          <gpxtpx:TrackPointExtension>
            <gpxtpx:hr>145</gpxtpx:hr>
          </gpxtpx:TrackPointExtension>
        </extensions>
      </trkpt>
      <trkpt lat="30.9357130388596" lon="113.5535066007277">
        <ele>31.293746893294156</ele>
        <time>2022-10-03T13:51:08Z</time>
        <extensions>
          <gpxtpx:TrackPointExtension>
            <gpxtpx:hr>148</gpxtpx:hr>
          </gpxtpx:TrackPointExtension>
        </extensions>
      </trkpt>
      <trkpt lat="30.935895137687066" lon="113.55377179006557">
        <ele>31.6751355137676</ele>
        <time>2022-10-03T13:51:24Z</time>
        <extensions>
          <gpxtpx:TrackPointExtension>
            <gpxtpx:hr>151</gpxtpx:hr>
          </gpxtpx:TrackPointExtension>
        </extensions>
      </trkpt>
      <trkpt lat="30.935942534091424" lon="113.55383228670392">
        <ele>31.40139899775386</ele>
        <time>2022-10-03T13:51:28Z</time>
        <extensions>
          <gpxtpx:TrackPointExtension>
            <gpxtpx:hr>151</gpxtpx:hr>
          </gpxtpx:TrackPointExtension>
        </extensions>
      </trkpt>
      <trkpt lat="30.936131678993494" lon="113.55415832564064">
        <ele>30.584779613651335</ele>
        <time>2022-10-03T13:51:48Z</time>
        <extensions>
          <gpxtpx:TrackPointExtension>
            <gpxtpx:hr>150</gpxtpx:hr>
          </gpxtpx:TrackPointExtension>
        </extensions>
      </trkpt>
      <trkpt lat="30.936303039108587" lon="113.55448661213252">
        <ele>30.79000669810921</ele>
        <time>2022-10-03T13:52:08Z</time>
        <extensions>
          <gpxtpx:TrackPointExtension>
            <gpxtpx:hr>149</gpxtpx:hr>
          </gpxtpx:TrackPointExtension>
        </extensions>
      </trkpt>
      <trkpt lat="30.936465793993122" lon="113.55482686189531">
        <ele>31.276668729260564</ele>
        <time>2022-10-03T13:52:28Z</time>
        <extensions>
          <gpxtpx:TrackPointExtension>
            <gpxtpx:hr>148</gpxtpx:hr>
          </gpxtpx:TrackPointExtension>
        </extensions>
      </trkpt>
      <trkpt lat="30.936643694734908" lon="113.55514856814465">
        <ele>30.870769942179322</ele>
        <time>2022-10-03T13:52:48Z</time>
        <extensions>
          <gpxtpx:TrackPointExtension>
            <gpxtpx:hr>148</gpxtpx:hr>
          </gpxtpx:TrackPointExtension>
        </extensions>
      </trkpt>
      <trkpt lat="30.936799365847342" lon="113.55545049212841">
        <ele>31.694663400761783</ele>
        <time>2022-10-03T13:53:06Z</time>
        <extensions>
          <gpxtpx:TrackPointExtension>
            <gpxtpx:hr>148</gpxtpx:hr>
          </gpxtpx:TrackPointExtension>
        </extensions>
      </trkpt>
      <trkpt lat="30.936942271466148" lon="113.55572384262707">
        <ele>33.376657464541495</ele>
        <time>2022-10-03T13:53:22Z</time>
        <extensions>
          <gpxtpx:TrackPointExtension>
            <gpxtpx:hr>151</gpxtpx:hr>
          </gpxtpx:TrackPointExtension>
        </extensions>
      </trkpt>
      <trkpt lat="30.93701112818097" lon="113.55587223965806">
        <ele>33.43920402042568</ele>
        <time>2022-10-03T13:53:30Z</time>
        <extensions>
          <gpxtpx:TrackPointExtension>
            <gpxtpx:hr>148</gpxtpx:hr>
          </gpxtpx:TrackPointExtension>
        </extensions>
      </trkpt>
      <trkpt lat="30.937094986766326" lon="113.55624067588816">
        <ele>31.213072238489985</ele>
        <time>2022-10-03T13:53:50Z</time>
        <extensions>
          <gpxtpx:TrackPointExtension>
            <gpxtpx:hr>150</gpxtpx:hr>
          </gpxtpx:TrackPointExtension>
        </extensions>
      </trkpt>
      <trkpt lat="30.937105534627584" lon="113.55661962350177">
        <ele>31.52382825128734</ele>
        <time>2022-10-03T13:54:10Z</time>
        <extensions>
          <gpxtpx:TrackPointExtension>
            <gpxtpx:hr>150</gpxtpx:hr>
          </gpxtpx:TrackPointExtension>
        </extensions>
      </trkpt>
      <trkpt lat="30.9371060123382" lon="113.55669747470627">
        <ele>31.77955699339509</ele>
        <time>2022-10-03T13:54:14Z</time>
        <extensions>
          <gpxtpx:TrackPointExtension>
            <gpxtpx:hr>150</gpxtpx:hr>
          </gpxtpx:TrackPointExtension>
        </extensions>
      </trkpt>
      <trkpt lat="30.937074363430373" lon="113.55676402523896">
        <ele>31.663680433295667</ele>
        <time>2022-10-03T13:54:18Z</time>
        <extensions>
          <gpxtpx:TrackPointExtension>
            <gpxtpx:hr>149</gpxtpx:hr>
          </gpxtpx:TrackPointExtension>
        </extensions>
      </trkpt>
      <trkpt lat="30.937064074192076" lon="113.55684425367174">
        <ele>31.138922615908086</ele>
        <time>2022-10-03T13:54:22Z</time>
        <extensions>
          <gpxtpx:TrackPointExtension>
            <gpxtpx:hr>149</gpxtpx:hr>
          </gpxtpx:TrackPointExtension>
        </extensions>
      </trkpt>
      <trkpt lat="30.936942458903083" lon="113.55705193735976">
        <ele>32.30962506029755</ele>
        <time>2022-10-03T13:54:34Z</time>
        <extensions>
          <gpxtpx:TrackPointExtension>
            <gpxtpx:hr>150</gpxtpx:hr>
          </gpxtpx:TrackPointExtension>
        </extensions>
      </trkpt>
      <trkpt lat="30.93673918979786" lon="113.5572806423377">
        <ele>31.218754331581295</ele>
        <time>2022-10-03T13:54:50Z</time>
        <extensions>
          <gpxtpx:TrackPointExtension>
            <gpxtpx:hr>147</gpxtpx:hr>
          </gpxtpx:TrackPointExtension>
        </extensions>
      </trkpt>
      <trkpt lat="30.936692081211273" lon="113.55733963718025">
        <ele>31.649195408448577</ele>
        <time>2022-10-03T13:54:54Z</time>
        <extensions>
          <gpxtpx:TrackPointExtension>
            <gpxtpx:hr>148</gpxtpx:hr>
          </gpxtpx:TrackPointExtension>
        </extensions>
      </trkpt>
      <trkpt lat="30.936426310307656" lon="113.55750988406052">
        <ele>31.86997538153082</ele>
        <time>2022-10-03T13:55:12Z</time>
        <extensions>
          <gpxtpx:TrackPointExtension>
            <gpxtpx:hr>150</gpxtpx:hr>
          </gpxtpx:TrackPointExtension>
        </extensions>
      </trkpt>
      <trkpt lat="30.93617337106734" lon="113.55773316469026">
        <ele>31.344825739972293</ele>
        <time>2022-10-03T13:55:31Z</time>
        <extensions>
          <gpxtpx:TrackPointExtension>
            <gpxtpx:hr>150</gpxtpx:hr>
          </gpxtpx:TrackPointExtension>
        </extensions>
      </trkpt>
      <trkpt lat="30.935912792807855" lon="113.55798115644829">
        <ele>31.59902892075479</ele>
        <time>2022-10-03T13:55:51Z</time>
        <extensions>
          <gpxtpx:TrackPointExtension>
            <gpxtpx:hr>152</gpxtpx:hr>
          </gpxtpx:TrackPointExtension>
        </extensions>
      </trkpt>
      <trkpt lat="30.93577810766778" lon="113.55809938543835">
        <ele>32.87714191712439</ele>
        <time>2022-10-03T13:56:03Z</time>
        <extensions>
          <gpxtpx:TrackPointExtension>
            <gpxtpx:hr>149</gpxtpx:hr>
          </gpxtpx:TrackPointExtension>
        </extensions>
      </trkpt>
      <trkpt lat="30.935845924786115" lon="113.55820352003776">
        <ele>33.76665999926627</ele>
        <time>2022-10-03T13:56:19Z</time>
        <extensions>
          <gpxtpx:TrackPointExtension>
            <gpxtpx:hr>141</gpxtpx:hr>
          </gpxtpx:TrackPointExtension>
        </extensions>
      </trkpt>
      <trkpt lat="30.935895804342817" lon="113.55820372934514">
        <ele>33.161081680096686</ele>
        <time>2022-10-03T13:56:23Z</time>
        <extensions>
          <gpxtpx:TrackPointExtension>
            <gpxtpx:hr>142</gpxtpx:hr>
          </gpxtpx:TrackPointExtension>
        </extensions>
      </trkpt>
      <trkpt lat="30.935941231847064" lon="113.55818241050915">
        <ele>32.740863336250186</ele>
        <time>2022-10-03T13:56:27Z</time>
        <extensions>
          <gpxtpx:TrackPointExtension>
            <gpxtpx:hr>143</gpxtpx:hr>
          </gpxtpx:TrackPointExtension>
        </extensions>
      </trkpt>
      <trkpt lat="30.93616890377067" lon="113.55793977133003">
        <ele>31.034696740098298</ele>
        <time>2022-10-03T13:56:54Z</time>
        <extensions>
          <gpxtpx:TrackPointExtension>
            <gpxtpx:hr>136</gpxtpx:hr>
          </gpxtpx:TrackPointExtension>
        </extensions>
      </trkpt>
      <trkpt lat="30.936429501391533" lon="113.55770141179188">
        <ele>31.676680772565305</ele>
        <time>2022-10-03T13:57:13Z</time>
        <extensions>
          <gpxtpx:TrackPointExtension>
            <gpxtpx:hr>141</gpxtpx:hr>
          </gpxtpx:TrackPointExtension>
        </extensions>
      </trkpt>
      <trkpt lat="30.936592926288665" lon="113.55762124914737">
        <ele>34.31141759920865</ele>
        <time>2022-10-03T13:57:24Z</time>
        <extensions>
          <gpxtpx:TrackPointExtension>
            <gpxtpx:hr>141</gpxtpx:hr>
          </gpxtpx:TrackPointExtension>
        </extensions>
      </trkpt>
      <trkpt lat="30.936769159740468" lon="113.55746849636738">
        <ele>33.235137791372836</ele>
        <time>2022-10-03T13:57:36Z</time>
        <extensions>
          <gpxtpx:TrackPointExtension>
            <gpxtpx:hr>140</gpxtpx:hr>
          </gpxtpx:TrackPointExtension>
        </extensions>
      </trkpt>
      <trkpt lat="30.936845544444903" lon="113.55734851618459">
        <ele>31.90929215680808</ele>
        <time>2022-10-03T13:57:44Z</time>
        <extensions>
          <gpxtpx:TrackPointExtension>
            <gpxtpx:hr>140</gpxtpx:hr>
          </gpxtpx:TrackPointExtension>
        </extensions>
      </trkpt>
      <trkpt lat="30.937063688580917" lon="113.55714518936489">
        <ele>30.953804209828377</ele>
        <time>2022-10-03T13:58:00Z</time>
        <extensions>
          <gpxtpx:TrackPointExtension>
            <gpxtpx:hr>143</gpxtpx:hr>
          </gpxtpx:TrackPointExtension>
        </extensions>
      </trkpt>
      <trkpt lat="30.937240952588024" lon="113.55686638278179">
        <ele>32.54592175967991</ele>
        <time>2022-10-03T13:58:16Z</time>
        <extensions>
          <gpxtpx:TrackPointExtension>
            <gpxtpx:hr>142</gpxtpx:hr>
          </gpxtpx:TrackPointExtension>
        </extensions>
      </trkpt>
      <trkpt lat="30.937299167595462" lon="113.55679935836353">
        <ele>30.311676064506173</ele>
        <time>2022-10-03T13:58:20Z</time>
        <extensions>
          <gpxtpx:TrackPointExtension>
            <gpxtpx:hr>142</gpxtpx:hr>
          </gpxtpx:TrackPointExtension>
        </extensions>
      </trkpt>
      <trkpt lat="30.93736755746891" lon="113.55645896286784">
        <ele>31.798737661913037</ele>
        <time>2022-10-03T13:58:36Z</time>
        <extensions>
          <gpxtpx:TrackPointExtension>
            <gpxtpx:hr>147</gpxtpx:hr>
          </gpxtpx:TrackPointExtension>
        </extensions>
      </trkpt>
      <trkpt lat="30.937361313536915" lon="113.55637082329567">
        <ele>33.25388013292104</ele>
        <time>2022-10-03T13:58:40Z</time>
        <extensions>
          <gpxtpx:TrackPointExtension>
            <gpxtpx:hr>144</gpxtpx:hr>
          </gpxtpx:TrackPointExtension>
        </extensions>
      </trkpt>
      <trkpt lat="30.937394272110588" lon="113.55620508018917">
        <ele>34.40990134701133</ele>
        <time>2022-10-03T13:58:48Z</time>
        <extensions>
          <gpxtpx:TrackPointExtension>
            <gpxtpx:hr>146</gpxtpx:hr>
          </gpxtpx:TrackPointExtension>
        </extensions>
      </trkpt>
      <trkpt lat="30.9373685172971" lon="113.55613889562045">
        <ele>34.545315308496356</ele>
        <time>2022-10-03T13:58:52Z</time>
        <extensions>
          <gpxtpx:TrackPointExtension>
            <gpxtpx:hr>147</gpxtpx:hr>
          </gpxtpx:TrackPointExtension>
        </extensions>
      </trkpt>
      <trkpt lat="30.937336407768836" lon="113.55588728212672">
        <ele>36.36039346642792</ele>
        <time>2022-10-03T13:59:04Z</time>
        <extensions>
          <gpxtpx:TrackPointExtension>
            <gpxtpx:hr>145</gpxtpx:hr>
          </gpxtpx:TrackPointExtension>
        </extensions>
      </trkpt>
      <trkpt lat="30.93727073011419" lon="113.55573628638774">
        <ele>34.4706954844296</ele>
        <time>2022-10-03T13:59:12Z</time>
        <extensions>
          <gpxtpx:TrackPointExtension>
            <gpxtpx:hr>145</gpxtpx:hr>
          </gpxtpx:TrackPointExtension>
        </extensions>
      </trkpt>
      <trkpt lat="30.93713129585249" lon="113.55549984206532">
        <ele>34.45245811343193</ele>
        <time>2022-10-03T13:59:25Z</time>
        <extensions>
          <gpxtpx:TrackPointExtension>
            <gpxtpx:hr>146</gpxtpx:hr>
          </gpxtpx:TrackPointExtension>
        </extensions>
      </trkpt>
      <trkpt lat="30.937107163357485" lon="113.5554289532814">
        <ele>33.88853214215487</ele>
        <time>2022-10-03T13:59:29Z</time>
        <extensions>
          <gpxtpx:TrackPointExtension>
            <gpxtpx:hr>147</gpxtpx:hr>
          </gpxtpx:TrackPointExtension>
        </extensions>
      </trkpt>
      <trkpt lat="30.937159325647755" lon="113.55538141173226">
        <ele>31.796341890469193</ele>
        <time>2022-10-03T13:59:35Z</time>
        <extensions>
          <gpxtpx:TrackPointExtension>
            <gpxtpx:hr>144</gpxtpx:hr>
          </gpxtpx:TrackPointExtension>
        </extensions>
      </trkpt>
      <trkpt lat="30.937304581688462" lon="113.55544184930116">
        <ele>32.69962457194924</ele>
        <time>2022-10-03T13:59:45Z</time>
        <extensions>
          <gpxtpx:TrackPointExtension>
            <gpxtpx:hr>146</gpxtpx:hr>
          </gpxtpx:TrackPointExtension>
        </extensions>
      </trkpt>
      <trkpt lat="30.937464555912285" lon="113.55544594528475">
        <ele>32.75370124913752</ele>
        <time>2022-10-03T13:59:57Z</time>
        <extensions>
          <gpxtpx:TrackPointExtension>
            <gpxtpx:hr>144</gpxtpx:hr>
          </gpxtpx:TrackPointExtension>
        </extensions>
      </trkpt>
      <trkpt lat="30.937532111456417" lon="113.55549005906126">
        <ele>32.604776601307094</ele>
        <time>2022-10-03T14:00:05Z</time>
        <extensions>
          <gpxtpx:TrackPointExtension>
            <gpxtpx:hr>134</gpxtpx:hr>
          </gpxtpx:TrackPointExtension>
        </extensions>
      </trkpt>
      <trkpt lat="30.937475589528184" lon="113.55550672121227">
        <ele>33.290090925991535</ele>
        <time>2022-10-03T14:00:13Z</time>
        <extensions>
          <gpxtpx:TrackPointExtension>
            <gpxtpx:hr>132</gpxtpx:hr>
          </gpxtpx:TrackPointExtension>
        </extensions>
      </trkpt>
      <trkpt lat="30.937311381335043" lon="113.55550678951218">
        <ele>33.459409929811954</ele>
        <time>2022-10-03T14:00:25Z</time>
        <extensions>
          <gpxtpx:TrackPointExtension>
            <gpxtpx:hr>130</gpxtpx:hr>
          </gpxtpx:TrackPointExtension>
        </extensions>
      </trkpt>
      <trkpt lat="30.93726549252099" lon="113.55552626658879">
        <ele>33.70900560449809</ele>
        <time>2022-10-03T14:00:29Z</time>
        <extensions>
          <gpxtpx:TrackPointExtension>
            <gpxtpx:hr>131</gpxtpx:hr>
          </gpxtpx:TrackPointExtension>
        </extensions>
      </trkpt>
      <trkpt lat="30.937218047723654" lon="113.5556215712713">
        <ele>33.63364684395492</ele>
        <time>2022-10-03T14:00:37Z</time>
        <extensions>
          <gpxtpx:TrackPointExtension>
            <gpxtpx:hr>127</gpxtpx:hr>
          </gpxtpx:TrackPointExtension>
        </extensions>
      </trkpt>
      <trkpt lat="30.937318783546882" lon="113.55592416969007">
        <ele>34.15261002257466</ele>
        <time>2022-10-03T14:00:53Z</time>
        <extensions>
          <gpxtpx:TrackPointExtension>
            <gpxtpx:hr>134</gpxtpx:hr>
          </gpxtpx:TrackPointExtension>
        </extensions>
      </trkpt>
      <trkpt lat="30.937378147563244" lon="113.55616047149667">
        <ele>34.10661628190428</ele>
        <time>2022-10-03T14:01:05Z</time>
        <extensions>
          <gpxtpx:TrackPointExtension>
            <gpxtpx:hr>139</gpxtpx:hr>
          </gpxtpx:TrackPointExtension>
        </extensions>
      </trkpt>
      <trkpt lat="30.93739034853304" lon="113.55647265725936">
        <ele>32.757137248292565</ele>
        <time>2022-10-03T14:01:21Z</time>
        <extensions>
          <gpxtpx:TrackPointExtension>
            <gpxtpx:hr>140</gpxtpx:hr>
          </gpxtpx:TrackPointExtension>
        </extensions>
      </trkpt>
      <trkpt lat="30.937313855854338" lon="113.55681620610743">
        <ele>33.14088485110551</ele>
        <time>2022-10-03T14:01:40Z</time>
        <extensions>
          <gpxtpx:TrackPointExtension>
            <gpxtpx:hr>138</gpxtpx:hr>
          </gpxtpx:TrackPointExtension>
        </extensions>
      </trkpt>
      <trkpt lat="30.937269969851794" lon="113.55698069486544">
        <ele>34.188597668893635</ele>
        <time>2022-10-03T14:01:49Z</time>
        <extensions>
          <gpxtpx:TrackPointExtension>
            <gpxtpx:hr>142</gpxtpx:hr>
          </gpxtpx:TrackPointExtension>
        </extensions>
      </trkpt>
      <trkpt lat="30.937110626804845" lon="113.55724974602464">
        <ele>33.277405987493694</ele>
        <time>2022-10-03T14:02:05Z</time>
        <extensions>
          <gpxtpx:TrackPointExtension>
            <gpxtpx:hr>139</gpxtpx:hr>
          </gpxtpx:TrackPointExtension>
        </extensions>
      </trkpt>
      <trkpt lat="30.937096565541342" lon="113.55732446535475">
        <ele>33.61339983716607</ele>
        <time>2022-10-03T14:02:09Z</time>
        <extensions>
          <gpxtpx:TrackPointExtension>
            <gpxtpx:hr>137</gpxtpx:hr>
          </gpxtpx:TrackPointExtension>
        </extensions>
      </trkpt>
      <trkpt lat="30.937114171798388" lon="113.55749336783146">
        <ele>33.280899996869266</ele>
        <time>2022-10-03T14:02:17Z</time>
        <extensions>
          <gpxtpx:TrackPointExtension>
            <gpxtpx:hr>142</gpxtpx:hr>
          </gpxtpx:TrackPointExtension>
        </extensions>
      </trkpt>
      <trkpt lat="30.937095610013507" lon="113.55757218293057">
        <ele>34.160747054964304</ele>
        <time>2022-10-03T14:02:21Z</time>
        <extensions>
          <gpxtpx:TrackPointExtension>
            <gpxtpx:hr>147</gpxtpx:hr>
          </gpxtpx:TrackPointExtension>
        </extensions>
      </trkpt>
      <trkpt lat="30.937106174135977" lon="113.55765670712296">
        <ele>34.683619095012546</ele>
        <time>2022-10-03T14:02:25Z</time>
        <extensions>
          <gpxtpx:TrackPointExtension>
            <gpxtpx:hr>145</gpxtpx:hr>
          </gpxtpx:TrackPointExtension>
        </extensions>
      </trkpt>
      <trkpt lat="30.937129396862897" lon="113.55771459400799">
        <ele>33.90252540726215</ele>
        <time>2022-10-03T14:02:28Z</time>
        <extensions>
          <gpxtpx:TrackPointExtension>
            <gpxtpx:hr>145</gpxtpx:hr>
          </gpxtpx:TrackPointExtension>
        </extensions>
      </trkpt>
      <trkpt lat="30.937187743447033" lon="113.55775265069568">
        <ele>33.07089574728161</ele>
        <time>2022-10-03T14:02:32Z</time>
        <extensions>
          <gpxtpx:TrackPointExtension>
            <gpxtpx:hr>141</gpxtpx:hr>
          </gpxtpx:TrackPointExtension>
        </extensions>
      </trkpt>
      <trkpt lat="30.937476386131987" lon="113.5577994463559">
        <ele>30.887842929922044</ele>
        <time>2022-10-03T14:02:52Z</time>
        <extensions>
          <gpxtpx:TrackPointExtension>
            <gpxtpx:hr>145</gpxtpx:hr>
          </gpxtpx:TrackPointExtension>
        </extensions>
      </trkpt>
      <trkpt lat="30.937492300810646" lon="113.55767568301407">
        <ele>34.45348137430847</ele>
        <time>2022-10-03T14:02:56Z</time>
        <extensions>
          <gpxtpx:TrackPointExtension>
            <gpxtpx:hr>145</gpxtpx:hr>
          </gpxtpx:TrackPointExtension>
        </extensions>
      </trkpt>
      <trkpt lat="30.93748410580955" lon="113.55758118854975">
        <ele>35.395329957827926</ele>
        <time>2022-10-03T14:03:00Z</time>
        <extensions>
          <gpxtpx:TrackPointExtension>
            <gpxtpx:hr>145</gpxtpx:hr>
          </gpxtpx:TrackPointExtension>
        </extensions>
      </trkpt>
      <trkpt lat="30.937527149219086" lon="113.55740238678985">
        <ele>34.76598932221532</ele>
        <time>2022-10-03T14:03:08Z</time>
        <extensions>
          <gpxtpx:TrackPointExtension>
            <gpxtpx:hr>145</gpxtpx:hr>
          </gpxtpx:TrackPointExtension>
        </extensions>
      </trkpt>
      <trkpt lat="30.93753192277123" lon="113.55732314514103">
        <ele>35.68627394363284</ele>
        <time>2022-10-03T14:03:12Z</time>
        <extensions>
          <gpxtpx:TrackPointExtension>
            <gpxtpx:hr>145</gpxtpx:hr>
          </gpxtpx:TrackPointExtension>
        </extensions>
      </trkpt>
      <trkpt lat="30.937511023570742" lon="113.5572221953801">
        <ele>35.61642584297806</ele>
        <time>2022-10-03T14:03:16Z</time>
        <extensions>
          <gpxtpx:TrackPointExtension>
            <gpxtpx:hr>148</gpxtpx:hr>
          </gpxtpx:TrackPointExtension>
        </extensions>
      </trkpt>
      <trkpt lat="30.937491868771694" lon="113.55697446781544">
        <ele>34.26864720880985</ele>
        <time>2022-10-03T14:03:28Z</time>
        <extensions>
          <gpxtpx:TrackPointExtension>
            <gpxtpx:hr>153</gpxtpx:hr>
          </gpxtpx:TrackPointExtension>
        </extensions>
      </trkpt>
      <trkpt lat="30.937548790779903" lon="113.5568919192301">
        <ele>29.991091462783515</ele>
        <time>2022-10-03T14:03:35Z</time>
        <extensions>
          <gpxtpx:TrackPointExtension>
            <gpxtpx:hr>153</gpxtpx:hr>
          </gpxtpx:TrackPointExtension>
        </extensions>
      </trkpt>
      <trkpt lat="30.937557019438614" lon="113.55683749589693">
        <ele>30.565134026110172</ele>
        <time>2022-10-03T14:03:38Z</time>
        <extensions>
          <gpxtpx:TrackPointExtension>
            <gpxtpx:hr>151</gpxtpx:hr>
          </gpxtpx:TrackPointExtension>
        </extensions>
      </trkpt>
      <trkpt lat="30.93754231614685" lon="113.55678066111521">
        <ele>31.463027607649565</ele>
        <time>2022-10-03T14:03:42Z</time>
        <extensions>
          <gpxtpx:TrackPointExtension>
            <gpxtpx:hr>150</gpxtpx:hr>
          </gpxtpx:TrackPointExtension>
        </extensions>
      </trkpt>
      <trkpt lat="30.93763047520054" lon="113.55649004300057">
        <ele>31.568944903090596</ele>
        <time>2022-10-03T14:03:58Z</time>
        <extensions>
          <gpxtpx:TrackPointExtension>
            <gpxtpx:hr>147</gpxtpx:hr>
          </gpxtpx:TrackPointExtension>
        </extensions>
      </trkpt>
      <trkpt lat="30.937625522232068" lon="113.55640606526832">
        <ele>32.35432291030884</ele>
        <time>2022-10-03T14:04:02Z</time>
        <extensions>
          <gpxtpx:TrackPointExtension>
            <gpxtpx:hr>147</gpxtpx:hr>
          </gpxtpx:TrackPointExtension>
        </extensions>
      </trkpt>
      <trkpt lat="30.9376400956191" lon="113.55625114995563">
        <ele>31.2585890237242</ele>
        <time>2022-10-03T14:04:10Z</time>
        <extensions>
          <gpxtpx:TrackPointExtension>
            <gpxtpx:hr>149</gpxtpx:hr>
          </gpxtpx:TrackPointExtension>
        </extensions>
      </trkpt>
      <trkpt lat="30.937709669403276" lon="113.55602284949427">
        <ele>32.117593076080084</ele>
        <time>2022-10-03T14:04:22Z</time>
        <extensions>
          <gpxtpx:TrackPointExtension>
            <gpxtpx:hr>152</gpxtpx:hr>
          </gpxtpx:TrackPointExtension>
        </extensions>
      </trkpt>
      <trkpt lat="30.93761864658393" lon="113.55595924474301">
        <ele>33.393157684244215</ele>
        <time>2022-10-03T14:04:26Z</time>
        <extensions>
          <gpxtpx:TrackPointExtension>
            <gpxtpx:hr>153</gpxtpx:hr>
          </gpxtpx:TrackPointExtension>
        </extensions>
      </trkpt>
      <trkpt lat="30.937491023825263" lon="113.55597675230082">
        <ele>32.90493751689792</ele>
        <time>2022-10-03T14:04:30Z</time>
        <extensions>
          <gpxtpx:TrackPointExtension>
            <gpxtpx:hr>153</gpxtpx:hr>
          </gpxtpx:TrackPointExtension>
        </extensions>
      </trkpt>
      <trkpt lat="30.937438952636576" lon="113.55605023948034">
        <ele>33.9869017964229</ele>
        <time>2022-10-03T14:04:34Z</time>
        <extensions>
          <gpxtpx:TrackPointExtension>
            <gpxtpx:hr>152</gpxtpx:hr>
          </gpxtpx:TrackPointExtension>
        </extensions>
      </trkpt>
      <trkpt lat="30.937403493053274" lon="113.5563816925942">
        <ele>34.02931132353842</ele>
        <time>2022-10-03T14:04:54Z</time>
        <extensions>
          <gpxtpx:TrackPointExtension>
            <gpxtpx:hr>151</gpxtpx:hr>
          </gpxtpx:TrackPointExtension>
        </extensions>
      </trkpt>
      <trkpt lat="30.937375704917567" lon="113.55654732923463">
        <ele>32.73256730288267</ele>
        <time>2022-10-03T14:05:06Z</time>
        <extensions>
          <gpxtpx:TrackPointExtension>
            <gpxtpx:hr>149</gpxtpx:hr>
          </gpxtpx:TrackPointExtension>
        </extensions>
      </trkpt>
    </trkseg>
  </trk>
</gpx>