<?xml version="1.0" encoding="UTF-8"?>
<gpx xmlns="http://www.topografix.com/GPX/1/1" xmlns:gpxtpx="http://www.garmin.com/xmlschemas/TrackPointExtension/v1" xmlns:xsi="http://www.w3.org/2001/XMLSchema-instance" xsi:schemaLocation="http://www.topografix.com/GPX/1/1 http://www.topografix.com/GPX/1/1/gpx.xsd" version="1.1" creator="gpx.py -- https://github.com/tkrajina/gpxpy">
  <trk>
    <name>gpx from keep</name>
    <type>Run</type>
    <trkseg>
      <trkpt lat="30.93766502981464" lon="113.5561045738858">
        <ele>33.136257318779826</ele>
        <time>2022-10-09T12:45:58Z</time>
      </trkpt>
      <trkpt lat="30.937666940926864" lon="113.55598329338656">
        <ele>33.94881834834814</ele>
        <time>2022-10-09T12:46:10Z</time>
      </trkpt>
      <trkpt lat="30.937620750160697" lon="113.55589732591417">
        <ele>32.08317731972784</ele>
        <time>2022-10-09T12:46:16Z</time>
      </trkpt>
      <trkpt lat="30.937597128603294" lon="113.55577145152513">
        <ele>31.598088456317782</ele>
        <time>2022-10-09T12:46:25Z</time>
      </trkpt>
      <trkpt lat="30.937611120221842" lon="113.55563308693908">
        <ele>31.170726880431175</ele>
        <time>2022-10-09T12:46:34Z</time>
      </trkpt>
      <trkpt lat="30.937578247229723" lon="113.5555454005536">
        <ele>30.63286381866783</ele>
        <time>2022-10-09T12:46:40Z</time>
      </trkpt>
      <trkpt lat="30.937498837774992" lon="113.55539815602067">
        <ele>31.792991277761757</ele>
        <time>2022-10-09T12:46:46Z</time>
      </trkpt>
      <trkpt lat="30.937315266558414" lon="113.55534910950475">
        <ele>31.06157993618399</ele>
        <time>2022-10-09T12:46:53Z</time>
      </trkpt>
      <trkpt lat="30.937043384555334" lon="113.55534175852198">
        <ele>32.08093530498445</ele>
        <time>2022-10-09T12:47:06Z</time>
      </trkpt>
      <trkpt lat="30.936872279673334" lon="113.55527743694333">
        <ele>31.092240568250418</ele>
        <time>2022-10-09T12:47:15Z</time>
      </trkpt>
      <trkpt lat="30.93670842253156" lon="113.55494687766833">
        <ele>31.18743223603815</ele>
        <time>2022-10-09T12:47:31Z</time>
      </trkpt>
      <trkpt lat="30.936615973291346" lon="113.55474453399981">
        <ele>31.106844934634864</ele>
        <time>2022-10-09T12:47:40Z</time>
      </trkpt>
      <trkpt lat="30.936570416944523" lon="113.5546273974126">
        <ele>31.661709683947265</ele>
        <time>2022-10-09T12:47:46Z</time>
      </trkpt>
      <trkpt lat="30.936372055288114" lon="113.55431731330107">
        <ele>30.41654345858842</ele>
        <time>2022-10-09T12:48:02Z</time>
      </trkpt>
      <trkpt lat="30.936172228075236" lon="113.55402189699235">
        <ele>30.84181574266404</ele>
        <time>2022-10-09T12:48:19Z</time>
      </trkpt>
      <trkpt lat="30.93613136620257" lon="113.55393693156805">
        <ele>30.15064385998994</ele>
        <time>2022-10-09T12:48:23Z</time>
      </trkpt>
      <trkpt lat="30.936112602371413" lon="113.5538323735258">
        <ele>30.112734721042216</ele>
        <time>2022-10-09T12:48:27Z</time>
      </trkpt>
      <trkpt lat="30.936023178972647" lon="113.55367813305787">
        <ele>30.162435794249177</ele>
        <time>2022-10-09T12:48:35Z</time>
      </trkpt>
      <trkpt lat="30.935817346059334" lon="113.55342047895122">
        <ele>30.806313236244023</ele>
        <time>2022-10-09T12:48:51Z</time>
      </trkpt>
      <trkpt lat="30.935755376363616" lon="113.55330768142878">
        <ele>30.51028833910823</ele>
        <time>2022-10-09T12:48:57Z</time>
      </trkpt>
      <trkpt lat="30.9356741720925" lon="113.55313599407714">
        <ele>30.027623333968222</ele>
        <time>2022-10-09T12:49:06Z</time>
      </trkpt>
      <trkpt lat="30.935546081317945" lon="113.55291149333871">
        <ele>29.83818222116679</ele>
        <time>2022-10-09T12:49:18Z</time>
      </trkpt>
      <trkpt lat="30.935424311363793" lon="113.55259604693212">
        <ele>30.012114285491407</ele>
        <time>2022-10-09T12:49:33Z</time>
      </trkpt>
      <trkpt lat="30.935330524206613" lon="113.55241075043547">
        <ele>30.50466673541814</ele>
        <time>2022-10-09T12:49:42Z</time>
      </trkpt>
      <trkpt lat="30.935291797235294" lon="113.55236429167438">
        <ele>29.930254449136555</ele>
        <time>2022-10-09T12:49:45Z</time>
      </trkpt>
      <trkpt lat="30.93521970464513" lon="113.55216499434691">
        <ele>28.751036064699292</ele>
        <time>2022-10-09T12:49:54Z</time>
      </trkpt>
      <trkpt lat="30.935178062860178" lon="113.5521084993203">
        <ele>29.936730646528304</ele>
        <time>2022-10-09T12:49:57Z</time>
      </trkpt>
      <trkpt lat="30.9350386032734" lon="113.55176829724586">
        <ele>30.1359138218686</ele>
        <time>2022-10-09T12:50:13Z</time>
      </trkpt>
      <trkpt lat="30.934989577002835" lon="113.55163763109522">
        <ele>29.553080949001014</ele>
        <time>2022-10-09T12:50:19Z</time>
      </trkpt>
      <trkpt lat="30.93497345127903" lon="113.55145592239055">
        <ele>28.78010314516723</ele>
        <time>2022-10-09T12:50:28Z</time>
      </trkpt>
      <trkpt lat="30.935037543376378" lon="113.55126929470315">
        <ele>28.22185435052961</ele>
        <time>2022-10-09T12:50:38Z</time>
      </trkpt>
      <trkpt lat="30.935236142417484" lon="113.55102100158834">
        <ele>29.3150430386886</ele>
        <time>2022-10-09T12:50:54Z</time>
      </trkpt>
      <trkpt lat="30.935324868730603" lon="113.55093700755796">
        <ele>30.01922162529081</ele>
        <time>2022-10-09T12:51:00Z</time>
      </trkpt>
      <trkpt lat="30.93542407129258" lon="113.55078045037197">
        <ele>28.20871252194047</ele>
        <time>2022-10-09T12:51:09Z</time>
      </trkpt>
      <trkpt lat="30.93539630661155" lon="113.55072864769153">
        <ele>29.46636324841529</ele>
        <time>2022-10-09T12:51:12Z</time>
      </trkpt>
      <trkpt lat="30.935341768474984" lon="113.55070581802445">
        <ele>30.359514405950904</ele>
        <time>2022-10-09T12:51:15Z</time>
      </trkpt>
      <trkpt lat="30.935134794500325" lon="113.55070974419372">
        <ele>30.49533174186945</ele>
        <time>2022-10-09T12:51:27Z</time>
      </trkpt>
      <trkpt lat="30.9350808083072" lon="113.55069506324348">
        <ele>30.93846491444856</ele>
        <time>2022-10-09T12:51:30Z</time>
      </trkpt>
      <trkpt lat="30.934757228889627" lon="113.55068580145739">
        <ele>30.877138207666576</ele>
        <time>2022-10-09T12:51:48Z</time>
      </trkpt>
      <trkpt lat="30.934475182683123" lon="113.55069180863694">
        <ele>29.269020184874535</ele>
        <time>2022-10-09T12:52:03Z</time>
      </trkpt>
      <trkpt lat="30.93442169640009" lon="113.55073856920583">
        <ele>30.23175015579909</ele>
        <time>2022-10-09T12:52:06Z</time>
      </trkpt>
      <trkpt lat="30.934394928671566" lon="113.55080687313963">
        <ele>30.990702592767775</ele>
        <time>2022-10-09T12:52:09Z</time>
      </trkpt>
      <trkpt lat="30.934386166425895" lon="113.55095820090875">
        <ele>30.739579011686146</ele>
        <time>2022-10-09T12:52:15Z</time>
      </trkpt>
      <trkpt lat="30.934295746629235" lon="113.55131621573226">
        <ele>30.733814649283886</ele>
        <time>2022-10-09T12:52:33Z</time>
      </trkpt>
      <trkpt lat="30.934260497834554" lon="113.55142688905849">
        <ele>30.815772279165685</ele>
        <time>2022-10-09T12:52:39Z</time>
      </trkpt>
      <trkpt lat="30.934257286356548" lon="113.55177642938328">
        <ele>31.035376214422286</ele>
        <time>2022-10-09T12:52:55Z</time>
      </trkpt>
      <trkpt lat="30.934275169940037" lon="113.5519690640221">
        <ele>30.80545258335769</ele>
        <time>2022-10-09T12:53:04Z</time>
      </trkpt>
      <trkpt lat="30.934367588957045" lon="113.55228560763746">
        <ele>31.972773231565952</ele>
        <time>2022-10-09T12:53:19Z</time>
      </trkpt>
      <trkpt lat="30.93446583831782" lon="113.55252705938572">
        <ele>31.341209738515317</ele>
        <time>2022-10-09T12:53:32Z</time>
      </trkpt>
      <trkpt lat="30.93459569577044" lon="113.5528080573869">
        <ele>31.91861427668482</ele>
        <time>2022-10-09T12:53:47Z</time>
      </trkpt>
      <trkpt lat="30.93468670978008" lon="113.552954784882">
        <ele>32.34482318907976</ele>
        <time>2022-10-09T12:53:56Z</time>
      </trkpt>
      <trkpt lat="30.934700104926442" lon="113.55301546778799">
        <ele>33.03550443984568</ele>
        <time>2022-10-09T12:53:59Z</time>
      </trkpt>
      <trkpt lat="30.93485857814345" lon="113.55328136715633">
        <ele>32.53846586961299</ele>
        <time>2022-10-09T12:54:12Z</time>
      </trkpt>
      <trkpt lat="30.934915428538353" lon="113.55342446338163">
        <ele>32.16223309747875</ele>
        <time>2022-10-09T12:54:18Z</time>
      </trkpt>
      <trkpt lat="30.934957731114764" lon="113.55348648707255">
        <ele>32.22195987123996</ele>
        <time>2022-10-09T12:54:21Z</time>
      </trkpt>
      <trkpt lat="30.935027983235866" lon="113.55365893850573">
        <ele>30.94761497620493</ele>
        <time>2022-10-09T12:54:28Z</time>
      </trkpt>
      <trkpt lat="30.93523113364127" lon="113.553950195737">
        <ele>29.96630532667041</ele>
        <time>2022-10-09T12:54:43Z</time>
      </trkpt>
      <trkpt lat="30.935394323006292" lon="113.55424706223609">
        <ele>30.456943589262664</ele>
        <time>2022-10-09T12:54:58Z</time>
      </trkpt>
      <trkpt lat="30.93554888001201" lon="113.5545289204024">
        <ele>30.466199988499284</ele>
        <time>2022-10-09T12:55:13Z</time>
      </trkpt>
      <trkpt lat="30.935711373327305" lon="113.5548419569307">
        <ele>31.3020243877545</ele>
        <time>2022-10-09T12:55:31Z</time>
      </trkpt>
      <trkpt lat="30.935773042012425" lon="113.55493682952657">
        <ele>30.62789126485586</ele>
        <time>2022-10-09T12:55:37Z</time>
      </trkpt>
      <trkpt lat="30.93579197592606" lon="113.55499698755041">
        <ele>30.255295648239553</ele>
        <time>2022-10-09T12:55:40Z</time>
      </trkpt>
      <trkpt lat="30.93595984275769" lon="113.55525690624656">
        <ele>30.214713390916586</ele>
        <time>2022-10-09T12:55:56Z</time>
      </trkpt>
      <trkpt lat="30.93612816155848" lon="113.55556882665734">
        <ele>29.781639081425965</ele>
        <time>2022-10-09T12:56:14Z</time>
      </trkpt>
      <trkpt lat="30.936185415235904" lon="113.55566664859224">
        <ele>32.171237820759416</ele>
        <time>2022-10-09T12:56:20Z</time>
      </trkpt>
      <trkpt lat="30.936193543160638" lon="113.5557260437824">
        <ele>30.977606987580657</ele>
        <time>2022-10-09T12:56:23Z</time>
      </trkpt>
      <trkpt lat="30.93623107925835" lon="113.55578764306182">
        <ele>31.564240243285894</ele>
        <time>2022-10-09T12:56:26Z</time>
      </trkpt>
      <trkpt lat="30.936257955938327" lon="113.55587112879772">
        <ele>31.500564790330827</ele>
        <time>2022-10-09T12:56:30Z</time>
      </trkpt>
      <trkpt lat="30.936394975105607" lon="113.55614473585324">
        <ele>30.110179368406534</ele>
        <time>2022-10-09T12:56:46Z</time>
      </trkpt>
      <trkpt lat="30.936419540052796" lon="113.55636236800234">
        <ele>30.36281268298626</ele>
        <time>2022-10-09T12:56:58Z</time>
      </trkpt>
      <trkpt lat="30.93640274175386" lon="113.55652181748978">
        <ele>30.899445915594697</ele>
        <time>2022-10-09T12:57:06Z</time>
      </trkpt>
      <trkpt lat="30.936313145065128" lon="113.55674103697454">
        <ele>30.365742188878357</ele>
        <time>2022-10-09T12:57:18Z</time>
      </trkpt>
      <trkpt lat="30.936142918750622" lon="113.5569736453917">
        <ele>29.872274389490485</ele>
        <time>2022-10-09T12:57:32Z</time>
      </trkpt>
      <trkpt lat="30.93588634700061" lon="113.55717699177627">
        <ele>30.881737472489476</ele>
        <time>2022-10-09T12:57:48Z</time>
      </trkpt>
      <trkpt lat="30.935668668026196" lon="113.55728593775278">
        <ele>30.27427425608039</ele>
        <time>2022-10-09T12:58:01Z</time>
      </trkpt>
      <trkpt lat="30.935481201752626" lon="113.55731235493914">
        <ele>30.197870624251664</ele>
        <time>2022-10-09T12:58:10Z</time>
      </trkpt>
      <trkpt lat="30.935430597959897" lon="113.55735061430654">
        <ele>30.191423096694052</ele>
        <time>2022-10-09T12:58:13Z</time>
      </trkpt>
      <trkpt lat="30.93523824909797" lon="113.5574090698165">
        <ele>30.03603179100901</ele>
        <time>2022-10-09T12:58:23Z</time>
      </trkpt>
      <trkpt lat="30.935126845874986" lon="113.55746190000401">
        <ele>30.198647499084473</ele>
        <time>2022-10-09T12:58:30Z</time>
      </trkpt>
      <trkpt lat="30.93481081329833" lon="113.5575353298107">
        <ele>30.76298025622964</ele>
        <time>2022-10-09T12:58:47Z</time>
      </trkpt>
      <trkpt lat="30.934648530075755" lon="113.55756339432553">
        <ele>31.06177754700184</ele>
        <time>2022-10-09T12:58:55Z</time>
      </trkpt>
      <trkpt lat="30.934374170606507" lon="113.55756154302956">
        <ele>31.08292716369033</ele>
        <time>2022-10-09T12:59:11Z</time>
      </trkpt>
      <trkpt lat="30.93428303685398" lon="113.55756992152433">
        <ele>30.955152665264904</ele>
        <time>2022-10-09T12:59:15Z</time>
      </trkpt>
      <trkpt lat="30.9339773728042" lon="113.55750968385247">
        <ele>31.23996864259243</ele>
        <time>2022-10-09T12:59:32Z</time>
      </trkpt>
      <trkpt lat="30.933820979796927" lon="113.55745480381567">
        <ele>31.235344115644693</ele>
        <time>2022-10-09T12:59:41Z</time>
      </trkpt>
      <trkpt lat="30.933708181096566" lon="113.5574397140135">
        <ele>31.14251535292715</ele>
        <time>2022-10-09T12:59:48Z</time>
      </trkpt>
      <trkpt lat="30.933642742383086" lon="113.55740640683194">
        <ele>31.377339346334338</ele>
        <time>2022-10-09T12:59:52Z</time>
      </trkpt>
      <trkpt lat="30.93354118249388" lon="113.5573978392732">
        <ele>32.194084274582565</ele>
        <time>2022-10-09T12:59:58Z</time>
      </trkpt>
      <trkpt lat="30.933247343257953" lon="113.55725130635413">
        <ele>32.916563941165805</ele>
        <time>2022-10-09T13:00:17Z</time>
      </trkpt>
      <trkpt lat="30.93307971387349" lon="113.55712445657284">
        <ele>32.574041024781764</ele>
        <time>2022-10-09T13:00:29Z</time>
      </trkpt>
      <trkpt lat="30.932993774845997" lon="113.55698114048172">
        <ele>33.54489776492119</ele>
        <time>2022-10-09T13:00:38Z</time>
      </trkpt>
      <trkpt lat="30.932809147694627" lon="113.55674823387383">
        <ele>33.56224498525262</ele>
        <time>2022-10-09T13:00:54Z</time>
      </trkpt>
      <trkpt lat="30.93271962487764" lon="113.5566210804136">
        <ele>31.919394090771675</ele>
        <time>2022-10-09T13:01:03Z</time>
      </trkpt>
      <trkpt lat="30.93255795714186" lon="113.55651503963745">
        <ele>33.57818104326725</ele>
        <time>2022-10-09T13:01:12Z</time>
      </trkpt>
      <trkpt lat="30.932359389318606" lon="113.55621466002047">
        <ele>34.264722374267876</ele>
        <time>2022-10-09T13:01:30Z</time>
      </trkpt>
      <trkpt lat="30.93229704928662" lon="113.55612249691546">
        <ele>35.205035496503115</ele>
        <time>2022-10-09T13:01:36Z</time>
      </trkpt>
      <trkpt lat="30.932244800947455" lon="113.55609380291129">
        <ele>35.75770349428058</ele>
        <time>2022-10-09T13:01:39Z</time>
      </trkpt>
      <trkpt lat="30.932064118629537" lon="113.55588075345013">
        <ele>35.06861650571227</ele>
        <time>2022-10-09T13:01:54Z</time>
      </trkpt>
      <trkpt lat="30.93200430733448" lon="113.55576918568534">
        <ele>34.28823965974152</ele>
        <time>2022-10-09T13:02:00Z</time>
      </trkpt>
      <trkpt lat="30.931963738982194" lon="113.55570820200369">
        <ele>35.47875381447375</ele>
        <time>2022-10-09T13:02:03Z</time>
      </trkpt>
      <trkpt lat="30.931832504071913" lon="113.55539479393937">
        <ele>33.171236051246524</ele>
        <time>2022-10-09T13:02:16Z</time>
      </trkpt>
      <trkpt lat="30.931668499130183" lon="113.55511392295044">
        <ele>31.304584545083344</ele>
        <time>2022-10-09T13:02:29Z</time>
      </trkpt>
      <trkpt lat="30.931637035981367" lon="113.55497427566436">
        <ele>32.43266183696687</ele>
        <time>2022-10-09T13:02:35Z</time>
      </trkpt>
      <trkpt lat="30.931490898354568" lon="113.55480257801622">
        <ele>34.11499876063317</ele>
        <time>2022-10-09T13:02:45Z</time>
      </trkpt>
      <trkpt lat="30.93142711297939" lon="113.5547499157322">
        <ele>34.96020071581006</ele>
        <time>2022-10-09T13:02:49Z</time>
      </trkpt>
      <trkpt lat="30.931341040263614" lon="113.55473669170664">
        <ele>36.95421321503818</ele>
        <time>2022-10-09T13:02:53Z</time>
      </trkpt>
      <trkpt lat="30.93114322356875" lon="113.5546809867086">
        <ele>33.71083185542375</ele>
        <time>2022-10-09T13:03:03Z</time>
      </trkpt>
      <trkpt lat="30.931029709832192" lon="113.55467756040954">
        <ele>32.725109562277794</ele>
        <time>2022-10-09T13:03:09Z</time>
      </trkpt>
      <trkpt lat="30.930982666965658" lon="113.5546499649761">
        <ele>32.408226780593395</ele>
        <time>2022-10-09T13:03:12Z</time>
      </trkpt>
      <trkpt lat="30.93092926601924" lon="113.55464205298289">
        <ele>32.02028582803905</ele>
        <time>2022-10-09T13:03:15Z</time>
      </trkpt>
      <trkpt lat="30.930623041308575" lon="113.5545721808906">
        <ele>32.615750380791724</ele>
        <time>2022-10-09T13:03:33Z</time>
      </trkpt>
      <trkpt lat="30.93029375137744" lon="113.55462037712878">
        <ele>30.23062247876078</ele>
        <time>2022-10-09T13:03:51Z</time>
      </trkpt>
      <trkpt lat="30.929995464191474" lon="113.55467313465795">
        <ele>30.928544999100268</ele>
        <time>2022-10-09T13:04:07Z</time>
      </trkpt>
      <trkpt lat="30.92989245270857" lon="113.55469510594986">
        <ele>30.978281183168292</ele>
        <time>2022-10-09T13:04:13Z</time>
      </trkpt>
      <trkpt lat="30.929602214637097" lon="113.5548612712457">
        <ele>30.206322154030204</ele>
        <time>2022-10-09T13:04:30Z</time>
      </trkpt>
      <trkpt lat="30.929325659189065" lon="113.55501198499964">
        <ele>30.605760128237307</ele>
        <time>2022-10-09T13:04:46Z</time>
      </trkpt>
      <trkpt lat="30.929075155357538" lon="113.55525370427213">
        <ele>29.94009158015251</ele>
        <time>2022-10-09T13:05:03Z</time>
      </trkpt>
      <trkpt lat="30.92888058732081" lon="113.55543855088459">
        <ele>29.85938037186861</ele>
        <time>2022-10-09T13:05:16Z</time>
      </trkpt>
      <trkpt lat="30.928825143181488" lon="113.55547042627173">
        <ele>30.886975636705756</ele>
        <time>2022-10-09T13:05:19Z</time>
      </trkpt>
      <trkpt lat="30.928727043630904" lon="113.55557383340744">
        <ele>29.958017953671515</ele>
        <time>2022-10-09T13:05:26Z</time>
      </trkpt>
      <trkpt lat="30.92855412785073" lon="113.55584071871985">
        <ele>30.203098920173943</ele>
        <time>2022-10-09T13:05:41Z</time>
      </trkpt>
      <trkpt lat="30.928443194042433" lon="113.55603432323741">
        <ele>30.161979096010327</ele>
        <time>2022-10-09T13:05:52Z</time>
      </trkpt>
      <trkpt lat="30.928394504957033" lon="113.55621193177812">
        <ele>29.98256387375295</ele>
        <time>2022-10-09T13:06:00Z</time>
      </trkpt>
      <trkpt lat="30.92835224886032" lon="113.55628471655824">
        <ele>30.49860709346831</ele>
        <time>2022-10-09T13:06:04Z</time>
      </trkpt>
      <trkpt lat="30.928277486852057" lon="113.55655327718046">
        <ele>31.76477415766567</ele>
        <time>2022-10-09T13:06:17Z</time>
      </trkpt>
      <trkpt lat="30.928277522212902" lon="113.55660811196003">
        <ele>31.245613197796047</ele>
        <time>2022-10-09T13:06:20Z</time>
      </trkpt>
      <trkpt lat="30.928150423256906" lon="113.5569490355737">
        <ele>31.5713524306193</ele>
        <time>2022-10-09T13:06:37Z</time>
      </trkpt>
      <trkpt lat="30.92807771332581" lon="113.55715010281311">
        <ele>30.679763822816312</ele>
        <time>2022-10-09T13:06:47Z</time>
      </trkpt>
      <trkpt lat="30.92790498664977" lon="113.55745029845463">
        <ele>30.501750553026795</ele>
        <time>2022-10-09T13:07:04Z</time>
      </trkpt>
      <trkpt lat="30.927790505171842" lon="113.5575478087265">
        <ele>30.89933800883591</ele>
        <time>2022-10-09T13:07:12Z</time>
      </trkpt>
      <trkpt lat="30.927672039330407" lon="113.55756022248167">
        <ele>30.024394712410867</ele>
        <time>2022-10-09T13:07:20Z</time>
      </trkpt>
      <trkpt lat="30.927409181438406" lon="113.55744895944146">
        <ele>32.072979245334864</ele>
        <time>2022-10-09T13:07:36Z</time>
      </trkpt>
      <trkpt lat="30.92715337089353" lon="113.55731449492951">
        <ele>32.84080453030765</ele>
        <time>2022-10-09T13:07:52Z</time>
      </trkpt>
      <trkpt lat="30.926921237952026" lon="113.55715012566503">
        <ele>32.005298622883856</ele>
        <time>2022-10-09T13:08:08Z</time>
      </trkpt>
      <trkpt lat="30.926785618894527" lon="113.55707578814628">
        <ele>32.48287218250334</ele>
        <time>2022-10-09T13:08:16Z</time>
      </trkpt>
      <trkpt lat="30.92671732749378" lon="113.5570792800558">
        <ele>32.393879500217736</ele>
        <time>2022-10-09T13:08:20Z</time>
      </trkpt>
      <trkpt lat="30.92670425141359" lon="113.55718611661828">
        <ele>32.37075104750693</ele>
        <time>2022-10-09T13:08:24Z</time>
      </trkpt>
      <trkpt lat="30.926753205593613" lon="113.55749687426857">
        <ele>31.790504534728825</ele>
        <time>2022-10-09T13:08:38Z</time>
      </trkpt>
      <trkpt lat="30.926757610010277" lon="113.5578007093786">
        <ele>32.868642903864384</ele>
        <time>2022-10-09T13:08:53Z</time>
      </trkpt>
      <trkpt lat="30.92672434091229" lon="113.55802551620324">
        <ele>33.1732670981437</ele>
        <time>2022-10-09T13:09:04Z</time>
      </trkpt>
      <trkpt lat="30.92673947708506" lon="113.55808095846561">
        <ele>34.150591753423214</ele>
        <time>2022-10-09T13:09:07Z</time>
      </trkpt>
      <trkpt lat="30.926850364853333" lon="113.55810291308165">
        <ele>33.23329993896186</ele>
        <time>2022-10-09T13:09:13Z</time>
      </trkpt>
      <trkpt lat="30.92698832334875" lon="113.55814059826088">
        <ele>32.49889707285911</ele>
        <time>2022-10-09T13:09:22Z</time>
      </trkpt>
      <trkpt lat="30.927040972475062" lon="113.558134545014">
        <ele>31.931177568621933</ele>
        <time>2022-10-09T13:09:25Z</time>
      </trkpt>
      <trkpt lat="30.927351124440126" lon="113.55826628841211">
        <ele>32.175775659270585</ele>
        <time>2022-10-09T13:09:44Z</time>
      </trkpt>
      <trkpt lat="30.927573537793474" lon="113.55835241209401">
        <ele>33.2850547991693</ele>
        <time>2022-10-09T13:09:57Z</time>
      </trkpt>
      <trkpt lat="30.92787345285653" lon="113.55837310803932">
        <ele>33.208879416808486</ele>
        <time>2022-10-09T13:10:12Z</time>
      </trkpt>
      <trkpt lat="30.928129718951467" lon="113.55832378075287">
        <ele>33.08815713226795</ele>
        <time>2022-10-09T13:10:24Z</time>
      </trkpt>
      <trkpt lat="30.92838968322411" lon="113.55816669927086">
        <ele>31.85378954000771</ele>
        <time>2022-10-09T13:10:38Z</time>
      </trkpt>
      <trkpt lat="30.928524136644654" lon="113.55810760802109">
        <ele>32.43997158482671</ele>
        <time>2022-10-09T13:10:45Z</time>
      </trkpt>
      <trkpt lat="30.928718168933244" lon="113.55785797407339">
        <ele>31.69976340327412</ele>
        <time>2022-10-09T13:11:00Z</time>
      </trkpt>
      <trkpt lat="30.92876752298931" lon="113.55770247760482">
        <ele>31.77806755527854</ele>
        <time>2022-10-09T13:11:08Z</time>
      </trkpt>
      <trkpt lat="30.928768367278415" lon="113.55757734148361">
        <ele>30.415725755505264</ele>
        <time>2022-10-09T13:11:14Z</time>
      </trkpt>
      <trkpt lat="30.928797858637413" lon="113.55750286079228">
        <ele>30.736931139603257</ele>
        <time>2022-10-09T13:11:18Z</time>
      </trkpt>
      <trkpt lat="30.928801813961975" lon="113.55718776160708">
        <ele>29.816208509728312</ele>
        <time>2022-10-09T13:11:34Z</time>
      </trkpt>
      <trkpt lat="30.928828248841565" lon="113.55706885120057">
        <ele>29.548362147063017</ele>
        <time>2022-10-09T13:11:40Z</time>
      </trkpt>
      <trkpt lat="30.928846646402285" lon="113.55680983325078">
        <ele>29.72978970222175</ele>
        <time>2022-10-09T13:11:53Z</time>
      </trkpt>
      <trkpt lat="30.928832263392916" lon="113.55673783796378">
        <ele>30.36731565464288</ele>
        <time>2022-10-09T13:11:56Z</time>
      </trkpt>
      <trkpt lat="30.928949469061294" lon="113.55640229953917">
        <ele>29.00536140333861</ele>
        <time>2022-10-09T13:12:14Z</time>
      </trkpt>
      <trkpt lat="30.929075263978174" lon="113.55614553699024">
        <ele>29.046814343892038</ele>
        <time>2022-10-09T13:12:28Z</time>
      </trkpt>
      <trkpt lat="30.92929017892588" lon="113.5558756420512">
        <ele>28.276847639121115</ele>
        <time>2022-10-09T13:12:46Z</time>
      </trkpt>
      <trkpt lat="30.929582370052035" lon="113.55570276626052">
        <ele>29.570649397559464</ele>
        <time>2022-10-09T13:13:05Z</time>
      </trkpt>
      <trkpt lat="30.929866948530808" lon="113.5555359436409">
        <ele>31.610519407317042</ele>
        <time>2022-10-09T13:13:23Z</time>
      </trkpt>
      <trkpt lat="30.930139087680235" lon="113.5554466703066">
        <ele>31.237120143137872</ele>
        <time>2022-10-09T13:13:39Z</time>
      </trkpt>
      <trkpt lat="30.930265382564595" lon="113.55537759254123">
        <ele>30.65328085515648</ele>
        <time>2022-10-09T13:13:47Z</time>
      </trkpt>
      <trkpt lat="30.93033378019766" lon="113.55536967480906">
        <ele>30.425674891099334</ele>
        <time>2022-10-09T13:13:51Z</time>
      </trkpt>
      <trkpt lat="30.93039385321455" lon="113.55533558854245">
        <ele>30.16890582628548</ele>
        <time>2022-10-09T13:13:55Z</time>
      </trkpt>
      <trkpt lat="30.930530761875367" lon="113.5553140819842">
        <ele>30.617800995707512</ele>
        <time>2022-10-09T13:14:03Z</time>
      </trkpt>
      <trkpt lat="30.93067443245863" lon="113.55532922834162">
        <ele>31.605330415070057</ele>
        <time>2022-10-09T13:14:11Z</time>
      </trkpt>
      <trkpt lat="30.930746282919895" lon="113.55531975465465">
        <ele>30.89190097618848</ele>
        <time>2022-10-09T13:14:15Z</time>
      </trkpt>
      <trkpt lat="30.93087753516545" lon="113.55539567055354">
        <ele>31.468071663752198</ele>
        <time>2022-10-09T13:14:23Z</time>
      </trkpt>
      <trkpt lat="30.931058227901165" lon="113.55563052781483">
        <ele>32.256963956169784</ele>
        <time>2022-10-09T13:14:38Z</time>
      </trkpt>
      <trkpt lat="30.93111197352032" lon="113.55575804513498">
        <ele>32.52082190010697</ele>
        <time>2022-10-09T13:14:45Z</time>
      </trkpt>
      <trkpt lat="30.93121550786768" lon="113.55593132831098">
        <ele>32.602409151382744</ele>
        <time>2022-10-09T13:14:55Z</time>
      </trkpt>
      <trkpt lat="30.931381241033677" lon="113.55623234144724">
        <ele>33.703972509130836</ele>
        <time>2022-10-09T13:15:14Z</time>
      </trkpt>
      <trkpt lat="30.931516561474478" lon="113.55650998438637">
        <ele>32.5036306232214</ele>
        <time>2022-10-09T13:15:30Z</time>
      </trkpt>
      <trkpt lat="30.931699476415325" lon="113.55679479452112">
        <ele>33.800110671669245</ele>
        <time>2022-10-09T13:15:48Z</time>
      </trkpt>
      <trkpt lat="30.931736804663938" lon="113.55683362072415">
        <ele>33.677057542838156</ele>
        <time>2022-10-09T13:15:51Z</time>
      </trkpt>
      <trkpt lat="30.93189364239162" lon="113.55711978451885">
        <ele>33.20811725407839</ele>
        <time>2022-10-09T13:16:09Z</time>
      </trkpt>
      <trkpt lat="30.932088256304983" lon="113.55738716921914">
        <ele>35.27011066861451</ele>
        <time>2022-10-09T13:16:27Z</time>
      </trkpt>
      <trkpt lat="30.932254116256505" lon="113.55757968412775">
        <ele>34.60912133101374</ele>
        <time>2022-10-09T13:16:42Z</time>
      </trkpt>
      <trkpt lat="30.9323496061532" lon="113.55764829602842">
        <ele>34.37411687336862</ele>
        <time>2022-10-09T13:16:49Z</time>
      </trkpt>
      <trkpt lat="30.93248201097012" lon="113.55779037947806">
        <ele>32.97664675489068</ele>
        <time>2022-10-09T13:17:00Z</time>
      </trkpt>
      <trkpt lat="30.93267833892921" lon="113.55789581377137">
        <ele>33.379047309979796</ele>
        <time>2022-10-09T13:17:12Z</time>
      </trkpt>
      <trkpt lat="30.93285919694852" lon="113.55794697144641">
        <ele>31.603282573632896</ele>
        <time>2022-10-09T13:17:23Z</time>
      </trkpt>
      <trkpt lat="30.933147980595503" lon="113.55806664427699">
        <ele>30.784262250177562</ele>
        <time>2022-10-09T13:17:42Z</time>
      </trkpt>
      <trkpt lat="30.933453196868054" lon="113.55814995175128">
        <ele>30.771742562763393</ele>
        <time>2022-10-09T13:18:02Z</time>
      </trkpt>
      <trkpt lat="30.93375492846494" lon="113.55822318010605">
        <ele>33.045736737549305</ele>
        <time>2022-10-09T13:18:21Z</time>
      </trkpt>
      <trkpt lat="30.933869471493303" lon="113.5582262455529">
        <ele>32.97206163406372</ele>
        <time>2022-10-09T13:18:28Z</time>
      </trkpt>
      <trkpt lat="30.933934238483218" lon="113.5582498311965">
        <ele>33.51245514396578</ele>
        <time>2022-10-09T13:18:32Z</time>
      </trkpt>
      <trkpt lat="30.934058732539487" lon="113.55825452819214">
        <ele>32.90845391433686</ele>
        <time>2022-10-09T13:18:39Z</time>
      </trkpt>
      <trkpt lat="30.934337033264775" lon="113.55835297875875">
        <ele>34.41104575805366</ele>
        <time>2022-10-09T13:18:57Z</time>
      </trkpt>
      <trkpt lat="30.934507585515764" lon="113.55834716442388">
        <ele>34.16732572391629</ele>
        <time>2022-10-09T13:19:08Z</time>
      </trkpt>
      <trkpt lat="30.934628076881598" lon="113.55837447601975">
        <ele>33.85183224454522</ele>
        <time>2022-10-09T13:19:15Z</time>
      </trkpt>
      <trkpt lat="30.934694971209048" lon="113.55836483310625">
        <ele>34.18130724411458</ele>
        <time>2022-10-09T13:19:19Z</time>
      </trkpt>
      <trkpt lat="30.934804172412296" lon="113.55839685598859">
        <ele>34.29805595893413</ele>
        <time>2022-10-09T13:19:26Z</time>
      </trkpt>
      <trkpt lat="30.935035730045247" lon="113.55832278607585">
        <ele>33.00666684098542</ele>
        <time>2022-10-09T13:19:41Z</time>
      </trkpt>
      <trkpt lat="30.935327884957935" lon="113.55835216451678">
        <ele>33.247169617563486</ele>
        <time>2022-10-09T13:20:00Z</time>
      </trkpt>
      <trkpt lat="30.935601523150144" lon="113.55830163997163">
        <ele>33.47506778500974</ele>
        <time>2022-10-09T13:20:16Z</time>
      </trkpt>
      <trkpt lat="30.935806629498334" lon="113.55819559310886">
        <ele>32.20596279762685</ele>
        <time>2022-10-09T13:20:30Z</time>
      </trkpt>
      <trkpt lat="30.93603573223225" lon="113.55793600424185">
        <ele>30.71668046526611</ele>
        <time>2022-10-09T13:20:49Z</time>
      </trkpt>
      <trkpt lat="30.936180690837563" lon="113.55782228958">
        <ele>31.62052485346794</ele>
        <time>2022-10-09T13:21:00Z</time>
      </trkpt>
      <trkpt lat="30.93626345609633" lon="113.55770758118182">
        <ele>30.562019078992307</ele>
        <time>2022-10-09T13:21:08Z</time>
      </trkpt>
      <trkpt lat="30.93637175915255" lon="113.55762272867129">
        <ele>30.95755876787007</ele>
        <time>2022-10-09T13:21:16Z</time>
      </trkpt>
      <trkpt lat="30.936481470001308" lon="113.5575908556347">
        <ele>33.22126456908882</ele>
        <time>2022-10-09T13:21:24Z</time>
      </trkpt>
      <trkpt lat="30.936692797659436" lon="113.55739491783552">
        <ele>33.02750661317259</ele>
        <time>2022-10-09T13:21:40Z</time>
      </trkpt>
      <trkpt lat="30.936927805945817" lon="113.55713565283901">
        <ele>31.055897709913552</ele>
        <time>2022-10-09T13:21:59Z</time>
      </trkpt>
      <trkpt lat="30.93702356368198" lon="113.55702812160214">
        <ele>31.52005650755018</ele>
        <time>2022-10-09T13:22:07Z</time>
      </trkpt>
      <trkpt lat="30.937130371381798" lon="113.55680618574642">
        <ele>31.281901329755783</ele>
        <time>2022-10-09T13:22:19Z</time>
      </trkpt>
      <trkpt lat="30.937216183943832" lon="113.5564748017344">
        <ele>31.974227629601955</ele>
        <time>2022-10-09T13:22:35Z</time>
      </trkpt>
      <trkpt lat="30.937239882775316" lon="113.55632046976459">
        <ele>32.64054551534355</ele>
        <time>2022-10-09T13:22:43Z</time>
      </trkpt>
      <trkpt lat="30.937197543260613" lon="113.55598022414077">
        <ele>33.15514240041375</ele>
        <time>2022-10-09T13:23:02Z</time>
      </trkpt>
      <trkpt lat="30.93716228574279" lon="113.55576218185209">
        <ele>33.383967130444944</ele>
        <time>2022-10-09T13:23:14Z</time>
      </trkpt>
      <trkpt lat="30.937137716631206" lon="113.55569779109281">
        <ele>33.374092852696776</ele>
        <time>2022-10-09T13:23:18Z</time>
      </trkpt>
      <trkpt lat="30.93714115351558" lon="113.55563949575625">
        <ele>33.9758890485391</ele>
        <time>2022-10-09T13:23:21Z</time>
      </trkpt>
      <trkpt lat="30.93709423294642" lon="113.55549203474291">
        <ele>34.14887890871614</ele>
        <time>2022-10-09T13:23:29Z</time>
      </trkpt>
      <trkpt lat="30.937127682089034" lon="113.5554084532876">
        <ele>31.114504244178534</ele>
        <time>2022-10-09T13:23:37Z</time>
      </trkpt>
      <trkpt lat="30.9372656431595" lon="113.55546026445954">
        <ele>32.663806181401014</ele>
        <time>2022-10-09T13:23:45Z</time>
      </trkpt>
      <trkpt lat="30.93745839925487" lon="113.55546288774843">
        <ele>31.825751111842692</ele>
        <time>2022-10-09T13:23:57Z</time>
      </trkpt>
      <trkpt lat="30.937534632337023" lon="113.5555167725815">
        <ele>31.547392441891134</ele>
        <time>2022-10-09T13:24:03Z</time>
      </trkpt>
      <trkpt lat="30.937483836300608" lon="113.55552421294223">
        <ele>33.53342008776963</ele>
        <time>2022-10-09T13:24:09Z</time>
      </trkpt>
      <trkpt lat="30.937296328984942" lon="113.55548860835128">
        <ele>33.79372261557728</ele>
        <time>2022-10-09T13:24:23Z</time>
      </trkpt>
      <trkpt lat="30.93723981312557" lon="113.55558252995561">
        <ele>33.50057446490973</ele>
        <time>2022-10-09T13:24:30Z</time>
      </trkpt>
      <trkpt lat="30.937226473050053" lon="113.55566451841854">
        <ele>33.79560082964599</ele>
        <time>2022-10-09T13:24:34Z</time>
      </trkpt>
      <trkpt lat="30.937307749972877" lon="113.5559760696906">
        <ele>34.445117723196745</ele>
        <time>2022-10-09T13:24:49Z</time>
      </trkpt>
      <trkpt lat="30.937379831853" lon="113.55627851588281">
        <ele>34.52315078582615</ele>
        <time>2022-10-09T13:25:04Z</time>
      </trkpt>
      <trkpt lat="30.937386817392905" lon="113.55653560863065">
        <ele>33.42553018312901</ele>
        <time>2022-10-09T13:25:16Z</time>
      </trkpt>
      <trkpt lat="30.937366903603333" lon="113.55667310964367">
        <ele>33.49430308956653</ele>
        <time>2022-10-09T13:25:23Z</time>
      </trkpt>
      <trkpt lat="30.937317345217476" lon="113.55684632277838">
        <ele>34.02823572419584</ele>
        <time>2022-10-09T13:25:31Z</time>
      </trkpt>
      <trkpt lat="30.937167516422228" lon="113.55712160372993">
        <ele>33.93509583361447</ele>
        <time>2022-10-09T13:25:47Z</time>
      </trkpt>
      <trkpt lat="30.937118226497876" lon="113.55718840640006">
        <ele>34.75211819820106</ele>
        <time>2022-10-09T13:25:51Z</time>
      </trkpt>
      <trkpt lat="30.93708800752437" lon="113.55732842523754">
        <ele>34.8727867519483</ele>
        <time>2022-10-09T13:25:58Z</time>
      </trkpt>
      <trkpt lat="30.93709101507984" lon="113.55747879909555">
        <ele>34.91062622424215</ele>
        <time>2022-10-09T13:26:05Z</time>
      </trkpt>
      <trkpt lat="30.93707700818209" lon="113.5576228434804">
        <ele>35.29641566704959</ele>
        <time>2022-10-09T13:26:12Z</time>
      </trkpt>
      <trkpt lat="30.93711315973353" lon="113.55771520472743">
        <ele>35.51490616146475</ele>
        <time>2022-10-09T13:26:16Z</time>
      </trkpt>
      <trkpt lat="30.93716519009279" lon="113.55777207858108">
        <ele>35.511505289934576</ele>
        <time>2022-10-09T13:26:20Z</time>
      </trkpt>
      <trkpt lat="30.937320799980647" lon="113.55777353299221">
        <ele>34.86230211798102</ele>
        <time>2022-10-09T13:26:28Z</time>
      </trkpt>
      <trkpt lat="30.937398144853457" lon="113.55779848495844">
        <ele>34.37977433297783</ele>
        <time>2022-10-09T13:26:32Z</time>
      </trkpt>
      <trkpt lat="30.9374591836648" lon="113.55777365946713">
        <ele>32.83284273836762</ele>
        <time>2022-10-09T13:26:36Z</time>
      </trkpt>
      <trkpt lat="30.93749701155318" lon="113.5574533969768">
        <ele>34.2768215443939</ele>
        <time>2022-10-09T13:26:48Z</time>
      </trkpt>
      <trkpt lat="30.937566314165494" lon="113.5571189464609">
        <ele>33.277136543765664</ele>
        <time>2022-10-09T13:27:08Z</time>
      </trkpt>
      <trkpt lat="30.93753028220796" lon="113.55695402050563">
        <ele>32.83468286599964</ele>
        <time>2022-10-09T13:27:16Z</time>
      </trkpt>
      <trkpt lat="30.937427773399726" lon="113.55688870731491">
        <ele>33.22029923833907</ele>
        <time>2022-10-09T13:27:20Z</time>
      </trkpt>
      <trkpt lat="30.937431125478078" lon="113.55682433468739">
        <ele>32.75010066665709</ele>
        <time>2022-10-09T13:27:24Z</time>
      </trkpt>
      <trkpt lat="30.937414440187982" lon="113.55677096864991">
        <ele>32.55151030421257</ele>
        <time>2022-10-09T13:27:28Z</time>
      </trkpt>
      <trkpt lat="30.937445529547194" lon="113.55672782996058">
        <ele>32.61433996539563</ele>
        <time>2022-10-09T13:27:32Z</time>
      </trkpt>
      <trkpt lat="30.937522533814874" lon="113.55647245118055">
        <ele>32.57492236047983</ele>
        <time>2022-10-09T13:27:44Z</time>
      </trkpt>
      <trkpt lat="30.937535901272465" lon="113.55637993278522">
        <ele>32.66303424630314</ele>
        <time>2022-10-09T13:27:48Z</time>
      </trkpt>
      <trkpt lat="30.937505546950643" lon="113.55623474177727">
        <ele>33.66941459290683</ele>
        <time>2022-10-09T13:27:56Z</time>
      </trkpt>
      <trkpt lat="30.93758036260921" lon="113.55606557854814">
        <ele>30.95966489240527</ele>
        <time>2022-10-09T13:28:07Z</time>
      </trkpt>
      <trkpt lat="30.937610906760977" lon="113.5561463322654">
        <ele>30.589764789678156</ele>
        <time>2022-10-09T13:28:11Z</time>
      </trkpt>
      <trkpt lat="30.937589102184482" lon="113.55631815034951">
        <ele>32.905123855918646</ele>
        <time>2022-10-09T13:28:19Z</time>
      </trkpt>
      <trkpt lat="30.937580968229092" lon="113.5564720125823">
        <ele>33.071332042105496</ele>
        <time>2022-10-09T13:28:31Z</time>
      </trkpt>
      <trkpt lat="30.937601278642894" lon="113.55665591028573">
        <ele>32.87083984259516</ele>
        <time>2022-10-09T13:28:47Z</time>
      </trkpt>
      <trkpt lat="30.937581732535072" lon="113.55670469654376">
        <ele>32.717701280489564</ele>
        <time>2022-10-09T13:28:51Z</time>
      </trkpt>
      <trkpt lat="30.937573266652834" lon="113.5568061723167">
        <ele>34.03574911970645</ele>
        <time>2022-10-09T13:28:59Z</time>
      </trkpt>
      <trkpt lat="30.937573266652834" lon="113.5568061723167">
        <ele>34.03574911970645</ele>
        <time>2022-10-09T13:29:03Z</time>
      </trkpt>
    </trkseg>
  </trk>
</gpx>