<?xml version="1.0" encoding="UTF-8"?>
<gpx xmlns="http://www.topografix.com/GPX/1/1" xmlns:gpxtpx="http://www.garmin.com/xmlschemas/TrackPointExtension/v1" xmlns:xsi="http://www.w3.org/2001/XMLSchema-instance" xsi:schemaLocation="http://www.topografix.com/GPX/1/1 http://www.topografix.com/GPX/1/1/gpx.xsd" version="1.1" creator="gpx.py -- https://github.com/tkrajina/gpxpy">
  <trk>
    <name>gpx from keep</name>
    <type>Run</type>
    <trkseg>
      <trkpt lat="30.937623356107913" lon="113.5565281944094">
        <ele>35.05294452700764</ele>
        <time>2022-10-10T12:59:12Z</time>
      </trkpt>
      <trkpt lat="30.937657910696732" lon="113.55632223411136">
        <ele>34.24081071186811</ele>
        <time>2022-10-10T12:59:24Z</time>
      </trkpt>
      <trkpt lat="30.93765234576031" lon="113.55613174245573">
        <ele>32.38050402794033</ele>
        <time>2022-10-10T12:59:32Z</time>
      </trkpt>
      <trkpt lat="30.937663350260994" lon="113.55605209500587">
        <ele>32.042206367477775</ele>
        <time>2022-10-10T12:59:36Z</time>
      </trkpt>
      <trkpt lat="30.937792408803645" lon="113.55592713403946">
        <ele>31.300748631358147</ele>
        <time>2022-10-10T12:59:44Z</time>
      </trkpt>
      <trkpt lat="30.937783048354312" lon="113.5558506109485">
        <ele>31.193849596194923</ele>
        <time>2022-10-10T12:59:48Z</time>
      </trkpt>
      <trkpt lat="30.93772114253621" lon="113.55568091485914">
        <ele>31.658745478838682</ele>
        <time>2022-10-10T12:59:56Z</time>
      </trkpt>
      <trkpt lat="30.937543556050024" lon="113.55541631802532">
        <ele>31.099244605749846</ele>
        <time>2022-10-10T13:00:12Z</time>
      </trkpt>
      <trkpt lat="30.937280346160982" lon="113.55532011505703">
        <ele>31.967195006087422</ele>
        <time>2022-10-10T13:00:24Z</time>
      </trkpt>
      <trkpt lat="30.93711938516059" lon="113.55531348012066">
        <ele>32.21889971289784</ele>
        <time>2022-10-10T13:00:32Z</time>
      </trkpt>
      <trkpt lat="30.93704524694674" lon="113.55532950095994">
        <ele>32.088852484710515</ele>
        <time>2022-10-10T13:00:36Z</time>
      </trkpt>
      <trkpt lat="30.93692697367257" lon="113.5553045499905">
        <ele>32.04744363203645</ele>
        <time>2022-10-10T13:00:43Z</time>
      </trkpt>
      <trkpt lat="30.93688347916986" lon="113.55527528223517">
        <ele>31.13486900832504</ele>
        <time>2022-10-10T13:00:46Z</time>
      </trkpt>
      <trkpt lat="30.9368683824301" lon="113.55521741093561">
        <ele>30.73101103119552</ele>
        <time>2022-10-10T13:00:49Z</time>
      </trkpt>
      <trkpt lat="30.93677215559802" lon="113.5550639995641">
        <ele>30.7773803062737</ele>
        <time>2022-10-10T13:00:59Z</time>
      </trkpt>
      <trkpt lat="30.936723042359255" lon="113.55501341194766">
        <ele>31.594380101189017</ele>
        <time>2022-10-10T13:01:03Z</time>
      </trkpt>
      <trkpt lat="30.936664362711223" lon="113.5548394337851">
        <ele>31.415790599770844</ele>
        <time>2022-10-10T13:01:13Z</time>
      </trkpt>
      <trkpt lat="30.93660039923038" lon="113.55475636434656">
        <ele>32.319988053292036</ele>
        <time>2022-10-10T13:01:19Z</time>
      </trkpt>
      <trkpt lat="30.936598969806056" lon="113.55469639120359">
        <ele>31.741496925242245</ele>
        <time>2022-10-10T13:01:22Z</time>
      </trkpt>
      <trkpt lat="30.936529974815674" lon="113.55455670780314">
        <ele>32.01799981575459</ele>
        <time>2022-10-10T13:01:31Z</time>
      </trkpt>
      <trkpt lat="30.93645776285765" lon="113.55448029299744">
        <ele>31.86485644057393</ele>
        <time>2022-10-10T13:01:37Z</time>
      </trkpt>
      <trkpt lat="30.936279772611407" lon="113.55416769004273">
        <ele>30.785864592529833</ele>
        <time>2022-10-10T13:01:52Z</time>
      </trkpt>
      <trkpt lat="30.936258794852726" lon="113.55410403663855">
        <ele>31.269193612970412</ele>
        <time>2022-10-10T13:01:55Z</time>
      </trkpt>
      <trkpt lat="30.936163337366796" lon="113.55393053491437">
        <ele>29.791027701459825</ele>
        <time>2022-10-10T13:02:04Z</time>
      </trkpt>
      <trkpt lat="30.93616384540609" lon="113.55386503182258">
        <ele>30.998312189243734</ele>
        <time>2022-10-10T13:02:07Z</time>
      </trkpt>
      <trkpt lat="30.93605975443114" lon="113.5536908869225">
        <ele>31.843086558394134</ele>
        <time>2022-10-10T13:02:19Z</time>
      </trkpt>
      <trkpt lat="30.93593360180534" lon="113.55356983287598">
        <ele>30.629922536201775</ele>
        <time>2022-10-10T13:02:28Z</time>
      </trkpt>
      <trkpt lat="30.935912288670824" lon="113.55351546834666">
        <ele>30.864714719355106</ele>
        <time>2022-10-10T13:02:31Z</time>
      </trkpt>
      <trkpt lat="30.935728067789594" lon="113.55323708373564">
        <ele>30.472378400154412</ele>
        <time>2022-10-10T13:02:49Z</time>
      </trkpt>
      <trkpt lat="30.935590884154927" lon="113.55295740742257">
        <ele>31.58482272271067</ele>
        <time>2022-10-10T13:03:07Z</time>
        <extensions>
          <gpxtpx:TrackPointExtension>
            <gpxtpx:hr>142</gpxtpx:hr>
          </gpxtpx:TrackPointExtension>
        </extensions>
      </trkpt>
      <trkpt lat="30.935502406385762" lon="113.55279837692717">
        <ele>31.732841565273702</ele>
        <time>2022-10-10T13:03:17Z</time>
        <extensions>
          <gpxtpx:TrackPointExtension>
            <gpxtpx:hr>147</gpxtpx:hr>
          </gpxtpx:TrackPointExtension>
        </extensions>
      </trkpt>
      <trkpt lat="30.935459077862774" lon="113.55275712702671">
        <ele>31.167884250171483</ele>
        <time>2022-10-10T13:03:20Z</time>
        <extensions>
          <gpxtpx:TrackPointExtension>
            <gpxtpx:hr>147</gpxtpx:hr>
          </gpxtpx:TrackPointExtension>
        </extensions>
      </trkpt>
      <trkpt lat="30.935427403601704" lon="113.55262487851817">
        <ele>30.938034830614924</ele>
        <time>2022-10-10T13:03:27Z</time>
        <extensions>
          <gpxtpx:TrackPointExtension>
            <gpxtpx:hr>147</gpxtpx:hr>
          </gpxtpx:TrackPointExtension>
        </extensions>
      </trkpt>
      <trkpt lat="30.935281838867713" lon="113.55232935571294">
        <ele>31.090749136172235</ele>
        <time>2022-10-10T13:03:45Z</time>
        <extensions>
          <gpxtpx:TrackPointExtension>
            <gpxtpx:hr>142</gpxtpx:hr>
          </gpxtpx:TrackPointExtension>
        </extensions>
      </trkpt>
      <trkpt lat="30.935146466189476" lon="113.55203324404798">
        <ele>31.000197930261493</ele>
        <time>2022-10-10T13:04:03Z</time>
        <extensions>
          <gpxtpx:TrackPointExtension>
            <gpxtpx:hr>141</gpxtpx:hr>
          </gpxtpx:TrackPointExtension>
        </extensions>
      </trkpt>
      <trkpt lat="30.93507591326372" lon="113.55186295354777">
        <ele>31.077962823212147</ele>
        <time>2022-10-10T13:04:12Z</time>
        <extensions>
          <gpxtpx:TrackPointExtension>
            <gpxtpx:hr>143</gpxtpx:hr>
          </gpxtpx:TrackPointExtension>
        </extensions>
      </trkpt>
      <trkpt lat="30.935048161856955" lon="113.55181810761984">
        <ele>31.12225775513798</ele>
        <time>2022-10-10T13:04:15Z</time>
        <extensions>
          <gpxtpx:TrackPointExtension>
            <gpxtpx:hr>143</gpxtpx:hr>
          </gpxtpx:TrackPointExtension>
        </extensions>
      </trkpt>
      <trkpt lat="30.935015351624145" lon="113.55146915513484">
        <ele>30.28187942598015</ele>
        <time>2022-10-10T13:04:27Z</time>
        <extensions>
          <gpxtpx:TrackPointExtension>
            <gpxtpx:hr>151</gpxtpx:hr>
          </gpxtpx:TrackPointExtension>
        </extensions>
      </trkpt>
      <trkpt lat="30.93506956577694" lon="113.55129295262404">
        <ele>29.49434227589518</ele>
        <time>2022-10-10T13:04:33Z</time>
        <extensions>
          <gpxtpx:TrackPointExtension>
            <gpxtpx:hr>153</gpxtpx:hr>
          </gpxtpx:TrackPointExtension>
        </extensions>
      </trkpt>
      <trkpt lat="30.935277582308707" lon="113.5510391712735">
        <ele>31.68946250528097</ele>
        <time>2022-10-10T13:04:45Z</time>
        <extensions>
          <gpxtpx:TrackPointExtension>
            <gpxtpx:hr>157</gpxtpx:hr>
          </gpxtpx:TrackPointExtension>
        </extensions>
      </trkpt>
      <trkpt lat="30.935296590235595" lon="113.55099001892059">
        <ele>30.961009209044278</ele>
        <time>2022-10-10T13:04:48Z</time>
        <extensions>
          <gpxtpx:TrackPointExtension>
            <gpxtpx:hr>157</gpxtpx:hr>
          </gpxtpx:TrackPointExtension>
        </extensions>
      </trkpt>
      <trkpt lat="30.935433929580668" lon="113.55079690856327">
        <ele>30.202260738238692</ele>
        <time>2022-10-10T13:05:03Z</time>
        <extensions>
          <gpxtpx:TrackPointExtension>
            <gpxtpx:hr>154</gpxtpx:hr>
          </gpxtpx:TrackPointExtension>
        </extensions>
      </trkpt>
      <trkpt lat="30.935376301538593" lon="113.5507353816911">
        <ele>31.018186044879258</ele>
        <time>2022-10-10T13:05:09Z</time>
        <extensions>
          <gpxtpx:TrackPointExtension>
            <gpxtpx:hr>153</gpxtpx:hr>
          </gpxtpx:TrackPointExtension>
        </extensions>
      </trkpt>
      <trkpt lat="30.93523379048205" lon="113.55069813108797">
        <ele>31.341856870800257</ele>
        <time>2022-10-10T13:05:22Z</time>
        <extensions>
          <gpxtpx:TrackPointExtension>
            <gpxtpx:hr>144</gpxtpx:hr>
          </gpxtpx:TrackPointExtension>
        </extensions>
      </trkpt>
      <trkpt lat="30.934961892318487" lon="113.55072869957974">
        <ele>30.125403749756515</ele>
        <time>2022-10-10T13:05:46Z</time>
        <extensions>
          <gpxtpx:TrackPointExtension>
            <gpxtpx:hr>134</gpxtpx:hr>
          </gpxtpx:TrackPointExtension>
        </extensions>
      </trkpt>
      <trkpt lat="30.93466250848458" lon="113.55071139719345">
        <ele>30.811682857573032</ele>
        <time>2022-10-10T13:06:10Z</time>
        <extensions>
          <gpxtpx:TrackPointExtension>
            <gpxtpx:hr>129</gpxtpx:hr>
          </gpxtpx:TrackPointExtension>
        </extensions>
      </trkpt>
      <trkpt lat="30.934464063791207" lon="113.55076219435121">
        <ele>31.166903119534254</ele>
        <time>2022-10-10T13:06:25Z</time>
        <extensions>
          <gpxtpx:TrackPointExtension>
            <gpxtpx:hr>127</gpxtpx:hr>
          </gpxtpx:TrackPointExtension>
        </extensions>
      </trkpt>
      <trkpt lat="30.934425448526685" lon="113.55084872056634">
        <ele>31.23755547311157</ele>
        <time>2022-10-10T13:06:31Z</time>
        <extensions>
          <gpxtpx:TrackPointExtension>
            <gpxtpx:hr>127</gpxtpx:hr>
          </gpxtpx:TrackPointExtension>
        </extensions>
      </trkpt>
      <trkpt lat="30.93434332146282" lon="113.55115269066596">
        <ele>31.450412610545754</ele>
        <time>2022-10-10T13:06:46Z</time>
        <extensions>
          <gpxtpx:TrackPointExtension>
            <gpxtpx:hr>133</gpxtpx:hr>
          </gpxtpx:TrackPointExtension>
        </extensions>
      </trkpt>
      <trkpt lat="30.934300163410168" lon="113.55126184759261">
        <ele>31.113557712174952</ele>
        <time>2022-10-10T13:06:52Z</time>
        <extensions>
          <gpxtpx:TrackPointExtension>
            <gpxtpx:hr>136</gpxtpx:hr>
          </gpxtpx:TrackPointExtension>
        </extensions>
      </trkpt>
      <trkpt lat="30.934247604088053" lon="113.55156153955568">
        <ele>32.104626167565584</ele>
        <time>2022-10-10T13:07:07Z</time>
        <extensions>
          <gpxtpx:TrackPointExtension>
            <gpxtpx:hr>136</gpxtpx:hr>
          </gpxtpx:TrackPointExtension>
        </extensions>
      </trkpt>
      <trkpt lat="30.93427194736861" lon="113.55188028311684">
        <ele>31.957966025918722</ele>
        <time>2022-10-10T13:07:22Z</time>
        <extensions>
          <gpxtpx:TrackPointExtension>
            <gpxtpx:hr>142</gpxtpx:hr>
          </gpxtpx:TrackPointExtension>
        </extensions>
      </trkpt>
      <trkpt lat="30.93432761602043" lon="113.55211148735725">
        <ele>31.45960721001029</ele>
        <time>2022-10-10T13:07:33Z</time>
        <extensions>
          <gpxtpx:TrackPointExtension>
            <gpxtpx:hr>144</gpxtpx:hr>
          </gpxtpx:TrackPointExtension>
        </extensions>
      </trkpt>
      <trkpt lat="30.93446132001105" lon="113.55242904344638">
        <ele>32.87550441827625</ele>
        <time>2022-10-10T13:07:52Z</time>
        <extensions>
          <gpxtpx:TrackPointExtension>
            <gpxtpx:hr>142</gpxtpx:hr>
          </gpxtpx:TrackPointExtension>
        </extensions>
      </trkpt>
      <trkpt lat="30.934580766839655" lon="113.55274511889513">
        <ele>33.03154638316482</ele>
        <time>2022-10-10T13:08:11Z</time>
        <extensions>
          <gpxtpx:TrackPointExtension>
            <gpxtpx:hr>143</gpxtpx:hr>
          </gpxtpx:TrackPointExtension>
        </extensions>
      </trkpt>
      <trkpt lat="30.934676035651655" lon="113.55301708831861">
        <ele>32.82976173236966</ele>
        <time>2022-10-10T13:08:26Z</time>
        <extensions>
          <gpxtpx:TrackPointExtension>
            <gpxtpx:hr>141</gpxtpx:hr>
          </gpxtpx:TrackPointExtension>
        </extensions>
      </trkpt>
      <trkpt lat="30.93471339352206" lon="113.55305140256729">
        <ele>32.657236016355455</ele>
        <time>2022-10-10T13:08:29Z</time>
        <extensions>
          <gpxtpx:TrackPointExtension>
            <gpxtpx:hr>141</gpxtpx:hr>
          </gpxtpx:TrackPointExtension>
        </extensions>
      </trkpt>
      <trkpt lat="30.934882816238847" lon="113.55337226972927">
        <ele>32.494991888292134</ele>
        <time>2022-10-10T13:08:50Z</time>
        <extensions>
          <gpxtpx:TrackPointExtension>
            <gpxtpx:hr>141</gpxtpx:hr>
          </gpxtpx:TrackPointExtension>
        </extensions>
      </trkpt>
      <trkpt lat="30.935018347526277" lon="113.55364250497851">
        <ele>32.93057440407574</ele>
        <time>2022-10-10T13:09:08Z</time>
        <extensions>
          <gpxtpx:TrackPointExtension>
            <gpxtpx:hr>138</gpxtpx:hr>
          </gpxtpx:TrackPointExtension>
        </extensions>
      </trkpt>
      <trkpt lat="30.93520916918707" lon="113.55393267201984">
        <ele>30.94458843767643</ele>
        <time>2022-10-10T13:09:29Z</time>
        <extensions>
          <gpxtpx:TrackPointExtension>
            <gpxtpx:hr>140</gpxtpx:hr>
          </gpxtpx:TrackPointExtension>
        </extensions>
      </trkpt>
      <trkpt lat="30.935315846089715" lon="113.55408600293755">
        <ele>31.30911205522716</ele>
        <time>2022-10-10T13:09:40Z</time>
        <extensions>
          <gpxtpx:TrackPointExtension>
            <gpxtpx:hr>139</gpxtpx:hr>
          </gpxtpx:TrackPointExtension>
        </extensions>
      </trkpt>
      <trkpt lat="30.935358598496965" lon="113.55418539903646">
        <ele>30.835493290796876</ele>
        <time>2022-10-10T13:09:46Z</time>
        <extensions>
          <gpxtpx:TrackPointExtension>
            <gpxtpx:hr>134</gpxtpx:hr>
          </gpxtpx:TrackPointExtension>
        </extensions>
      </trkpt>
      <trkpt lat="30.935510314741034" lon="113.55443502363138">
        <ele>30.60521545447409</ele>
        <time>2022-10-10T13:10:04Z</time>
        <extensions>
          <gpxtpx:TrackPointExtension>
            <gpxtpx:hr>137</gpxtpx:hr>
          </gpxtpx:TrackPointExtension>
        </extensions>
      </trkpt>
      <trkpt lat="30.93554306733373" lon="113.55453108991433">
        <ele>30.91034757066518</ele>
        <time>2022-10-10T13:10:10Z</time>
        <extensions>
          <gpxtpx:TrackPointExtension>
            <gpxtpx:hr>135</gpxtpx:hr>
          </gpxtpx:TrackPointExtension>
        </extensions>
      </trkpt>
      <trkpt lat="30.93568095995104" lon="113.55471529043635">
        <ele>31.858594461344182</ele>
        <time>2022-10-10T13:10:25Z</time>
        <extensions>
          <gpxtpx:TrackPointExtension>
            <gpxtpx:hr>136</gpxtpx:hr>
          </gpxtpx:TrackPointExtension>
        </extensions>
      </trkpt>
      <trkpt lat="30.935789274744998" lon="113.55496143464364">
        <ele>31.39081387873739</ele>
        <time>2022-10-10T13:10:37Z</time>
        <extensions>
          <gpxtpx:TrackPointExtension>
            <gpxtpx:hr>141</gpxtpx:hr>
          </gpxtpx:TrackPointExtension>
        </extensions>
      </trkpt>
      <trkpt lat="30.935896534535054" lon="113.55513687388854">
        <ele>31.096421063877642</ele>
        <time>2022-10-10T13:10:46Z</time>
        <extensions>
          <gpxtpx:TrackPointExtension>
            <gpxtpx:hr>146</gpxtpx:hr>
          </gpxtpx:TrackPointExtension>
        </extensions>
      </trkpt>
      <trkpt lat="30.935924805471796" lon="113.55521166352614">
        <ele>31.263846312649548</ele>
        <time>2022-10-10T13:10:49Z</time>
        <extensions>
          <gpxtpx:TrackPointExtension>
            <gpxtpx:hr>146</gpxtpx:hr>
          </gpxtpx:TrackPointExtension>
        </extensions>
      </trkpt>
      <trkpt lat="30.936092260514762" lon="113.55546009941638">
        <ele>29.919462389312685</ele>
        <time>2022-10-10T13:11:01Z</time>
        <extensions>
          <gpxtpx:TrackPointExtension>
            <gpxtpx:hr>149</gpxtpx:hr>
          </gpxtpx:TrackPointExtension>
        </extensions>
      </trkpt>
      <trkpt lat="30.936141948600298" lon="113.55551533498499">
        <ele>32.31258692126721</ele>
        <time>2022-10-10T13:11:04Z</time>
        <extensions>
          <gpxtpx:TrackPointExtension>
            <gpxtpx:hr>148</gpxtpx:hr>
          </gpxtpx:TrackPointExtension>
        </extensions>
      </trkpt>
      <trkpt lat="30.93622742092438" lon="113.55573412924707">
        <ele>31.866432424634695</ele>
        <time>2022-10-10T13:11:13Z</time>
        <extensions>
          <gpxtpx:TrackPointExtension>
            <gpxtpx:hr>148</gpxtpx:hr>
          </gpxtpx:TrackPointExtension>
        </extensions>
      </trkpt>
      <trkpt lat="30.936364467424738" lon="113.55604279975314">
        <ele>30.716485928744078</ele>
        <time>2022-10-10T13:11:34Z</time>
        <extensions>
          <gpxtpx:TrackPointExtension>
            <gpxtpx:hr>144</gpxtpx:hr>
          </gpxtpx:TrackPointExtension>
        </extensions>
      </trkpt>
      <trkpt lat="30.936390704717876" lon="113.55640643596328">
        <ele>30.63763718586415</ele>
        <time>2022-10-10T13:11:57Z</time>
        <extensions>
          <gpxtpx:TrackPointExtension>
            <gpxtpx:hr>138</gpxtpx:hr>
          </gpxtpx:TrackPointExtension>
        </extensions>
      </trkpt>
      <trkpt lat="30.936321083855958" lon="113.55672626505432">
        <ele>30.052473477087915</ele>
        <time>2022-10-10T13:12:17Z</time>
        <extensions>
          <gpxtpx:TrackPointExtension>
            <gpxtpx:hr>138</gpxtpx:hr>
          </gpxtpx:TrackPointExtension>
        </extensions>
      </trkpt>
      <trkpt lat="30.936131542736316" lon="113.55696850342913">
        <ele>30.461972953751683</ele>
        <time>2022-10-10T13:12:37Z</time>
        <extensions>
          <gpxtpx:TrackPointExtension>
            <gpxtpx:hr>135</gpxtpx:hr>
          </gpxtpx:TrackPointExtension>
        </extensions>
      </trkpt>
      <trkpt lat="30.935899524107132" lon="113.55715505646435">
        <ele>31.026170885190368</ele>
        <time>2022-10-10T13:13:02Z</time>
        <extensions>
          <gpxtpx:TrackPointExtension>
            <gpxtpx:hr>131</gpxtpx:hr>
          </gpxtpx:TrackPointExtension>
        </extensions>
      </trkpt>
      <trkpt lat="30.935622298041725" lon="113.55728276727193">
        <ele>30.131636150181293</ele>
        <time>2022-10-10T13:13:23Z</time>
        <extensions>
          <gpxtpx:TrackPointExtension>
            <gpxtpx:hr>131</gpxtpx:hr>
          </gpxtpx:TrackPointExtension>
        </extensions>
      </trkpt>
      <trkpt lat="30.935421726008407" lon="113.55736301278775">
        <ele>29.467151705175638</ele>
        <time>2022-10-10T13:13:38Z</time>
        <extensions>
          <gpxtpx:TrackPointExtension>
            <gpxtpx:hr>129</gpxtpx:hr>
          </gpxtpx:TrackPointExtension>
        </extensions>
      </trkpt>
      <trkpt lat="30.935341547162587" lon="113.55741371980689">
        <ele>30.338548813946545</ele>
        <time>2022-10-10T13:13:45Z</time>
        <extensions>
          <gpxtpx:TrackPointExtension>
            <gpxtpx:hr>131</gpxtpx:hr>
          </gpxtpx:TrackPointExtension>
        </extensions>
      </trkpt>
      <trkpt lat="30.9350679633722" lon="113.55750372976621">
        <ele>30.74308213312179</ele>
        <time>2022-10-10T13:14:09Z</time>
        <extensions>
          <gpxtpx:TrackPointExtension>
            <gpxtpx:hr>122</gpxtpx:hr>
          </gpxtpx:TrackPointExtension>
        </extensions>
      </trkpt>
      <trkpt lat="30.934820873717513" lon="113.55755027774069">
        <ele>31.485448610968888</ele>
        <time>2022-10-10T13:14:27Z</time>
        <extensions>
          <gpxtpx:TrackPointExtension>
            <gpxtpx:hr>128</gpxtpx:hr>
          </gpxtpx:TrackPointExtension>
        </extensions>
      </trkpt>
      <trkpt lat="30.934538129110678" lon="113.55752860149535">
        <ele>31.618705675005913</ele>
        <time>2022-10-10T13:14:45Z</time>
        <extensions>
          <gpxtpx:TrackPointExtension>
            <gpxtpx:hr>125</gpxtpx:hr>
          </gpxtpx:TrackPointExtension>
        </extensions>
      </trkpt>
      <trkpt lat="30.934297237915853" lon="113.55755267108351">
        <ele>31.66159161552787</ele>
        <time>2022-10-10T13:15:00Z</time>
        <extensions>
          <gpxtpx:TrackPointExtension>
            <gpxtpx:hr>133</gpxtpx:hr>
          </gpxtpx:TrackPointExtension>
        </extensions>
      </trkpt>
      <trkpt lat="30.934065933100335" lon="113.55752109309947">
        <ele>31.179882957600057</ele>
        <time>2022-10-10T13:15:15Z</time>
        <extensions>
          <gpxtpx:TrackPointExtension>
            <gpxtpx:hr>132</gpxtpx:hr>
          </gpxtpx:TrackPointExtension>
        </extensions>
      </trkpt>
      <trkpt lat="30.93377574412614" lon="113.55741856995152">
        <ele>31.64313016925007</ele>
        <time>2022-10-10T13:15:33Z</time>
        <extensions>
          <gpxtpx:TrackPointExtension>
            <gpxtpx:hr>135</gpxtpx:hr>
          </gpxtpx:TrackPointExtension>
        </extensions>
      </trkpt>
      <trkpt lat="30.933674899982922" lon="113.557402836335">
        <ele>31.861989825963974</ele>
        <time>2022-10-10T13:15:42Z</time>
        <extensions>
          <gpxtpx:TrackPointExtension>
            <gpxtpx:hr>135</gpxtpx:hr>
          </gpxtpx:TrackPointExtension>
        </extensions>
      </trkpt>
      <trkpt lat="30.933613047217953" lon="113.55737136510092">
        <ele>31.964180418290198</ele>
        <time>2022-10-10T13:15:48Z</time>
        <extensions>
          <gpxtpx:TrackPointExtension>
            <gpxtpx:hr>134</gpxtpx:hr>
          </gpxtpx:TrackPointExtension>
        </extensions>
      </trkpt>
      <trkpt lat="30.933360970568327" lon="113.55731232601234">
        <ele>33.24667140934616</ele>
        <time>2022-10-10T13:16:08Z</time>
        <extensions>
          <gpxtpx:TrackPointExtension>
            <gpxtpx:hr>129</gpxtpx:hr>
          </gpxtpx:TrackPointExtension>
        </extensions>
      </trkpt>
      <trkpt lat="30.933098418451305" lon="113.55712909796851">
        <ele>32.65413145441562</ele>
        <time>2022-10-10T13:16:24Z</time>
        <extensions>
          <gpxtpx:TrackPointExtension>
            <gpxtpx:hr>140</gpxtpx:hr>
          </gpxtpx:TrackPointExtension>
        </extensions>
      </trkpt>
      <trkpt lat="30.93289584783777" lon="113.55690865639801">
        <ele>33.79499689769</ele>
        <time>2022-10-10T13:16:36Z</time>
        <extensions>
          <gpxtpx:TrackPointExtension>
            <gpxtpx:hr>145</gpxtpx:hr>
          </gpxtpx:TrackPointExtension>
        </extensions>
      </trkpt>
      <trkpt lat="30.932705148842373" lon="113.55668628841487">
        <ele>33.10492939595133</ele>
        <time>2022-10-10T13:16:49Z</time>
        <extensions>
          <gpxtpx:TrackPointExtension>
            <gpxtpx:hr>145</gpxtpx:hr>
          </gpxtpx:TrackPointExtension>
        </extensions>
      </trkpt>
      <trkpt lat="30.93266019572722" lon="113.55665725290888">
        <ele>33.14610104635358</ele>
        <time>2022-10-10T13:16:52Z</time>
        <extensions>
          <gpxtpx:TrackPointExtension>
            <gpxtpx:hr>145</gpxtpx:hr>
          </gpxtpx:TrackPointExtension>
        </extensions>
      </trkpt>
      <trkpt lat="30.932620843617663" lon="113.5566902977167">
        <ele>35.62778312899172</ele>
        <time>2022-10-10T13:16:55Z</time>
        <extensions>
          <gpxtpx:TrackPointExtension>
            <gpxtpx:hr>143</gpxtpx:hr>
          </gpxtpx:TrackPointExtension>
        </extensions>
      </trkpt>
      <trkpt lat="30.932639599398684" lon="113.55690386117804">
        <ele>34.04066743887961</ele>
        <time>2022-10-10T13:17:13Z</time>
        <extensions>
          <gpxtpx:TrackPointExtension>
            <gpxtpx:hr>133</gpxtpx:hr>
          </gpxtpx:TrackPointExtension>
        </extensions>
      </trkpt>
      <trkpt lat="30.93263150533196" lon="113.55691482829046">
        <ele>33.50594594608992</ele>
        <time>2022-10-10T13:17:22Z</time>
        <extensions>
          <gpxtpx:TrackPointExtension>
            <gpxtpx:hr>132</gpxtpx:hr>
          </gpxtpx:TrackPointExtension>
        </extensions>
      </trkpt>
      <trkpt lat="30.932621488457553" lon="113.55690216774225">
        <ele>33.3703375197947</ele>
        <time>2022-10-10T13:17:24Z</time>
        <extensions>
          <gpxtpx:TrackPointExtension>
            <gpxtpx:hr>132</gpxtpx:hr>
          </gpxtpx:TrackPointExtension>
        </extensions>
      </trkpt>
      <trkpt lat="30.93264717853907" lon="113.55685093232994">
        <ele>32.52737895771861</ele>
        <time>2022-10-10T13:17:33Z</time>
        <extensions>
          <gpxtpx:TrackPointExtension>
            <gpxtpx:hr>125</gpxtpx:hr>
          </gpxtpx:TrackPointExtension>
        </extensions>
      </trkpt>
      <trkpt lat="30.932631499927854" lon="113.55721859076483">
        <ele>32.2130228606984</ele>
        <time>2022-10-10T13:18:03Z</time>
        <extensions>
          <gpxtpx:TrackPointExtension>
            <gpxtpx:hr>114</gpxtpx:hr>
          </gpxtpx:TrackPointExtension>
        </extensions>
      </trkpt>
      <trkpt lat="30.932609878221328" lon="113.55760004530752">
        <ele>31.280119276605546</ele>
        <time>2022-10-10T13:18:27Z</time>
        <extensions>
          <gpxtpx:TrackPointExtension>
            <gpxtpx:hr>116</gpxtpx:hr>
          </gpxtpx:TrackPointExtension>
        </extensions>
      </trkpt>
      <trkpt lat="30.932587253078793" lon="113.5577948055225">
        <ele>31.531214827671647</ele>
        <time>2022-10-10T13:18:39Z</time>
        <extensions>
          <gpxtpx:TrackPointExtension>
            <gpxtpx:hr>114</gpxtpx:hr>
          </gpxtpx:TrackPointExtension>
        </extensions>
      </trkpt>
      <trkpt lat="30.9326520373531" lon="113.55787527809314">
        <ele>32.031001961790025</ele>
        <time>2022-10-10T13:18:45Z</time>
        <extensions>
          <gpxtpx:TrackPointExtension>
            <gpxtpx:hr>119</gpxtpx:hr>
          </gpxtpx:TrackPointExtension>
        </extensions>
      </trkpt>
      <trkpt lat="30.932947389596784" lon="113.55801288251584">
        <ele>32.662709719501436</ele>
        <time>2022-10-10T13:19:11Z</time>
        <extensions>
          <gpxtpx:TrackPointExtension>
            <gpxtpx:hr>122</gpxtpx:hr>
          </gpxtpx:TrackPointExtension>
        </extensions>
      </trkpt>
      <trkpt lat="30.93322224480695" lon="113.55810440700128">
        <ele>31.491956556215882</ele>
        <time>2022-10-10T13:19:30Z</time>
        <extensions>
          <gpxtpx:TrackPointExtension>
            <gpxtpx:hr>124</gpxtpx:hr>
          </gpxtpx:TrackPointExtension>
        </extensions>
      </trkpt>
      <trkpt lat="30.933369273034366" lon="113.55814112615063">
        <ele>31.11971394252032</ele>
        <time>2022-10-10T13:19:36Z</time>
        <extensions>
          <gpxtpx:TrackPointExtension>
            <gpxtpx:hr>131</gpxtpx:hr>
          </gpxtpx:TrackPointExtension>
        </extensions>
      </trkpt>
      <trkpt lat="30.93342558660979" lon="113.55813364801324">
        <ele>31.647033986635506</ele>
        <time>2022-10-10T13:19:39Z</time>
        <extensions>
          <gpxtpx:TrackPointExtension>
            <gpxtpx:hr>131</gpxtpx:hr>
          </gpxtpx:TrackPointExtension>
        </extensions>
      </trkpt>
      <trkpt lat="30.933727092281806" lon="113.55821157494907">
        <ele>34.43405378703028</ele>
        <time>2022-10-10T13:19:55Z</time>
        <extensions>
          <gpxtpx:TrackPointExtension>
            <gpxtpx:hr>137</gpxtpx:hr>
          </gpxtpx:TrackPointExtension>
        </extensions>
      </trkpt>
      <trkpt lat="30.933817617609858" lon="113.55822957020789">
        <ele>33.12993768323213</ele>
        <time>2022-10-10T13:20:01Z</time>
        <extensions>
          <gpxtpx:TrackPointExtension>
            <gpxtpx:hr>135</gpxtpx:hr>
          </gpxtpx:TrackPointExtension>
        </extensions>
      </trkpt>
      <trkpt lat="30.933704044683495" lon="113.55815906960952">
        <ele>32.70995680708438</ele>
        <time>2022-10-10T13:20:13Z</time>
        <extensions>
          <gpxtpx:TrackPointExtension>
            <gpxtpx:hr>131</gpxtpx:hr>
          </gpxtpx:TrackPointExtension>
        </extensions>
      </trkpt>
      <trkpt lat="30.933434878412946" lon="113.5580874273488">
        <ele>31.29467078950256</ele>
        <time>2022-10-10T13:20:28Z</time>
        <extensions>
          <gpxtpx:TrackPointExtension>
            <gpxtpx:hr>139</gpxtpx:hr>
          </gpxtpx:TrackPointExtension>
        </extensions>
      </trkpt>
      <trkpt lat="30.933157649636755" lon="113.55801807922016">
        <ele>30.358150550164282</ele>
        <time>2022-10-10T13:20:43Z</time>
        <extensions>
          <gpxtpx:TrackPointExtension>
            <gpxtpx:hr>143</gpxtpx:hr>
          </gpxtpx:TrackPointExtension>
        </extensions>
      </trkpt>
      <trkpt lat="30.93318503364028" lon="113.55808438535118">
        <ele>30.226964770816267</ele>
        <time>2022-10-10T13:20:49Z</time>
        <extensions>
          <gpxtpx:TrackPointExtension>
            <gpxtpx:hr>144</gpxtpx:hr>
          </gpxtpx:TrackPointExtension>
        </extensions>
      </trkpt>
      <trkpt lat="30.933490403968293" lon="113.55818254040905">
        <ele>30.771824213676155</ele>
        <time>2022-10-10T13:21:05Z</time>
        <extensions>
          <gpxtpx:TrackPointExtension>
            <gpxtpx:hr>142</gpxtpx:hr>
          </gpxtpx:TrackPointExtension>
        </extensions>
      </trkpt>
      <trkpt lat="30.9337647571756" lon="113.55823188147477">
        <ele>32.72047382872552</ele>
        <time>2022-10-10T13:21:19Z</time>
        <extensions>
          <gpxtpx:TrackPointExtension>
            <gpxtpx:hr>145</gpxtpx:hr>
          </gpxtpx:TrackPointExtension>
        </extensions>
      </trkpt>
      <trkpt lat="30.93404959459985" lon="113.55828460465311">
        <ele>32.94692406617105</ele>
        <time>2022-10-10T13:21:33Z</time>
        <extensions>
          <gpxtpx:TrackPointExtension>
            <gpxtpx:hr>145</gpxtpx:hr>
          </gpxtpx:TrackPointExtension>
        </extensions>
      </trkpt>
      <trkpt lat="30.934287049242553" lon="113.55837110396057">
        <ele>34.277177513577044</ele>
        <time>2022-10-10T13:21:46Z</time>
        <extensions>
          <gpxtpx:TrackPointExtension>
            <gpxtpx:hr>146</gpxtpx:hr>
          </gpxtpx:TrackPointExtension>
        </extensions>
      </trkpt>
      <trkpt lat="30.93457422430316" lon="113.55841188970602">
        <ele>34.510217022150755</ele>
        <time>2022-10-10T13:22:00Z</time>
        <extensions>
          <gpxtpx:TrackPointExtension>
            <gpxtpx:hr>149</gpxtpx:hr>
          </gpxtpx:TrackPointExtension>
        </extensions>
      </trkpt>
      <trkpt lat="30.934765421026686" lon="113.5584139163979">
        <ele>34.52314185909927</ele>
        <time>2022-10-10T13:22:09Z</time>
        <extensions>
          <gpxtpx:TrackPointExtension>
            <gpxtpx:hr>150</gpxtpx:hr>
          </gpxtpx:TrackPointExtension>
        </extensions>
      </trkpt>
      <trkpt lat="30.934841646477484" lon="113.55844717765953">
        <ele>35.23979206662625</ele>
        <time>2022-10-10T13:22:13Z</time>
        <extensions>
          <gpxtpx:TrackPointExtension>
            <gpxtpx:hr>150</gpxtpx:hr>
          </gpxtpx:TrackPointExtension>
        </extensions>
      </trkpt>
      <trkpt lat="30.935062033583538" lon="113.55838857178509">
        <ele>34.810331113636494</ele>
        <time>2022-10-10T13:22:25Z</time>
        <extensions>
          <gpxtpx:TrackPointExtension>
            <gpxtpx:hr>150</gpxtpx:hr>
          </gpxtpx:TrackPointExtension>
        </extensions>
      </trkpt>
      <trkpt lat="30.935143246381973" lon="113.55841986196766">
        <ele>33.8535831393674</ele>
        <time>2022-10-10T13:22:29Z</time>
        <extensions>
          <gpxtpx:TrackPointExtension>
            <gpxtpx:hr>152</gpxtpx:hr>
          </gpxtpx:TrackPointExtension>
        </extensions>
      </trkpt>
      <trkpt lat="30.93521137692773" lon="113.55842604856008">
        <ele>34.92483049072325</ele>
        <time>2022-10-10T13:22:33Z</time>
        <extensions>
          <gpxtpx:TrackPointExtension>
            <gpxtpx:hr>152</gpxtpx:hr>
          </gpxtpx:TrackPointExtension>
        </extensions>
      </trkpt>
      <trkpt lat="30.93550095528856" lon="113.55834132735679">
        <ele>33.81255158595741</ele>
        <time>2022-10-10T13:22:49Z</time>
        <extensions>
          <gpxtpx:TrackPointExtension>
            <gpxtpx:hr>148</gpxtpx:hr>
          </gpxtpx:TrackPointExtension>
        </extensions>
      </trkpt>
      <trkpt lat="30.935700217835667" lon="113.55832765459476">
        <ele>35.28508823458105</ele>
        <time>2022-10-10T13:23:01Z</time>
        <extensions>
          <gpxtpx:TrackPointExtension>
            <gpxtpx:hr>143</gpxtpx:hr>
          </gpxtpx:TrackPointExtension>
        </extensions>
      </trkpt>
      <trkpt lat="30.935780054618316" lon="113.55829998751035">
        <ele>34.38897431269288</ele>
        <time>2022-10-10T13:23:05Z</time>
        <extensions>
          <gpxtpx:TrackPointExtension>
            <gpxtpx:hr>146</gpxtpx:hr>
          </gpxtpx:TrackPointExtension>
        </extensions>
      </trkpt>
      <trkpt lat="30.935918935320682" lon="113.55819654116544">
        <ele>33.26678417343646</ele>
        <time>2022-10-10T13:23:13Z</time>
        <extensions>
          <gpxtpx:TrackPointExtension>
            <gpxtpx:hr>146</gpxtpx:hr>
          </gpxtpx:TrackPointExtension>
        </extensions>
      </trkpt>
      <trkpt lat="30.93611921393908" lon="113.55795431266428">
        <ele>32.029219350777566</ele>
        <time>2022-10-10T13:23:29Z</time>
        <extensions>
          <gpxtpx:TrackPointExtension>
            <gpxtpx:hr>142</gpxtpx:hr>
          </gpxtpx:TrackPointExtension>
        </extensions>
      </trkpt>
      <trkpt lat="30.93623198147439" lon="113.55783878746445">
        <ele>33.13944312557578</ele>
        <time>2022-10-10T13:23:39Z</time>
        <extensions>
          <gpxtpx:TrackPointExtension>
            <gpxtpx:hr>142</gpxtpx:hr>
          </gpxtpx:TrackPointExtension>
        </extensions>
      </trkpt>
      <trkpt lat="30.936386954742584" lon="113.55770699482593">
        <ele>32.67348537873477</ele>
        <time>2022-10-10T13:23:50Z</time>
        <extensions>
          <gpxtpx:TrackPointExtension>
            <gpxtpx:hr>146</gpxtpx:hr>
          </gpxtpx:TrackPointExtension>
        </extensions>
      </trkpt>
      <trkpt lat="30.936573166866584" lon="113.55764631512677">
        <ele>36.320288949646056</ele>
        <time>2022-10-10T13:24:01Z</time>
        <extensions>
          <gpxtpx:TrackPointExtension>
            <gpxtpx:hr>146</gpxtpx:hr>
          </gpxtpx:TrackPointExtension>
        </extensions>
      </trkpt>
      <trkpt lat="30.93677815176118" lon="113.55750199155293">
        <ele>34.879904062487185</ele>
        <time>2022-10-10T13:24:13Z</time>
        <extensions>
          <gpxtpx:TrackPointExtension>
            <gpxtpx:hr>143</gpxtpx:hr>
          </gpxtpx:TrackPointExtension>
        </extensions>
      </trkpt>
      <trkpt lat="30.93686581213876" lon="113.55740706335833">
        <ele>33.5540626430884</ele>
        <time>2022-10-10T13:24:19Z</time>
        <extensions>
          <gpxtpx:TrackPointExtension>
            <gpxtpx:hr>145</gpxtpx:hr>
          </gpxtpx:TrackPointExtension>
        </extensions>
      </trkpt>
      <trkpt lat="30.936916335869146" lon="113.5573123675031">
        <ele>32.90470958221704</ele>
        <time>2022-10-10T13:24:23Z</time>
        <extensions>
          <gpxtpx:TrackPointExtension>
            <gpxtpx:hr>145</gpxtpx:hr>
          </gpxtpx:TrackPointExtension>
        </extensions>
      </trkpt>
      <trkpt lat="30.937053641005793" lon="113.55719539536967">
        <ele>32.96563717070967</ele>
        <time>2022-10-10T13:24:32Z</time>
        <extensions>
          <gpxtpx:TrackPointExtension>
            <gpxtpx:hr>145</gpxtpx:hr>
          </gpxtpx:TrackPointExtension>
        </extensions>
      </trkpt>
      <trkpt lat="30.937262066110097" lon="113.55690080595694">
        <ele>32.37365393061191</ele>
        <time>2022-10-10T13:24:47Z</time>
        <extensions>
          <gpxtpx:TrackPointExtension>
            <gpxtpx:hr>147</gpxtpx:hr>
          </gpxtpx:TrackPointExtension>
        </extensions>
      </trkpt>
      <trkpt lat="30.937310061162115" lon="113.55684198257437">
        <ele>32.466515365988016</ele>
        <time>2022-10-10T13:24:50Z</time>
        <extensions>
          <gpxtpx:TrackPointExtension>
            <gpxtpx:hr>147</gpxtpx:hr>
          </gpxtpx:TrackPointExtension>
        </extensions>
      </trkpt>
      <trkpt lat="30.937407435404225" lon="113.55657135564817">
        <ele>32.62039432860911</ele>
        <time>2022-10-10T13:25:02Z</time>
        <extensions>
          <gpxtpx:TrackPointExtension>
            <gpxtpx:hr>145</gpxtpx:hr>
          </gpxtpx:TrackPointExtension>
        </extensions>
      </trkpt>
      <trkpt lat="30.937440162566947" lon="113.55651426123231">
        <ele>32.797003394924104</ele>
        <time>2022-10-10T13:25:05Z</time>
        <extensions>
          <gpxtpx:TrackPointExtension>
            <gpxtpx:hr>144</gpxtpx:hr>
          </gpxtpx:TrackPointExtension>
        </extensions>
      </trkpt>
      <trkpt lat="30.937453262579513" lon="113.55623198903909">
        <ele>32.744712746702135</ele>
        <time>2022-10-10T13:25:18Z</time>
        <extensions>
          <gpxtpx:TrackPointExtension>
            <gpxtpx:hr>147</gpxtpx:hr>
          </gpxtpx:TrackPointExtension>
        </extensions>
      </trkpt>
      <trkpt lat="30.937356887052683" lon="113.55601967135385">
        <ele>34.35886057559401</ele>
        <time>2022-10-10T13:25:28Z</time>
        <extensions>
          <gpxtpx:TrackPointExtension>
            <gpxtpx:hr>150</gpxtpx:hr>
          </gpxtpx:TrackPointExtension>
        </extensions>
      </trkpt>
      <trkpt lat="30.937303903675485" lon="113.55586445943837">
        <ele>32.97950428724289</ele>
        <time>2022-10-10T13:25:36Z</time>
        <extensions>
          <gpxtpx:TrackPointExtension>
            <gpxtpx:hr>151</gpxtpx:hr>
          </gpxtpx:TrackPointExtension>
        </extensions>
      </trkpt>
      <trkpt lat="30.93712673244491" lon="113.55555678566095">
        <ele>32.98253584187478</ele>
        <time>2022-10-10T13:25:51Z</time>
        <extensions>
          <gpxtpx:TrackPointExtension>
            <gpxtpx:hr>148</gpxtpx:hr>
          </gpxtpx:TrackPointExtension>
        </extensions>
      </trkpt>
      <trkpt lat="30.937099140808165" lon="113.55540514029074">
        <ele>31.806306692771614</ele>
        <time>2022-10-10T13:25:59Z</time>
        <extensions>
          <gpxtpx:TrackPointExtension>
            <gpxtpx:hr>146</gpxtpx:hr>
          </gpxtpx:TrackPointExtension>
        </extensions>
      </trkpt>
      <trkpt lat="30.937282526139317" lon="113.55542954135183">
        <ele>33.23997457139194</ele>
        <time>2022-10-10T13:26:11Z</time>
        <extensions>
          <gpxtpx:TrackPointExtension>
            <gpxtpx:hr>143</gpxtpx:hr>
          </gpxtpx:TrackPointExtension>
        </extensions>
      </trkpt>
      <trkpt lat="30.93741270468425" lon="113.555465283475">
        <ele>33.71327067818493</ele>
        <time>2022-10-10T13:26:19Z</time>
        <extensions>
          <gpxtpx:TrackPointExtension>
            <gpxtpx:hr>144</gpxtpx:hr>
          </gpxtpx:TrackPointExtension>
        </extensions>
      </trkpt>
      <trkpt lat="30.937457432039253" lon="113.55545847352371">
        <ele>33.15616355650127</ele>
        <time>2022-10-10T13:26:22Z</time>
        <extensions>
          <gpxtpx:TrackPointExtension>
            <gpxtpx:hr>144</gpxtpx:hr>
          </gpxtpx:TrackPointExtension>
        </extensions>
      </trkpt>
      <trkpt lat="30.937504149921985" lon="113.55549820030205">
        <ele>33.49744627531618</ele>
        <time>2022-10-10T13:26:26Z</time>
        <extensions>
          <gpxtpx:TrackPointExtension>
            <gpxtpx:hr>144</gpxtpx:hr>
          </gpxtpx:TrackPointExtension>
        </extensions>
      </trkpt>
      <trkpt lat="30.93752838863536" lon="113.55554508113454">
        <ele>32.44481525011361</ele>
        <time>2022-10-10T13:26:30Z</time>
        <extensions>
          <gpxtpx:TrackPointExtension>
            <gpxtpx:hr>140</gpxtpx:hr>
          </gpxtpx:TrackPointExtension>
        </extensions>
      </trkpt>
      <trkpt lat="30.937383351003916" lon="113.55549868443632">
        <ele>33.745546012185514</ele>
        <time>2022-10-10T13:26:38Z</time>
        <extensions>
          <gpxtpx:TrackPointExtension>
            <gpxtpx:hr>139</gpxtpx:hr>
          </gpxtpx:TrackPointExtension>
        </extensions>
      </trkpt>
      <trkpt lat="30.937283798082643" lon="113.55550723167067">
        <ele>33.280654904432595</ele>
        <time>2022-10-10T13:26:42Z</time>
        <extensions>
          <gpxtpx:TrackPointExtension>
            <gpxtpx:hr>139</gpxtpx:hr>
          </gpxtpx:TrackPointExtension>
        </extensions>
      </trkpt>
      <trkpt lat="30.93721350603584" lon="113.55555617718139">
        <ele>34.94267893116921</ele>
        <time>2022-10-10T13:26:46Z</time>
        <extensions>
          <gpxtpx:TrackPointExtension>
            <gpxtpx:hr>143</gpxtpx:hr>
          </gpxtpx:TrackPointExtension>
        </extensions>
      </trkpt>
      <trkpt lat="30.937193097622416" lon="113.55565195314652">
        <ele>35.06149112805724</ele>
        <time>2022-10-10T13:26:50Z</time>
        <extensions>
          <gpxtpx:TrackPointExtension>
            <gpxtpx:hr>144</gpxtpx:hr>
          </gpxtpx:TrackPointExtension>
        </extensions>
      </trkpt>
      <trkpt lat="30.937305178536434" lon="113.55598449623416">
        <ele>34.43948985915631</ele>
        <time>2022-10-10T13:27:06Z</time>
        <extensions>
          <gpxtpx:TrackPointExtension>
            <gpxtpx:hr>144</gpxtpx:hr>
          </gpxtpx:TrackPointExtension>
        </extensions>
      </trkpt>
      <trkpt lat="30.93733253737208" lon="113.55607086381433">
        <ele>34.90844344627112</ele>
        <time>2022-10-10T13:27:10Z</time>
        <extensions>
          <gpxtpx:TrackPointExtension>
            <gpxtpx:hr>144</gpxtpx:hr>
          </gpxtpx:TrackPointExtension>
        </extensions>
      </trkpt>
      <trkpt lat="30.937377283489194" lon="113.55643729708449">
        <ele>34.25954763125628</ele>
        <time>2022-10-10T13:27:26Z</time>
        <extensions>
          <gpxtpx:TrackPointExtension>
            <gpxtpx:hr>145</gpxtpx:hr>
          </gpxtpx:TrackPointExtension>
        </extensions>
      </trkpt>
      <trkpt lat="30.937368176480476" lon="113.55660660423139">
        <ele>34.53501836583018</ele>
        <time>2022-10-10T13:27:34Z</time>
        <extensions>
          <gpxtpx:TrackPointExtension>
            <gpxtpx:hr>146</gpxtpx:hr>
          </gpxtpx:TrackPointExtension>
        </extensions>
      </trkpt>
      <trkpt lat="30.937277857498092" lon="113.55694725388554">
        <ele>35.23635001759976</ele>
        <time>2022-10-10T13:27:50Z</time>
        <extensions>
          <gpxtpx:TrackPointExtension>
            <gpxtpx:hr>147</gpxtpx:hr>
          </gpxtpx:TrackPointExtension>
        </extensions>
      </trkpt>
      <trkpt lat="30.93724407944305" lon="113.55702565108336">
        <ele>35.914479000493884</ele>
        <time>2022-10-10T13:27:54Z</time>
        <extensions>
          <gpxtpx:TrackPointExtension>
            <gpxtpx:hr>150</gpxtpx:hr>
          </gpxtpx:TrackPointExtension>
        </extensions>
      </trkpt>
      <trkpt lat="30.93709481336225" lon="113.55723482743547">
        <ele>36.00969074573368</ele>
        <time>2022-10-10T13:28:06Z</time>
        <extensions>
          <gpxtpx:TrackPointExtension>
            <gpxtpx:hr>151</gpxtpx:hr>
          </gpxtpx:TrackPointExtension>
        </extensions>
      </trkpt>
      <trkpt lat="30.9371054119389" lon="113.55758397188863">
        <ele>35.090562438592315</ele>
        <time>2022-10-10T13:28:22Z</time>
        <extensions>
          <gpxtpx:TrackPointExtension>
            <gpxtpx:hr>148</gpxtpx:hr>
          </gpxtpx:TrackPointExtension>
        </extensions>
      </trkpt>
      <trkpt lat="30.93712595800915" lon="113.55768151738057">
        <ele>34.84476055018604</ele>
        <time>2022-10-10T13:28:26Z</time>
        <extensions>
          <gpxtpx:TrackPointExtension>
            <gpxtpx:hr>148</gpxtpx:hr>
          </gpxtpx:TrackPointExtension>
        </extensions>
      </trkpt>
      <trkpt lat="30.937167822050725" lon="113.55773040267137">
        <ele>34.96675699017942</ele>
        <time>2022-10-10T13:28:29Z</time>
        <extensions>
          <gpxtpx:TrackPointExtension>
            <gpxtpx:hr>148</gpxtpx:hr>
          </gpxtpx:TrackPointExtension>
        </extensions>
      </trkpt>
      <trkpt lat="30.93743426983658" lon="113.5577995287879">
        <ele>33.25074665993452</ele>
        <time>2022-10-10T13:28:43Z</time>
        <extensions>
          <gpxtpx:TrackPointExtension>
            <gpxtpx:hr>151</gpxtpx:hr>
          </gpxtpx:TrackPointExtension>
        </extensions>
      </trkpt>
      <trkpt lat="30.93748669292115" lon="113.55778736111829">
        <ele>33.27817212976515</ele>
        <time>2022-10-10T13:28:47Z</time>
        <extensions>
          <gpxtpx:TrackPointExtension>
            <gpxtpx:hr>151</gpxtpx:hr>
          </gpxtpx:TrackPointExtension>
        </extensions>
      </trkpt>
      <trkpt lat="30.937499483482323" lon="113.5575364692029">
        <ele>32.88374247401953</ele>
        <time>2022-10-10T13:28:55Z</time>
        <extensions>
          <gpxtpx:TrackPointExtension>
            <gpxtpx:hr>150</gpxtpx:hr>
          </gpxtpx:TrackPointExtension>
        </extensions>
      </trkpt>
      <trkpt lat="30.937541629188082" lon="113.55745088589808">
        <ele>32.91548994462937</ele>
        <time>2022-10-10T13:28:59Z</time>
        <extensions>
          <gpxtpx:TrackPointExtension>
            <gpxtpx:hr>150</gpxtpx:hr>
          </gpxtpx:TrackPointExtension>
        </extensions>
      </trkpt>
      <trkpt lat="30.93762503714207" lon="113.55736975712612">
        <ele>32.738759563304484</ele>
        <time>2022-10-10T13:29:03Z</time>
        <extensions>
          <gpxtpx:TrackPointExtension>
            <gpxtpx:hr>151</gpxtpx:hr>
          </gpxtpx:TrackPointExtension>
        </extensions>
      </trkpt>
      <trkpt lat="30.93771831067182" lon="113.55722369602553">
        <ele>32.39190896041691</ele>
        <time>2022-10-10T13:29:10Z</time>
        <extensions>
          <gpxtpx:TrackPointExtension>
            <gpxtpx:hr>153</gpxtpx:hr>
          </gpxtpx:TrackPointExtension>
        </extensions>
      </trkpt>
      <trkpt lat="30.937745864167415" lon="113.55713962182537">
        <ele>31.665998824872077</ele>
        <time>2022-10-10T13:29:14Z</time>
        <extensions>
          <gpxtpx:TrackPointExtension>
            <gpxtpx:hr>153</gpxtpx:hr>
          </gpxtpx:TrackPointExtension>
        </extensions>
      </trkpt>
      <trkpt lat="30.93768776963596" lon="113.557027757502">
        <ele>32.8568875445053</ele>
        <time>2022-10-10T13:29:18Z</time>
        <extensions>
          <gpxtpx:TrackPointExtension>
            <gpxtpx:hr>154</gpxtpx:hr>
          </gpxtpx:TrackPointExtension>
        </extensions>
      </trkpt>
      <trkpt lat="30.93775177284781" lon="113.55694641395131">
        <ele>32.070856945589185</ele>
        <time>2022-10-10T13:29:22Z</time>
        <extensions>
          <gpxtpx:TrackPointExtension>
            <gpxtpx:hr>155</gpxtpx:hr>
          </gpxtpx:TrackPointExtension>
        </extensions>
      </trkpt>
      <trkpt lat="30.937780311498464" lon="113.5568549006577">
        <ele>31.995258468203247</ele>
        <time>2022-10-10T13:29:26Z</time>
        <extensions>
          <gpxtpx:TrackPointExtension>
            <gpxtpx:hr>153</gpxtpx:hr>
          </gpxtpx:TrackPointExtension>
        </extensions>
      </trkpt>
      <trkpt lat="30.937774815941577" lon="113.55676050807823">
        <ele>32.01803410705179</ele>
        <time>2022-10-10T13:29:30Z</time>
        <extensions>
          <gpxtpx:TrackPointExtension>
            <gpxtpx:hr>153</gpxtpx:hr>
          </gpxtpx:TrackPointExtension>
        </extensions>
      </trkpt>
      <trkpt lat="30.937735827517493" lon="113.55669085529065">
        <ele>32.28963423985988</ele>
        <time>2022-10-10T13:29:33Z</time>
        <extensions>
          <gpxtpx:TrackPointExtension>
            <gpxtpx:hr>153</gpxtpx:hr>
          </gpxtpx:TrackPointExtension>
        </extensions>
      </trkpt>
      <trkpt lat="30.937716998012682" lon="113.55659197656504">
        <ele>32.02425416652113</ele>
        <time>2022-10-10T13:29:37Z</time>
        <extensions>
          <gpxtpx:TrackPointExtension>
            <gpxtpx:hr>153</gpxtpx:hr>
          </gpxtpx:TrackPointExtension>
        </extensions>
      </trkpt>
      <trkpt lat="30.937631645002302" lon="113.5566795557758">
        <ele>33.17613779939711</ele>
        <time>2022-10-10T13:29:45Z</time>
        <extensions>
          <gpxtpx:TrackPointExtension>
            <gpxtpx:hr>152</gpxtpx:hr>
          </gpxtpx:TrackPointExtension>
        </extensions>
      </trkpt>
      <trkpt lat="30.937631645002302" lon="113.5566795557758">
        <ele>33.17613779939711</ele>
        <time>2022-10-10T13:29:50Z</time>
        <extensions>
          <gpxtpx:TrackPointExtension>
            <gpxtpx:hr>152</gpxtpx:hr>
          </gpxtpx:TrackPointExtension>
        </extensions>
      </trkpt>
    </trkseg>
  </trk>
</gpx>