<?xml version="1.0" encoding="UTF-8"?>
<gpx xmlns="http://www.topografix.com/GPX/1/1" xmlns:gpxtpx="http://www.garmin.com/xmlschemas/TrackPointExtension/v1" xmlns:xsi="http://www.w3.org/2001/XMLSchema-instance" xsi:schemaLocation="http://www.topografix.com/GPX/1/1 http://www.topografix.com/GPX/1/1/gpx.xsd" version="1.1" creator="gpx.py -- https://github.com/tkrajina/gpxpy">
  <trk>
    <name>gpx from keep</name>
    <type>Run</type>
    <trkseg>
      <trkpt lat="30.93590595592641" lon="113.55359351306285">
        <ele>14.53466796875</ele>
        <time>2023-12-04T12:38:10Z</time>
      </trkpt>
      <trkpt lat="30.935716604580705" lon="113.55331889307213">
        <ele>15.44708251953125</ele>
        <time>2023-12-04T12:38:34Z</time>
      </trkpt>
      <trkpt lat="30.935566176310356" lon="113.55301419591525">
        <ele>13.508056640625</ele>
        <time>2023-12-04T12:38:49Z</time>
      </trkpt>
      <trkpt lat="30.935427732177523" lon="113.55270648647583">
        <ele>12.70196533203125</ele>
        <time>2023-12-04T12:39:04Z</time>
      </trkpt>
      <trkpt lat="30.935296297472924" lon="113.5524087959201">
        <ele>14.79705810546875</ele>
        <time>2023-12-04T12:39:19Z</time>
      </trkpt>
      <trkpt lat="30.935171874300387" lon="113.55212212704082">
        <ele>14.90240478515625</ele>
        <time>2023-12-04T12:39:34Z</time>
      </trkpt>
      <trkpt lat="30.9350484245461" lon="113.55182242328651">
        <ele>15.46575927734375</ele>
        <time>2023-12-04T12:39:49Z</time>
      </trkpt>
      <trkpt lat="30.934960049425882" lon="113.55157884735692">
        <ele>13.781005859375</ele>
        <time>2023-12-04T12:40:01Z</time>
      </trkpt>
      <trkpt lat="30.934979716676168" lon="113.5513964066053">
        <ele>13.137451171875</ele>
        <time>2023-12-04T12:40:10Z</time>
      </trkpt>
      <trkpt lat="30.935190132306914" lon="113.55113575809709">
        <ele>13.07012939453125</ele>
        <time>2023-12-04T12:40:28Z</time>
      </trkpt>
      <trkpt lat="30.935411547787236" lon="113.55088011782709">
        <ele>13.46173095703125</ele>
        <time>2023-12-04T12:40:46Z</time>
        <extensions>
          <gpxtpx:TrackPointExtension>
            <gpxtpx:hr>140</gpxtpx:hr>
          </gpxtpx:TrackPointExtension>
        </extensions>
      </trkpt>
      <trkpt lat="30.93544544919119" lon="113.55083600744628">
        <ele>13.068603515625</ele>
        <time>2023-12-04T12:40:49Z</time>
        <extensions>
          <gpxtpx:TrackPointExtension>
            <gpxtpx:hr>142</gpxtpx:hr>
          </gpxtpx:TrackPointExtension>
        </extensions>
      </trkpt>
      <trkpt lat="30.93543833868196" lon="113.5507718517965">
        <ele>12.95458984375</ele>
        <time>2023-12-04T12:40:52Z</time>
        <extensions>
          <gpxtpx:TrackPointExtension>
            <gpxtpx:hr>143</gpxtpx:hr>
          </gpxtpx:TrackPointExtension>
        </extensions>
      </trkpt>
      <trkpt lat="30.935344305838978" lon="113.55072274044382">
        <ele>13.30072021484375</ele>
        <time>2023-12-04T12:40:58Z</time>
        <extensions>
          <gpxtpx:TrackPointExtension>
            <gpxtpx:hr>149</gpxtpx:hr>
          </gpxtpx:TrackPointExtension>
        </extensions>
      </trkpt>
      <trkpt lat="30.93503747473071" lon="113.55071675326236">
        <ele>15.490966796875</ele>
        <time>2023-12-04T12:41:16Z</time>
        <extensions>
          <gpxtpx:TrackPointExtension>
            <gpxtpx:hr>149</gpxtpx:hr>
          </gpxtpx:TrackPointExtension>
        </extensions>
      </trkpt>
      <trkpt lat="30.934723626174453" lon="113.55069873735233">
        <ele>16.01019287109375</ele>
        <time>2023-12-04T12:41:34Z</time>
        <extensions>
          <gpxtpx:TrackPointExtension>
            <gpxtpx:hr>146</gpxtpx:hr>
          </gpxtpx:TrackPointExtension>
        </extensions>
      </trkpt>
      <trkpt lat="30.93449174756937" lon="113.55069073855478">
        <ele>14.80389404296875</ele>
        <time>2023-12-04T12:41:49Z</time>
        <extensions>
          <gpxtpx:TrackPointExtension>
            <gpxtpx:hr>140</gpxtpx:hr>
          </gpxtpx:TrackPointExtension>
        </extensions>
      </trkpt>
      <trkpt lat="30.934409904980647" lon="113.55075189506721">
        <ele>15.588134765625</ele>
        <time>2023-12-04T12:41:55Z</time>
        <extensions>
          <gpxtpx:TrackPointExtension>
            <gpxtpx:hr>141</gpxtpx:hr>
          </gpxtpx:TrackPointExtension>
        </extensions>
      </trkpt>
      <trkpt lat="30.934380012123114" lon="113.55080201990242">
        <ele>15.85296630859375</ele>
        <time>2023-12-04T12:41:58Z</time>
        <extensions>
          <gpxtpx:TrackPointExtension>
            <gpxtpx:hr>141</gpxtpx:hr>
          </gpxtpx:TrackPointExtension>
        </extensions>
      </trkpt>
      <trkpt lat="30.934329668125343" lon="113.55115387887275">
        <ele>16.94671630859375</ele>
        <time>2023-12-04T12:42:16Z</time>
        <extensions>
          <gpxtpx:TrackPointExtension>
            <gpxtpx:hr>144</gpxtpx:hr>
          </gpxtpx:TrackPointExtension>
        </extensions>
      </trkpt>
      <trkpt lat="30.934245302155606" lon="113.55148468483566">
        <ele>16.68701171875</ele>
        <time>2023-12-04T12:42:37Z</time>
        <extensions>
          <gpxtpx:TrackPointExtension>
            <gpxtpx:hr>132</gpxtpx:hr>
          </gpxtpx:TrackPointExtension>
        </extensions>
      </trkpt>
      <trkpt lat="30.93424288917634" lon="113.551818485851">
        <ele>17.5234375</ele>
        <time>2023-12-04T12:42:55Z</time>
        <extensions>
          <gpxtpx:TrackPointExtension>
            <gpxtpx:hr>119</gpxtpx:hr>
          </gpxtpx:TrackPointExtension>
        </extensions>
      </trkpt>
      <trkpt lat="30.934276266324762" lon="113.55204602594229">
        <ele>18.43719482421875</ele>
        <time>2023-12-04T12:43:07Z</time>
        <extensions>
          <gpxtpx:TrackPointExtension>
            <gpxtpx:hr>127</gpxtpx:hr>
          </gpxtpx:TrackPointExtension>
        </extensions>
      </trkpt>
      <trkpt lat="30.934407726067665" lon="113.55235574975725">
        <ele>19.8984375</ele>
        <time>2023-12-04T12:43:25Z</time>
        <extensions>
          <gpxtpx:TrackPointExtension>
            <gpxtpx:hr>138</gpxtpx:hr>
          </gpxtpx:TrackPointExtension>
        </extensions>
      </trkpt>
      <trkpt lat="30.934533149455266" lon="113.5526444203006">
        <ele>21.4913330078125</ele>
        <time>2023-12-04T12:43:40Z</time>
        <extensions>
          <gpxtpx:TrackPointExtension>
            <gpxtpx:hr>141</gpxtpx:hr>
          </gpxtpx:TrackPointExtension>
        </extensions>
      </trkpt>
      <trkpt lat="30.934691620178786" lon="113.55297418041758">
        <ele>21.59698486328125</ele>
        <time>2023-12-04T12:43:58Z</time>
        <extensions>
          <gpxtpx:TrackPointExtension>
            <gpxtpx:hr>155</gpxtpx:hr>
          </gpxtpx:TrackPointExtension>
        </extensions>
      </trkpt>
      <trkpt lat="30.934775933332155" lon="113.55318767158612">
        <ele>20.98681640625</ele>
        <time>2023-12-04T12:44:07Z</time>
        <extensions>
          <gpxtpx:TrackPointExtension>
            <gpxtpx:hr>153</gpxtpx:hr>
          </gpxtpx:TrackPointExtension>
        </extensions>
      </trkpt>
      <trkpt lat="30.934982363787324" lon="113.55351441245895">
        <ele>16.49462890625</ele>
        <time>2023-12-04T12:44:28Z</time>
        <extensions>
          <gpxtpx:TrackPointExtension>
            <gpxtpx:hr>156</gpxtpx:hr>
          </gpxtpx:TrackPointExtension>
        </extensions>
      </trkpt>
      <trkpt lat="30.935169720860372" lon="113.55379303945837">
        <ele>14.88848876953125</ele>
        <time>2023-12-04T12:44:46Z</time>
        <extensions>
          <gpxtpx:TrackPointExtension>
            <gpxtpx:hr>157</gpxtpx:hr>
          </gpxtpx:TrackPointExtension>
        </extensions>
      </trkpt>
      <trkpt lat="30.935318114255367" lon="113.55408168942857">
        <ele>14.7418212890625</ele>
        <time>2023-12-04T12:45:04Z</time>
        <extensions>
          <gpxtpx:TrackPointExtension>
            <gpxtpx:hr>171</gpxtpx:hr>
          </gpxtpx:TrackPointExtension>
        </extensions>
      </trkpt>
      <trkpt lat="30.93550859342495" lon="113.55443948932897">
        <ele>15.623779296875</ele>
        <time>2023-12-04T12:45:25Z</time>
        <extensions>
          <gpxtpx:TrackPointExtension>
            <gpxtpx:hr>170</gpxtpx:hr>
          </gpxtpx:TrackPointExtension>
        </extensions>
      </trkpt>
      <trkpt lat="30.935657970550302" lon="113.55472311946087">
        <ele>14.3944091796875</ele>
        <time>2023-12-04T12:45:43Z</time>
        <extensions>
          <gpxtpx:TrackPointExtension>
            <gpxtpx:hr>170</gpxtpx:hr>
          </gpxtpx:TrackPointExtension>
        </extensions>
      </trkpt>
      <trkpt lat="30.93581333928912" lon="113.55500574315866">
        <ele>14.51806640625</ele>
        <time>2023-12-04T12:46:01Z</time>
        <extensions>
          <gpxtpx:TrackPointExtension>
            <gpxtpx:hr>167</gpxtpx:hr>
          </gpxtpx:TrackPointExtension>
        </extensions>
      </trkpt>
      <trkpt lat="30.9359806913194" lon="113.55528435318979">
        <ele>15.5762939453125</ele>
        <time>2023-12-04T12:46:19Z</time>
        <extensions>
          <gpxtpx:TrackPointExtension>
            <gpxtpx:hr>167</gpxtpx:hr>
          </gpxtpx:TrackPointExtension>
        </extensions>
      </trkpt>
      <trkpt lat="30.9361460461689" lon="113.55556596655325">
        <ele>15.920654296875</ele>
        <time>2023-12-04T12:46:37Z</time>
        <extensions>
          <gpxtpx:TrackPointExtension>
            <gpxtpx:hr>166</gpxtpx:hr>
          </gpxtpx:TrackPointExtension>
        </extensions>
      </trkpt>
      <trkpt lat="30.93629742981649" lon="113.5558626107839">
        <ele>17.0048828125</ele>
        <time>2023-12-04T12:46:55Z</time>
        <extensions>
          <gpxtpx:TrackPointExtension>
            <gpxtpx:hr>167</gpxtpx:hr>
          </gpxtpx:TrackPointExtension>
        </extensions>
      </trkpt>
      <trkpt lat="30.936411863049102" lon="113.55617929832043">
        <ele>16.2745361328125</ele>
        <time>2023-12-04T12:47:13Z</time>
        <extensions>
          <gpxtpx:TrackPointExtension>
            <gpxtpx:hr>166</gpxtpx:hr>
          </gpxtpx:TrackPointExtension>
        </extensions>
      </trkpt>
      <trkpt lat="30.936374413950304" lon="113.55651704074491">
        <ele>15.9642333984375</ele>
        <time>2023-12-04T12:47:31Z</time>
        <extensions>
          <gpxtpx:TrackPointExtension>
            <gpxtpx:hr>167</gpxtpx:hr>
          </gpxtpx:TrackPointExtension>
        </extensions>
      </trkpt>
      <trkpt lat="30.936265871559748" lon="113.55677060185842">
        <ele>15.12689208984375</ele>
        <time>2023-12-04T12:47:46Z</time>
        <extensions>
          <gpxtpx:TrackPointExtension>
            <gpxtpx:hr>166</gpxtpx:hr>
          </gpxtpx:TrackPointExtension>
        </extensions>
      </trkpt>
      <trkpt lat="30.936130200390608" lon="113.5569319633439">
        <ele>14.99200439453125</ele>
        <time>2023-12-04T12:47:58Z</time>
        <extensions>
          <gpxtpx:TrackPointExtension>
            <gpxtpx:hr>163</gpxtpx:hr>
          </gpxtpx:TrackPointExtension>
        </extensions>
      </trkpt>
      <trkpt lat="30.935826726357448" lon="113.5571584788503">
        <ele>15.8919677734375</ele>
        <time>2023-12-04T12:48:22Z</time>
        <extensions>
          <gpxtpx:TrackPointExtension>
            <gpxtpx:hr>164</gpxtpx:hr>
          </gpxtpx:TrackPointExtension>
        </extensions>
      </trkpt>
      <trkpt lat="30.935563087756453" lon="113.55729379301856">
        <ele>16.8604736328125</ele>
        <time>2023-12-04T12:48:40Z</time>
        <extensions>
          <gpxtpx:TrackPointExtension>
            <gpxtpx:hr>166</gpxtpx:hr>
          </gpxtpx:TrackPointExtension>
        </extensions>
      </trkpt>
      <trkpt lat="30.935287434074606" lon="113.55741507740429">
        <ele>17.16107177734375</ele>
        <time>2023-12-04T12:48:58Z</time>
        <extensions>
          <gpxtpx:TrackPointExtension>
            <gpxtpx:hr>163</gpxtpx:hr>
          </gpxtpx:TrackPointExtension>
        </extensions>
      </trkpt>
      <trkpt lat="30.934997766691634" lon="113.55752233242237">
        <ele>19.2574462890625</ele>
        <time>2023-12-04T12:49:16Z</time>
        <extensions>
          <gpxtpx:TrackPointExtension>
            <gpxtpx:hr>166</gpxtpx:hr>
          </gpxtpx:TrackPointExtension>
        </extensions>
      </trkpt>
      <trkpt lat="30.93471501129574" lon="113.55757446886247">
        <ele>19.13671875</ele>
        <time>2023-12-04T12:49:34Z</time>
        <extensions>
          <gpxtpx:TrackPointExtension>
            <gpxtpx:hr>167</gpxtpx:hr>
          </gpxtpx:TrackPointExtension>
        </extensions>
      </trkpt>
      <trkpt lat="30.934388223890124" lon="113.55758852799433">
        <ele>18.71722412109375</ele>
        <time>2023-12-04T12:49:55Z</time>
        <extensions>
          <gpxtpx:TrackPointExtension>
            <gpxtpx:hr>166</gpxtpx:hr>
          </gpxtpx:TrackPointExtension>
        </extensions>
      </trkpt>
      <trkpt lat="30.934098349550165" lon="113.55755949196897">
        <ele>18.31549072265625</ele>
        <time>2023-12-04T12:50:13Z</time>
        <extensions>
          <gpxtpx:TrackPointExtension>
            <gpxtpx:hr>167</gpxtpx:hr>
          </gpxtpx:TrackPointExtension>
        </extensions>
      </trkpt>
      <trkpt lat="30.93376946757892" lon="113.55751041661797">
        <ele>18.1815185546875</ele>
        <time>2023-12-04T12:50:34Z</time>
        <extensions>
          <gpxtpx:TrackPointExtension>
            <gpxtpx:hr>166</gpxtpx:hr>
          </gpxtpx:TrackPointExtension>
        </extensions>
      </trkpt>
      <trkpt lat="30.933504502351294" lon="113.55743127117216">
        <ele>19.26300048828125</ele>
        <time>2023-12-04T12:50:53Z</time>
        <extensions>
          <gpxtpx:TrackPointExtension>
            <gpxtpx:hr>164</gpxtpx:hr>
          </gpxtpx:TrackPointExtension>
        </extensions>
      </trkpt>
      <trkpt lat="30.933228502040258" lon="113.55732506844839">
        <ele>20.783203125</ele>
        <time>2023-12-04T12:51:11Z</time>
        <extensions>
          <gpxtpx:TrackPointExtension>
            <gpxtpx:hr>164</gpxtpx:hr>
          </gpxtpx:TrackPointExtension>
        </extensions>
      </trkpt>
      <trkpt lat="30.93306040740894" lon="113.55719881248613">
        <ele>21.25421142578125</ele>
        <time>2023-12-04T12:51:23Z</time>
        <extensions>
          <gpxtpx:TrackPointExtension>
            <gpxtpx:hr>165</gpxtpx:hr>
          </gpxtpx:TrackPointExtension>
        </extensions>
      </trkpt>
      <trkpt lat="30.9328791517352" lon="113.55696332129604">
        <ele>20.82757568359375</ele>
        <time>2023-12-04T12:51:41Z</time>
        <extensions>
          <gpxtpx:TrackPointExtension>
            <gpxtpx:hr>167</gpxtpx:hr>
          </gpxtpx:TrackPointExtension>
        </extensions>
      </trkpt>
      <trkpt lat="30.932656891349882" lon="113.5567107942218">
        <ele>19.783203125</ele>
        <time>2023-12-04T12:52:02Z</time>
        <extensions>
          <gpxtpx:TrackPointExtension>
            <gpxtpx:hr>153</gpxtpx:hr>
          </gpxtpx:TrackPointExtension>
        </extensions>
      </trkpt>
      <trkpt lat="30.932611857043298" lon="113.5566717133395">
        <ele>20.1998291015625</ele>
        <time>2023-12-04T12:52:05Z</time>
        <extensions>
          <gpxtpx:TrackPointExtension>
            <gpxtpx:hr>148</gpxtpx:hr>
          </gpxtpx:TrackPointExtension>
        </extensions>
      </trkpt>
      <trkpt lat="30.93256893816657" lon="113.55670779556048">
        <ele>19.63543701171875</ele>
        <time>2023-12-04T12:52:08Z</time>
        <extensions>
          <gpxtpx:TrackPointExtension>
            <gpxtpx:hr>149</gpxtpx:hr>
          </gpxtpx:TrackPointExtension>
        </extensions>
      </trkpt>
      <trkpt lat="30.932555520030895" lon="113.55707960102703">
        <ele>20.07427978515625</ele>
        <time>2023-12-04T12:52:26Z</time>
        <extensions>
          <gpxtpx:TrackPointExtension>
            <gpxtpx:hr>152</gpxtpx:hr>
          </gpxtpx:TrackPointExtension>
        </extensions>
      </trkpt>
      <trkpt lat="30.932554029740032" lon="113.55741231545937">
        <ele>20.078369140625</ele>
        <time>2023-12-04T12:52:44Z</time>
        <extensions>
          <gpxtpx:TrackPointExtension>
            <gpxtpx:hr>158</gpxtpx:hr>
          </gpxtpx:TrackPointExtension>
        </extensions>
      </trkpt>
      <trkpt lat="30.932560495429254" lon="113.55772197508175">
        <ele>19.32696533203125</ele>
        <time>2023-12-04T12:52:59Z</time>
        <extensions>
          <gpxtpx:TrackPointExtension>
            <gpxtpx:hr>169</gpxtpx:hr>
          </gpxtpx:TrackPointExtension>
        </extensions>
      </trkpt>
      <trkpt lat="30.932586640260237" lon="113.55782819819342">
        <ele>18.25433349609375</ele>
        <time>2023-12-04T12:53:05Z</time>
        <extensions>
          <gpxtpx:TrackPointExtension>
            <gpxtpx:hr>170</gpxtpx:hr>
          </gpxtpx:TrackPointExtension>
        </extensions>
      </trkpt>
      <trkpt lat="30.93262469938111" lon="113.55788230943972">
        <ele>18.306884765625</ele>
        <time>2023-12-04T12:53:08Z</time>
        <extensions>
          <gpxtpx:TrackPointExtension>
            <gpxtpx:hr>170</gpxtpx:hr>
          </gpxtpx:TrackPointExtension>
        </extensions>
      </trkpt>
      <trkpt lat="30.932882719792595" lon="113.55799652795648">
        <ele>18.34149169921875</ele>
        <time>2023-12-04T12:53:23Z</time>
        <extensions>
          <gpxtpx:TrackPointExtension>
            <gpxtpx:hr>172</gpxtpx:hr>
          </gpxtpx:TrackPointExtension>
        </extensions>
      </trkpt>
      <trkpt lat="30.93319167390704" lon="113.55808669062819">
        <ele>16.8829345703125</ele>
        <time>2023-12-04T12:53:41Z</time>
        <extensions>
          <gpxtpx:TrackPointExtension>
            <gpxtpx:hr>171</gpxtpx:hr>
          </gpxtpx:TrackPointExtension>
        </extensions>
      </trkpt>
      <trkpt lat="30.93349660313272" lon="113.55815881532718">
        <ele>16.3712158203125</ele>
        <time>2023-12-04T12:53:59Z</time>
        <extensions>
          <gpxtpx:TrackPointExtension>
            <gpxtpx:hr>170</gpxtpx:hr>
          </gpxtpx:TrackPointExtension>
        </extensions>
      </trkpt>
      <trkpt lat="30.933658569564336" lon="113.55819988727197">
        <ele>15.5977783203125</ele>
        <time>2023-12-04T12:54:08Z</time>
        <extensions>
          <gpxtpx:TrackPointExtension>
            <gpxtpx:hr>171</gpxtpx:hr>
          </gpxtpx:TrackPointExtension>
        </extensions>
      </trkpt>
      <trkpt lat="30.933965437668963" lon="113.55823192723186">
        <ele>15.81622314453125</ele>
        <time>2023-12-04T12:54:26Z</time>
        <extensions>
          <gpxtpx:TrackPointExtension>
            <gpxtpx:hr>172</gpxtpx:hr>
          </gpxtpx:TrackPointExtension>
        </extensions>
      </trkpt>
      <trkpt lat="30.934259341621654" lon="113.55828300827208">
        <ele>16.4371337890625</ele>
        <time>2023-12-04T12:54:44Z</time>
        <extensions>
          <gpxtpx:TrackPointExtension>
            <gpxtpx:hr>170</gpxtpx:hr>
          </gpxtpx:TrackPointExtension>
        </extensions>
      </trkpt>
      <trkpt lat="30.934545242706296" lon="113.5583290794017">
        <ele>17.5625</ele>
        <time>2023-12-04T12:55:02Z</time>
        <extensions>
          <gpxtpx:TrackPointExtension>
            <gpxtpx:hr>169</gpxtpx:hr>
          </gpxtpx:TrackPointExtension>
        </extensions>
      </trkpt>
      <trkpt lat="30.934854148051418" lon="113.5583871735582">
        <ele>16.6529541015625</ele>
        <time>2023-12-04T12:55:20Z</time>
        <extensions>
          <gpxtpx:TrackPointExtension>
            <gpxtpx:hr>170</gpxtpx:hr>
          </gpxtpx:TrackPointExtension>
        </extensions>
      </trkpt>
      <trkpt lat="30.935016005731775" lon="113.55835509191357">
        <ele>17.04205322265625</ele>
        <time>2023-12-04T12:55:29Z</time>
        <extensions>
          <gpxtpx:TrackPointExtension>
            <gpxtpx:hr>170</gpxtpx:hr>
          </gpxtpx:TrackPointExtension>
        </extensions>
      </trkpt>
      <trkpt lat="30.935304824721484" lon="113.5583470492848">
        <ele>17.27606201171875</ele>
        <time>2023-12-04T12:55:47Z</time>
        <extensions>
          <gpxtpx:TrackPointExtension>
            <gpxtpx:hr>174</gpxtpx:hr>
          </gpxtpx:TrackPointExtension>
        </extensions>
      </trkpt>
      <trkpt lat="30.93559752827906" lon="113.5582628465255">
        <ele>16.08636474609375</ele>
        <time>2023-12-04T12:56:05Z</time>
        <extensions>
          <gpxtpx:TrackPointExtension>
            <gpxtpx:hr>168</gpxtpx:hr>
          </gpxtpx:TrackPointExtension>
        </extensions>
      </trkpt>
      <trkpt lat="30.935749397599395" lon="113.55823477400884">
        <ele>15.60589599609375</ele>
        <time>2023-12-04T12:56:14Z</time>
        <extensions>
          <gpxtpx:TrackPointExtension>
            <gpxtpx:hr>176</gpxtpx:hr>
          </gpxtpx:TrackPointExtension>
        </extensions>
      </trkpt>
      <trkpt lat="30.935964007265394" lon="113.55805738141319">
        <ele>15.91058349609375</ele>
        <time>2023-12-04T12:56:29Z</time>
        <extensions>
          <gpxtpx:TrackPointExtension>
            <gpxtpx:hr>171</gpxtpx:hr>
          </gpxtpx:TrackPointExtension>
        </extensions>
      </trkpt>
      <trkpt lat="30.936182537955897" lon="113.55782988083672">
        <ele>15.40557861328125</ele>
        <time>2023-12-04T12:56:47Z</time>
        <extensions>
          <gpxtpx:TrackPointExtension>
            <gpxtpx:hr>170</gpxtpx:hr>
          </gpxtpx:TrackPointExtension>
        </extensions>
      </trkpt>
      <trkpt lat="30.936411074295194" lon="113.55761139616706">
        <ele>16.39453125</ele>
        <time>2023-12-04T12:57:05Z</time>
        <extensions>
          <gpxtpx:TrackPointExtension>
            <gpxtpx:hr>171</gpxtpx:hr>
          </gpxtpx:TrackPointExtension>
        </extensions>
      </trkpt>
      <trkpt lat="30.936656661221203" lon="113.55743399564753">
        <ele>17.01776123046875</ele>
        <time>2023-12-04T12:57:23Z</time>
        <extensions>
          <gpxtpx:TrackPointExtension>
            <gpxtpx:hr>171</gpxtpx:hr>
          </gpxtpx:TrackPointExtension>
        </extensions>
      </trkpt>
      <trkpt lat="30.93689615380103" lon="113.55719345860038">
        <ele>18.5338134765625</ele>
        <time>2023-12-04T12:57:44Z</time>
        <extensions>
          <gpxtpx:TrackPointExtension>
            <gpxtpx:hr>171</gpxtpx:hr>
          </gpxtpx:TrackPointExtension>
        </extensions>
      </trkpt>
      <trkpt lat="30.937057732858776" lon="113.55698098644875">
        <ele>18.6953125</ele>
        <time>2023-12-04T12:57:59Z</time>
        <extensions>
          <gpxtpx:TrackPointExtension>
            <gpxtpx:hr>167</gpxtpx:hr>
          </gpxtpx:TrackPointExtension>
        </extensions>
      </trkpt>
      <trkpt lat="30.937116461810277" lon="113.55682764957882">
        <ele>17.10595703125</ele>
        <time>2023-12-04T12:58:08Z</time>
        <extensions>
          <gpxtpx:TrackPointExtension>
            <gpxtpx:hr>164</gpxtpx:hr>
          </gpxtpx:TrackPointExtension>
        </extensions>
      </trkpt>
      <trkpt lat="30.93715291267093" lon="113.55648790769602">
        <ele>18.23419189453125</ele>
        <time>2023-12-04T12:58:26Z</time>
        <extensions>
          <gpxtpx:TrackPointExtension>
            <gpxtpx:hr>170</gpxtpx:hr>
          </gpxtpx:TrackPointExtension>
        </extensions>
      </trkpt>
      <trkpt lat="30.93715738541286" lon="113.55615317437173">
        <ele>21.45355224609375</ele>
        <time>2023-12-04T12:58:41Z</time>
        <extensions>
          <gpxtpx:TrackPointExtension>
            <gpxtpx:hr>172</gpxtpx:hr>
          </gpxtpx:TrackPointExtension>
        </extensions>
      </trkpt>
      <trkpt lat="30.937111866933424" lon="113.5558084182011">
        <ele>23.2928466796875</ele>
        <time>2023-12-04T12:58:59Z</time>
        <extensions>
          <gpxtpx:TrackPointExtension>
            <gpxtpx:hr>172</gpxtpx:hr>
          </gpxtpx:TrackPointExtension>
        </extensions>
      </trkpt>
      <trkpt lat="30.936975464242945" lon="113.55550575850121">
        <ele>19.84942626953125</ele>
        <time>2023-12-04T12:59:17Z</time>
        <extensions>
          <gpxtpx:TrackPointExtension>
            <gpxtpx:hr>173</gpxtpx:hr>
          </gpxtpx:TrackPointExtension>
        </extensions>
      </trkpt>
      <trkpt lat="30.93678413846488" lon="113.5552331668856">
        <ele>16.7791748046875</ele>
        <time>2023-12-04T12:59:35Z</time>
        <extensions>
          <gpxtpx:TrackPointExtension>
            <gpxtpx:hr>173</gpxtpx:hr>
          </gpxtpx:TrackPointExtension>
        </extensions>
      </trkpt>
      <trkpt lat="30.936647808350582" lon="113.5549796098347">
        <ele>14.6988525390625</ele>
        <time>2023-12-04T12:59:50Z</time>
        <extensions>
          <gpxtpx:TrackPointExtension>
            <gpxtpx:hr>170</gpxtpx:hr>
          </gpxtpx:TrackPointExtension>
        </extensions>
      </trkpt>
      <trkpt lat="30.936493381452692" lon="113.5546619062838">
        <ele>15.06304931640625</ele>
        <time>2023-12-04T13:00:08Z</time>
        <extensions>
          <gpxtpx:TrackPointExtension>
            <gpxtpx:hr>172</gpxtpx:hr>
          </gpxtpx:TrackPointExtension>
        </extensions>
      </trkpt>
      <trkpt lat="30.93632401699281" lon="113.55437927943505">
        <ele>15.18389892578125</ele>
        <time>2023-12-04T13:00:26Z</time>
        <extensions>
          <gpxtpx:TrackPointExtension>
            <gpxtpx:hr>170</gpxtpx:hr>
          </gpxtpx:TrackPointExtension>
        </extensions>
      </trkpt>
      <trkpt lat="30.936168657720728" lon="113.55410667068253">
        <ele>14.86138916015625</ele>
        <time>2023-12-04T13:00:44Z</time>
        <extensions>
          <gpxtpx:TrackPointExtension>
            <gpxtpx:hr>167</gpxtpx:hr>
          </gpxtpx:TrackPointExtension>
        </extensions>
      </trkpt>
      <trkpt lat="30.936021227258674" lon="113.55379597015131">
        <ele>13.76068115234375</ele>
        <time>2023-12-04T13:01:02Z</time>
        <extensions>
          <gpxtpx:TrackPointExtension>
            <gpxtpx:hr>159</gpxtpx:hr>
          </gpxtpx:TrackPointExtension>
        </extensions>
      </trkpt>
      <trkpt lat="30.93583589935882" lon="113.55353538478934">
        <ele>14.76263427734375</ele>
        <time>2023-12-04T13:01:20Z</time>
        <extensions>
          <gpxtpx:TrackPointExtension>
            <gpxtpx:hr>157</gpxtpx:hr>
          </gpxtpx:TrackPointExtension>
        </extensions>
      </trkpt>
      <trkpt lat="30.935669561009963" lon="113.55327679935252">
        <ele>13.99066162109375</ele>
        <time>2023-12-04T13:01:38Z</time>
        <extensions>
          <gpxtpx:TrackPointExtension>
            <gpxtpx:hr>166</gpxtpx:hr>
          </gpxtpx:TrackPointExtension>
        </extensions>
      </trkpt>
      <trkpt lat="30.935520167445876" lon="113.55299315079304">
        <ele>14.4384765625</ele>
        <time>2023-12-04T13:01:56Z</time>
        <extensions>
          <gpxtpx:TrackPointExtension>
            <gpxtpx:hr>172</gpxtpx:hr>
          </gpxtpx:TrackPointExtension>
        </extensions>
      </trkpt>
      <trkpt lat="30.935661552145373" lon="113.55326878140696">
        <ele>16.02008056640625</ele>
        <time>2023-12-04T13:02:26Z</time>
        <extensions>
          <gpxtpx:TrackPointExtension>
            <gpxtpx:hr>168</gpxtpx:hr>
          </gpxtpx:TrackPointExtension>
        </extensions>
      </trkpt>
      <trkpt lat="30.935812926280803" lon="113.55354340541335">
        <ele>18.00677490234375</ele>
        <time>2023-12-04T13:02:44Z</time>
        <extensions>
          <gpxtpx:TrackPointExtension>
            <gpxtpx:hr>171</gpxtpx:hr>
          </gpxtpx:TrackPointExtension>
        </extensions>
      </trkpt>
      <trkpt lat="30.935982261789597" lon="113.55380298980431">
        <ele>18.58245849609375</ele>
        <time>2023-12-04T13:03:02Z</time>
        <extensions>
          <gpxtpx:TrackPointExtension>
            <gpxtpx:hr>170</gpxtpx:hr>
          </gpxtpx:TrackPointExtension>
        </extensions>
      </trkpt>
      <trkpt lat="30.936128632978583" lon="113.55407760768156">
        <ele>19.4276123046875</ele>
        <time>2023-12-04T13:03:20Z</time>
        <extensions>
          <gpxtpx:TrackPointExtension>
            <gpxtpx:hr>170</gpxtpx:hr>
          </gpxtpx:TrackPointExtension>
        </extensions>
      </trkpt>
      <trkpt lat="30.936317096895678" lon="113.55442538502592">
        <ele>20.07440185546875</ele>
        <time>2023-12-04T13:03:41Z</time>
        <extensions>
          <gpxtpx:TrackPointExtension>
            <gpxtpx:hr>170</gpxtpx:hr>
          </gpxtpx:TrackPointExtension>
        </extensions>
      </trkpt>
      <trkpt lat="30.93649350578264" lon="113.55473807867827">
        <ele>19.241943359375</ele>
        <time>2023-12-04T13:04:02Z</time>
        <extensions>
          <gpxtpx:TrackPointExtension>
            <gpxtpx:hr>169</gpxtpx:hr>
          </gpxtpx:TrackPointExtension>
        </extensions>
      </trkpt>
      <trkpt lat="30.936650884527992" lon="113.55502771778453">
        <ele>19.03607177734375</ele>
        <time>2023-12-04T13:04:23Z</time>
        <extensions>
          <gpxtpx:TrackPointExtension>
            <gpxtpx:hr>169</gpxtpx:hr>
          </gpxtpx:TrackPointExtension>
        </extensions>
      </trkpt>
      <trkpt lat="30.936810297351553" lon="113.55534140665482">
        <ele>19.95361328125</ele>
        <time>2023-12-04T13:04:44Z</time>
        <extensions>
          <gpxtpx:TrackPointExtension>
            <gpxtpx:hr>170</gpxtpx:hr>
          </gpxtpx:TrackPointExtension>
        </extensions>
      </trkpt>
      <trkpt lat="30.93689033418365" lon="113.55539351587298">
        <ele>20.12353515625</ele>
        <time>2023-12-04T13:04:50Z</time>
        <extensions>
          <gpxtpx:TrackPointExtension>
            <gpxtpx:hr>170</gpxtpx:hr>
          </gpxtpx:TrackPointExtension>
        </extensions>
      </trkpt>
      <trkpt lat="30.93718317393023" lon="113.55540050532143">
        <ele>21.74578857421875</ele>
        <time>2023-12-04T13:05:08Z</time>
        <extensions>
          <gpxtpx:TrackPointExtension>
            <gpxtpx:hr>170</gpxtpx:hr>
          </gpxtpx:TrackPointExtension>
        </extensions>
      </trkpt>
      <trkpt lat="30.937364051902385" lon="113.55539046676459">
        <ele>21.68988037109375</ele>
        <time>2023-12-04T13:05:20Z</time>
        <extensions>
          <gpxtpx:TrackPointExtension>
            <gpxtpx:hr>170</gpxtpx:hr>
          </gpxtpx:TrackPointExtension>
        </extensions>
      </trkpt>
      <trkpt lat="30.93740804865232" lon="113.55540449414124">
        <ele>22.0401611328125</ele>
        <time>2023-12-04T13:05:23Z</time>
        <extensions>
          <gpxtpx:TrackPointExtension>
            <gpxtpx:hr>170</gpxtpx:hr>
          </gpxtpx:TrackPointExtension>
        </extensions>
      </trkpt>
      <trkpt lat="30.937490345279226" lon="113.55561996654751">
        <ele>22.165771484375</ele>
        <time>2023-12-04T13:05:35Z</time>
        <extensions>
          <gpxtpx:TrackPointExtension>
            <gpxtpx:hr>169</gpxtpx:hr>
          </gpxtpx:TrackPointExtension>
        </extensions>
      </trkpt>
      <trkpt lat="30.937481962946254" lon="113.55600582112126">
        <ele>19.90167236328125</ele>
        <time>2023-12-04T13:05:56Z</time>
        <extensions>
          <gpxtpx:TrackPointExtension>
            <gpxtpx:hr>170</gpxtpx:hr>
          </gpxtpx:TrackPointExtension>
        </extensions>
      </trkpt>
      <trkpt lat="30.93746050217437" lon="113.55634055823343">
        <ele>22.44964599609375</ele>
        <time>2023-12-04T13:06:14Z</time>
        <extensions>
          <gpxtpx:TrackPointExtension>
            <gpxtpx:hr>167</gpxtpx:hr>
          </gpxtpx:TrackPointExtension>
        </extensions>
      </trkpt>
      <trkpt lat="30.937444057209984" lon="113.55669032241023">
        <ele>20.615478515625</ele>
        <time>2023-12-04T13:06:32Z</time>
        <extensions>
          <gpxtpx:TrackPointExtension>
            <gpxtpx:hr>170</gpxtpx:hr>
          </gpxtpx:TrackPointExtension>
        </extensions>
      </trkpt>
      <trkpt lat="30.93744554891576" lon="113.55700901232316">
        <ele>20.912109375</ele>
        <time>2023-12-04T13:06:50Z</time>
        <extensions>
          <gpxtpx:TrackPointExtension>
            <gpxtpx:hr>168</gpxtpx:hr>
          </gpxtpx:TrackPointExtension>
        </extensions>
      </trkpt>
      <trkpt lat="30.937437702930893" lon="113.5571062225768">
        <ele>20.8690185546875</ele>
        <time>2023-12-04T13:06:56Z</time>
        <extensions>
          <gpxtpx:TrackPointExtension>
            <gpxtpx:hr>168</gpxtpx:hr>
          </gpxtpx:TrackPointExtension>
        </extensions>
      </trkpt>
      <trkpt lat="30.937476584696583" lon="113.55704408520842">
        <ele>17.8333740234375</ele>
        <time>2023-12-04T13:07:02Z</time>
        <extensions>
          <gpxtpx:TrackPointExtension>
            <gpxtpx:hr>168</gpxtpx:hr>
          </gpxtpx:TrackPointExtension>
        </extensions>
      </trkpt>
      <trkpt lat="30.937465452362375" lon="113.55695389153036">
        <ele>17.56402587890625</ele>
        <time>2023-12-04T13:07:08Z</time>
        <extensions>
          <gpxtpx:TrackPointExtension>
            <gpxtpx:hr>170</gpxtpx:hr>
          </gpxtpx:TrackPointExtension>
        </extensions>
      </trkpt>
      <trkpt lat="30.937465452362375" lon="113.55695389153036">
        <ele>17.56402587890625</ele>
        <time>2023-12-04T13:07:14Z</time>
        <extensions>
          <gpxtpx:TrackPointExtension>
            <gpxtpx:hr>170</gpxtpx:hr>
          </gpxtpx:TrackPointExtension>
        </extensions>
      </trkpt>
      <trkpt lat="30.93747312102007" lon="113.55674243296829">
        <ele>20.119140625</ele>
        <time>2023-12-04T13:07:23Z</time>
        <extensions>
          <gpxtpx:TrackPointExtension>
            <gpxtpx:hr>160</gpxtpx:hr>
          </gpxtpx:TrackPointExtension>
        </extensions>
      </trkpt>
      <trkpt lat="30.937461873852644" lon="113.55657907884745">
        <ele>20.39996337890625</ele>
        <time>2023-12-04T13:07:35Z</time>
        <extensions>
          <gpxtpx:TrackPointExtension>
            <gpxtpx:hr>147</gpxtpx:hr>
          </gpxtpx:TrackPointExtension>
        </extensions>
      </trkpt>
      <trkpt lat="30.937512611215418" lon="113.55642974860658">
        <ele>19.02947998046875</ele>
        <time>2023-12-04T13:07:47Z</time>
        <extensions>
          <gpxtpx:TrackPointExtension>
            <gpxtpx:hr>139</gpxtpx:hr>
          </gpxtpx:TrackPointExtension>
        </extensions>
      </trkpt>
      <trkpt lat="30.9374992923384" lon="113.55622129341279">
        <ele>22.42144775390625</ele>
        <time>2023-12-04T13:07:59Z</time>
        <extensions>
          <gpxtpx:TrackPointExtension>
            <gpxtpx:hr>136</gpxtpx:hr>
          </gpxtpx:TrackPointExtension>
        </extensions>
      </trkpt>
      <trkpt lat="30.93747220417505" lon="113.55615515060481">
        <ele>24.3984375</ele>
        <time>2023-12-04T13:08:05Z</time>
        <extensions>
          <gpxtpx:TrackPointExtension>
            <gpxtpx:hr>135</gpxtpx:hr>
          </gpxtpx:TrackPointExtension>
        </extensions>
      </trkpt>
      <trkpt lat="30.93747220417505" lon="113.55615515060481">
        <ele>24.3984375</ele>
        <time>2023-12-04T13:08:07Z</time>
        <extensions>
          <gpxtpx:TrackPointExtension>
            <gpxtpx:hr>135</gpxtpx:hr>
          </gpxtpx:TrackPointExtension>
        </extensions>
      </trkpt>
    </trkseg>
  </trk>
</gpx>