<?xml version="1.0" encoding="UTF-8"?>
<gpx xmlns="http://www.topografix.com/GPX/1/1" xmlns:gpxtpx="http://www.garmin.com/xmlschemas/TrackPointExtension/v1" xmlns:xsi="http://www.w3.org/2001/XMLSchema-instance" xsi:schemaLocation="http://www.topografix.com/GPX/1/1 http://www.topografix.com/GPX/1/1/gpx.xsd" version="1.1" creator="gpx.py -- https://github.com/tkrajina/gpxpy">
  <trk>
    <name>gpx from keep</name>
    <type>Run</type>
    <trkseg>
      <trkpt lat="30.937230914809692" lon="113.55621081022191">
        <ele>32.71407699584961</ele>
        <time>2022-10-23T12:17:37Z</time>
      </trkpt>
      <trkpt lat="30.937487124908106" lon="113.55631689730487">
        <ele>30.98580551147461</ele>
        <time>2022-10-23T12:17:40Z</time>
      </trkpt>
      <trkpt lat="30.93750884584746" lon="113.55626611632839">
        <ele>31.82180404663086</ele>
        <time>2022-10-23T12:17:43Z</time>
      </trkpt>
      <trkpt lat="30.93753200822846" lon="113.55603357014405">
        <ele>30.86196529213339</ele>
        <time>2022-10-23T12:18:01Z</time>
      </trkpt>
      <trkpt lat="30.93758399022844" lon="113.55590458173474">
        <ele>32.61475037038326</ele>
        <time>2022-10-23T12:18:08Z</time>
      </trkpt>
      <trkpt lat="30.937535995696795" lon="113.55556550830359">
        <ele>31.858669640496373</ele>
        <time>2022-10-23T12:18:32Z</time>
      </trkpt>
      <trkpt lat="30.9375019455208" lon="113.5554075910258">
        <ele>30.412723396904767</ele>
        <time>2022-10-23T12:18:43Z</time>
      </trkpt>
      <trkpt lat="30.937336632734738" lon="113.55538413926206">
        <ele>31.474571267142892</ele>
        <time>2022-10-23T12:18:54Z</time>
      </trkpt>
      <trkpt lat="30.93727706935203" lon="113.55535869743603">
        <ele>31.854309202171862</ele>
        <time>2022-10-23T12:18:58Z</time>
      </trkpt>
      <trkpt lat="30.937002572037954" lon="113.55530971658496">
        <ele>31.649640392512083</ele>
        <time>2022-10-23T12:19:17Z</time>
      </trkpt>
      <trkpt lat="30.936900607877682" lon="113.55530817280048">
        <ele>31.370777710340917</ele>
        <time>2022-10-23T12:19:24Z</time>
      </trkpt>
      <trkpt lat="30.936810109418847" lon="113.55526308820579">
        <ele>30.897894960828125</ele>
        <time>2022-10-23T12:19:31Z</time>
      </trkpt>
      <trkpt lat="30.936773186059607" lon="113.55517792038026">
        <ele>31.21351834293455</ele>
        <time>2022-10-23T12:19:38Z</time>
      </trkpt>
      <trkpt lat="30.93675056280849" lon="113.55505600700272">
        <ele>31.51088355202228</ele>
        <time>2022-10-23T12:19:45Z</time>
      </trkpt>
      <trkpt lat="30.936696278442447" lon="113.55502640152069">
        <ele>31.811654620803893</ele>
        <time>2022-10-23T12:19:48Z</time>
      </trkpt>
      <trkpt lat="30.936640253597925" lon="113.55496660812112">
        <ele>31.661838655360043</ele>
        <time>2022-10-23T12:19:54Z</time>
      </trkpt>
      <trkpt lat="30.93649255104171" lon="113.5546869074041">
        <ele>31.35700528509915</ele>
        <time>2022-10-23T12:20:18Z</time>
      </trkpt>
      <trkpt lat="30.936321258841023" lon="113.55434693488179">
        <ele>31.24702096078545</ele>
        <time>2022-10-23T12:20:42Z</time>
      </trkpt>
      <trkpt lat="30.936178707338588" lon="113.55403932553833">
        <ele>30.10878984257579</ele>
        <time>2022-10-23T12:21:03Z</time>
        <extensions>
          <gpxtpx:TrackPointExtension>
            <gpxtpx:hr>111</gpxtpx:hr>
          </gpxtpx:TrackPointExtension>
        </extensions>
      </trkpt>
      <trkpt lat="30.935981948099652" lon="113.55370276478288">
        <ele>30.566904416307807</ele>
        <time>2022-10-23T12:21:27Z</time>
        <extensions>
          <gpxtpx:TrackPointExtension>
            <gpxtpx:hr>114</gpxtpx:hr>
          </gpxtpx:TrackPointExtension>
        </extensions>
      </trkpt>
      <trkpt lat="30.935783284354603" lon="113.55338120876455">
        <ele>32.089044600725174</ele>
        <time>2022-10-23T12:21:51Z</time>
        <extensions>
          <gpxtpx:TrackPointExtension>
            <gpxtpx:hr>113</gpxtpx:hr>
          </gpxtpx:TrackPointExtension>
        </extensions>
      </trkpt>
      <trkpt lat="30.935668329282237" lon="113.55317645632626">
        <ele>32.015444247983396</ele>
        <time>2022-10-23T12:22:07Z</time>
        <extensions>
          <gpxtpx:TrackPointExtension>
            <gpxtpx:hr>115</gpxtpx:hr>
          </gpxtpx:TrackPointExtension>
        </extensions>
      </trkpt>
      <trkpt lat="30.93562049686266" lon="113.55314221148507">
        <ele>31.196937357075512</ele>
        <time>2022-10-23T12:22:11Z</time>
        <extensions>
          <gpxtpx:TrackPointExtension>
            <gpxtpx:hr>112</gpxtpx:hr>
          </gpxtpx:TrackPointExtension>
        </extensions>
      </trkpt>
      <trkpt lat="30.935515391706872" lon="113.55315988045975">
        <ele>29.443444375880063</ele>
        <time>2022-10-23T12:22:19Z</time>
        <extensions>
          <gpxtpx:TrackPointExtension>
            <gpxtpx:hr>112</gpxtpx:hr>
          </gpxtpx:TrackPointExtension>
        </extensions>
      </trkpt>
      <trkpt lat="30.935457734538716" lon="113.55311085773515">
        <ele>29.21294343750924</ele>
        <time>2022-10-23T12:22:27Z</time>
        <extensions>
          <gpxtpx:TrackPointExtension>
            <gpxtpx:hr>113</gpxtpx:hr>
          </gpxtpx:TrackPointExtension>
        </extensions>
      </trkpt>
      <trkpt lat="30.935369505015956" lon="113.55283933444879">
        <ele>30.38139751367271</ele>
        <time>2022-10-23T12:22:47Z</time>
        <extensions>
          <gpxtpx:TrackPointExtension>
            <gpxtpx:hr>112</gpxtpx:hr>
          </gpxtpx:TrackPointExtension>
        </extensions>
      </trkpt>
      <trkpt lat="30.935331742233398" lon="113.5527975910812">
        <ele>29.727574846707284</ele>
        <time>2022-10-23T12:22:51Z</time>
        <extensions>
          <gpxtpx:TrackPointExtension>
            <gpxtpx:hr>111</gpxtpx:hr>
          </gpxtpx:TrackPointExtension>
        </extensions>
      </trkpt>
      <trkpt lat="30.935266201674256" lon="113.55262238472751">
        <ele>29.76952377241105</ele>
        <time>2022-10-23T12:23:03Z</time>
        <extensions>
          <gpxtpx:TrackPointExtension>
            <gpxtpx:hr>109</gpxtpx:hr>
          </gpxtpx:TrackPointExtension>
        </extensions>
      </trkpt>
      <trkpt lat="30.935167269788042" lon="113.55245131133373">
        <ele>29.462461365386844</ele>
        <time>2022-10-23T12:23:15Z</time>
        <extensions>
          <gpxtpx:TrackPointExtension>
            <gpxtpx:hr>110</gpxtpx:hr>
          </gpxtpx:TrackPointExtension>
        </extensions>
      </trkpt>
      <trkpt lat="30.935129649887923" lon="113.55232782194952">
        <ele>29.95143032167107</ele>
        <time>2022-10-23T12:23:21Z</time>
        <extensions>
          <gpxtpx:TrackPointExtension>
            <gpxtpx:hr>118</gpxtpx:hr>
          </gpxtpx:TrackPointExtension>
        </extensions>
      </trkpt>
      <trkpt lat="30.9349788507329" lon="113.55200451914574">
        <ele>29.317693979479373</ele>
        <time>2022-10-23T12:23:39Z</time>
        <extensions>
          <gpxtpx:TrackPointExtension>
            <gpxtpx:hr>120</gpxtpx:hr>
          </gpxtpx:TrackPointExtension>
        </extensions>
      </trkpt>
      <trkpt lat="30.934847461462912" lon="113.5516794759073">
        <ele>29.1249907463789</ele>
        <time>2022-10-23T12:23:57Z</time>
        <extensions>
          <gpxtpx:TrackPointExtension>
            <gpxtpx:hr>126</gpxtpx:hr>
          </gpxtpx:TrackPointExtension>
        </extensions>
      </trkpt>
      <trkpt lat="30.934824430784236" lon="113.55160602514755">
        <ele>29.01520150899887</ele>
        <time>2022-10-23T12:24:01Z</time>
        <extensions>
          <gpxtpx:TrackPointExtension>
            <gpxtpx:hr>128</gpxtpx:hr>
          </gpxtpx:TrackPointExtension>
        </extensions>
      </trkpt>
      <trkpt lat="30.934845221063593" lon="113.55131114940859">
        <ele>29.22867644112557</ele>
        <time>2022-10-23T12:24:17Z</time>
        <extensions>
          <gpxtpx:TrackPointExtension>
            <gpxtpx:hr>131</gpxtpx:hr>
          </gpxtpx:TrackPointExtension>
        </extensions>
      </trkpt>
      <trkpt lat="30.934907637214085" lon="113.55117779416686">
        <ele>29.016966117545962</ele>
        <time>2022-10-23T12:24:25Z</time>
        <extensions>
          <gpxtpx:TrackPointExtension>
            <gpxtpx:hr>132</gpxtpx:hr>
          </gpxtpx:TrackPointExtension>
        </extensions>
      </trkpt>
      <trkpt lat="30.93495847067413" lon="113.55112958026562">
        <ele>28.855416684411466</ele>
        <time>2022-10-23T12:24:29Z</time>
        <extensions>
          <gpxtpx:TrackPointExtension>
            <gpxtpx:hr>132</gpxtpx:hr>
          </gpxtpx:TrackPointExtension>
        </extensions>
      </trkpt>
      <trkpt lat="30.93484397590052" lon="113.55132635561687">
        <ele>30.560843577608466</ele>
        <time>2022-10-23T12:24:41Z</time>
        <extensions>
          <gpxtpx:TrackPointExtension>
            <gpxtpx:hr>131</gpxtpx:hr>
          </gpxtpx:TrackPointExtension>
        </extensions>
      </trkpt>
      <trkpt lat="30.934811133673588" lon="113.55147332225796">
        <ele>29.86482591740787</ele>
        <time>2022-10-23T12:24:49Z</time>
        <extensions>
          <gpxtpx:TrackPointExtension>
            <gpxtpx:hr>133</gpxtpx:hr>
          </gpxtpx:TrackPointExtension>
        </extensions>
      </trkpt>
      <trkpt lat="30.93482631738378" lon="113.55169474146268">
        <ele>29.909915220923722</ele>
        <time>2022-10-23T12:25:01Z</time>
        <extensions>
          <gpxtpx:TrackPointExtension>
            <gpxtpx:hr>132</gpxtpx:hr>
          </gpxtpx:TrackPointExtension>
        </extensions>
      </trkpt>
      <trkpt lat="30.934960784278747" lon="113.55200950066">
        <ele>29.40470145829022</ele>
        <time>2022-10-23T12:25:19Z</time>
        <extensions>
          <gpxtpx:TrackPointExtension>
            <gpxtpx:hr>133</gpxtpx:hr>
          </gpxtpx:TrackPointExtension>
        </extensions>
      </trkpt>
      <trkpt lat="30.93509280983401" lon="113.55231507943948">
        <ele>30.007793323136866</ele>
        <time>2022-10-23T12:25:37Z</time>
        <extensions>
          <gpxtpx:TrackPointExtension>
            <gpxtpx:hr>133</gpxtpx:hr>
          </gpxtpx:TrackPointExtension>
        </extensions>
      </trkpt>
      <trkpt lat="30.935252069311872" lon="113.55266329190138">
        <ele>30.517329903319478</ele>
        <time>2022-10-23T12:25:59Z</time>
        <extensions>
          <gpxtpx:TrackPointExtension>
            <gpxtpx:hr>134</gpxtpx:hr>
          </gpxtpx:TrackPointExtension>
        </extensions>
      </trkpt>
      <trkpt lat="30.93538350282609" lon="113.55295806239937">
        <ele>30.343552442267537</ele>
        <time>2022-10-23T12:26:17Z</time>
        <extensions>
          <gpxtpx:TrackPointExtension>
            <gpxtpx:hr>133</gpxtpx:hr>
          </gpxtpx:TrackPointExtension>
        </extensions>
      </trkpt>
      <trkpt lat="30.935409254448544" lon="113.55303238958352">
        <ele>29.903494209051132</ele>
        <time>2022-10-23T12:26:21Z</time>
        <extensions>
          <gpxtpx:TrackPointExtension>
            <gpxtpx:hr>133</gpxtpx:hr>
          </gpxtpx:TrackPointExtension>
        </extensions>
      </trkpt>
      <trkpt lat="30.935595533990256" lon="113.55332626028341">
        <ele>29.965098056010902</ele>
        <time>2022-10-23T12:26:41Z</time>
        <extensions>
          <gpxtpx:TrackPointExtension>
            <gpxtpx:hr>131</gpxtpx:hr>
          </gpxtpx:TrackPointExtension>
        </extensions>
      </trkpt>
      <trkpt lat="30.93570973682901" lon="113.55356728763003">
        <ele>30.50411683972925</ele>
        <time>2022-10-23T12:26:57Z</time>
        <extensions>
          <gpxtpx:TrackPointExtension>
            <gpxtpx:hr>136</gpxtpx:hr>
          </gpxtpx:TrackPointExtension>
        </extensions>
      </trkpt>
      <trkpt lat="30.93588662753446" lon="113.55380707631544">
        <ele>29.785212023183703</ele>
        <time>2022-10-23T12:27:17Z</time>
        <extensions>
          <gpxtpx:TrackPointExtension>
            <gpxtpx:hr>125</gpxtpx:hr>
          </gpxtpx:TrackPointExtension>
        </extensions>
      </trkpt>
      <trkpt lat="30.936060877942555" lon="113.55407525963565">
        <ele>29.839910639449954</ele>
        <time>2022-10-23T12:27:40Z</time>
        <extensions>
          <gpxtpx:TrackPointExtension>
            <gpxtpx:hr>117</gpxtpx:hr>
          </gpxtpx:TrackPointExtension>
        </extensions>
      </trkpt>
      <trkpt lat="30.93613248852279" lon="113.55423071199984">
        <ele>30.026376542635262</ele>
        <time>2022-10-23T12:27:52Z</time>
        <extensions>
          <gpxtpx:TrackPointExtension>
            <gpxtpx:hr>122</gpxtpx:hr>
          </gpxtpx:TrackPointExtension>
        </extensions>
      </trkpt>
      <trkpt lat="30.936290833184586" lon="113.5544953003136">
        <ele>29.831741076894104</ele>
        <time>2022-10-23T12:28:12Z</time>
        <extensions>
          <gpxtpx:TrackPointExtension>
            <gpxtpx:hr>117</gpxtpx:hr>
          </gpxtpx:TrackPointExtension>
        </extensions>
      </trkpt>
      <trkpt lat="30.936397396630856" lon="113.5547485348795">
        <ele>30.886435166932642</ele>
        <time>2022-10-23T12:28:28Z</time>
        <extensions>
          <gpxtpx:TrackPointExtension>
            <gpxtpx:hr>117</gpxtpx:hr>
          </gpxtpx:TrackPointExtension>
        </extensions>
      </trkpt>
      <trkpt lat="30.936575709998966" lon="113.55503718660368">
        <ele>30.609841723926365</ele>
        <time>2022-10-23T12:28:44Z</time>
        <extensions>
          <gpxtpx:TrackPointExtension>
            <gpxtpx:hr>122</gpxtpx:hr>
          </gpxtpx:TrackPointExtension>
        </extensions>
      </trkpt>
      <trkpt lat="30.936709560825733" lon="113.55531734600409">
        <ele>30.208202690817416</ele>
        <time>2022-10-23T12:29:00Z</time>
        <extensions>
          <gpxtpx:TrackPointExtension>
            <gpxtpx:hr>125</gpxtpx:hr>
          </gpxtpx:TrackPointExtension>
        </extensions>
      </trkpt>
      <trkpt lat="30.936814027787097" lon="113.5555749106374">
        <ele>31.009071497246623</ele>
        <time>2022-10-23T12:29:15Z</time>
        <extensions>
          <gpxtpx:TrackPointExtension>
            <gpxtpx:hr>132</gpxtpx:hr>
          </gpxtpx:TrackPointExtension>
        </extensions>
      </trkpt>
      <trkpt lat="30.936954272012755" lon="113.55590653295602">
        <ele>30.7339600706473</ele>
        <time>2022-10-23T12:29:35Z</time>
        <extensions>
          <gpxtpx:TrackPointExtension>
            <gpxtpx:hr>129</gpxtpx:hr>
          </gpxtpx:TrackPointExtension>
        </extensions>
      </trkpt>
      <trkpt lat="30.93704524386068" lon="113.55626846108979">
        <ele>30.682957459241152</ele>
        <time>2022-10-23T12:29:55Z</time>
        <extensions>
          <gpxtpx:TrackPointExtension>
            <gpxtpx:hr>134</gpxtpx:hr>
          </gpxtpx:TrackPointExtension>
        </extensions>
      </trkpt>
      <trkpt lat="30.93706100106752" lon="113.5566224212039">
        <ele>29.995701786130667</ele>
        <time>2022-10-23T12:30:14Z</time>
        <extensions>
          <gpxtpx:TrackPointExtension>
            <gpxtpx:hr>136</gpxtpx:hr>
          </gpxtpx:TrackPointExtension>
        </extensions>
      </trkpt>
      <trkpt lat="30.93693324829854" lon="113.55695740072792">
        <ele>30.805968740954995</ele>
        <time>2022-10-23T12:30:34Z</time>
        <extensions>
          <gpxtpx:TrackPointExtension>
            <gpxtpx:hr>130</gpxtpx:hr>
          </gpxtpx:TrackPointExtension>
        </extensions>
      </trkpt>
      <trkpt lat="30.93671463053131" lon="113.55720559644277">
        <ele>31.231990124098957</ele>
        <time>2022-10-23T12:30:54Z</time>
        <extensions>
          <gpxtpx:TrackPointExtension>
            <gpxtpx:hr>131</gpxtpx:hr>
          </gpxtpx:TrackPointExtension>
        </extensions>
      </trkpt>
      <trkpt lat="30.936647241436994" lon="113.55729884052307">
        <ele>31.446725190617144</ele>
        <time>2022-10-23T12:31:01Z</time>
        <extensions>
          <gpxtpx:TrackPointExtension>
            <gpxtpx:hr>137</gpxtpx:hr>
          </gpxtpx:TrackPointExtension>
        </extensions>
      </trkpt>
      <trkpt lat="30.936382015379877" lon="113.5574797066912">
        <ele>30.969721011817455</ele>
        <time>2022-10-23T12:31:20Z</time>
        <extensions>
          <gpxtpx:TrackPointExtension>
            <gpxtpx:hr>137</gpxtpx:hr>
          </gpxtpx:TrackPointExtension>
        </extensions>
      </trkpt>
      <trkpt lat="30.936262171689116" lon="113.55754353976438">
        <ele>31.289813430979848</ele>
        <time>2022-10-23T12:31:28Z</time>
        <extensions>
          <gpxtpx:TrackPointExtension>
            <gpxtpx:hr>137</gpxtpx:hr>
          </gpxtpx:TrackPointExtension>
        </extensions>
      </trkpt>
      <trkpt lat="30.936025119382382" lon="113.55779603867359">
        <ele>31.119868762791157</ele>
        <time>2022-10-23T12:31:47Z</time>
        <extensions>
          <gpxtpx:TrackPointExtension>
            <gpxtpx:hr>134</gpxtpx:hr>
          </gpxtpx:TrackPointExtension>
        </extensions>
      </trkpt>
      <trkpt lat="30.935768988043595" lon="113.55802539214218">
        <ele>31.20172486267984</ele>
        <time>2022-10-23T12:32:07Z</time>
        <extensions>
          <gpxtpx:TrackPointExtension>
            <gpxtpx:hr>132</gpxtpx:hr>
          </gpxtpx:TrackPointExtension>
        </extensions>
      </trkpt>
      <trkpt lat="30.935486791113913" lon="113.55815353951729">
        <ele>30.351943203248084</ele>
        <time>2022-10-23T12:32:30Z</time>
        <extensions>
          <gpxtpx:TrackPointExtension>
            <gpxtpx:hr>129</gpxtpx:hr>
          </gpxtpx:TrackPointExtension>
        </extensions>
      </trkpt>
      <trkpt lat="30.935439129899155" lon="113.5581796185389">
        <ele>30.274276337586343</ele>
        <time>2022-10-23T12:32:34Z</time>
        <extensions>
          <gpxtpx:TrackPointExtension>
            <gpxtpx:hr>129</gpxtpx:hr>
          </gpxtpx:TrackPointExtension>
        </extensions>
      </trkpt>
      <trkpt lat="30.935387726643025" lon="113.5581848051854">
        <ele>30.748252441175282</ele>
        <time>2022-10-23T12:32:38Z</time>
        <extensions>
          <gpxtpx:TrackPointExtension>
            <gpxtpx:hr>126</gpxtpx:hr>
          </gpxtpx:TrackPointExtension>
        </extensions>
      </trkpt>
      <trkpt lat="30.935073060215714" lon="113.55822863499218">
        <ele>31.13798698503524</ele>
        <time>2022-10-23T12:33:02Z</time>
        <extensions>
          <gpxtpx:TrackPointExtension>
            <gpxtpx:hr>119</gpxtpx:hr>
          </gpxtpx:TrackPointExtension>
        </extensions>
      </trkpt>
      <trkpt lat="30.934770340601954" lon="113.55825738183833">
        <ele>30.684082222171128</ele>
        <time>2022-10-23T12:33:26Z</time>
        <extensions>
          <gpxtpx:TrackPointExtension>
            <gpxtpx:hr>119</gpxtpx:hr>
          </gpxtpx:TrackPointExtension>
        </extensions>
      </trkpt>
      <trkpt lat="30.934454483824815" lon="113.55820951172966">
        <ele>31.14019688218832</ele>
        <time>2022-10-23T12:33:46Z</time>
        <extensions>
          <gpxtpx:TrackPointExtension>
            <gpxtpx:hr>120</gpxtpx:hr>
          </gpxtpx:TrackPointExtension>
        </extensions>
      </trkpt>
      <trkpt lat="30.93418740936444" lon="113.55813345398082">
        <ele>29.88679808191955</ele>
        <time>2022-10-23T12:34:02Z</time>
        <extensions>
          <gpxtpx:TrackPointExtension>
            <gpxtpx:hr>125</gpxtpx:hr>
          </gpxtpx:TrackPointExtension>
        </extensions>
      </trkpt>
      <trkpt lat="30.933919268452048" lon="113.5580720498537">
        <ele>30.253966157324612</ele>
        <time>2022-10-23T12:34:18Z</time>
        <extensions>
          <gpxtpx:TrackPointExtension>
            <gpxtpx:hr>130</gpxtpx:hr>
          </gpxtpx:TrackPointExtension>
        </extensions>
      </trkpt>
      <trkpt lat="30.93378531343357" lon="113.55807677619016">
        <ele>29.854270183481276</ele>
        <time>2022-10-23T12:34:26Z</time>
        <extensions>
          <gpxtpx:TrackPointExtension>
            <gpxtpx:hr>130</gpxtpx:hr>
          </gpxtpx:TrackPointExtension>
        </extensions>
      </trkpt>
      <trkpt lat="30.93347880255466" lon="113.55798879378925">
        <ele>30.807336216792464</ele>
        <time>2022-10-23T12:34:45Z</time>
        <extensions>
          <gpxtpx:TrackPointExtension>
            <gpxtpx:hr>135</gpxtpx:hr>
          </gpxtpx:TrackPointExtension>
        </extensions>
      </trkpt>
      <trkpt lat="30.933210507161714" lon="113.55791933218961">
        <ele>29.003098201937973</ele>
        <time>2022-10-23T12:35:01Z</time>
        <extensions>
          <gpxtpx:TrackPointExtension>
            <gpxtpx:hr>137</gpxtpx:hr>
          </gpxtpx:TrackPointExtension>
        </extensions>
      </trkpt>
      <trkpt lat="30.933079480413863" lon="113.55790010282058">
        <ele>28.322696838527918</ele>
        <time>2022-10-23T12:35:09Z</time>
        <extensions>
          <gpxtpx:TrackPointExtension>
            <gpxtpx:hr>138</gpxtpx:hr>
          </gpxtpx:TrackPointExtension>
        </extensions>
      </trkpt>
      <trkpt lat="30.932901190764515" lon="113.55780453796116">
        <ele>27.530503183603287</ele>
        <time>2022-10-23T12:35:21Z</time>
        <extensions>
          <gpxtpx:TrackPointExtension>
            <gpxtpx:hr>138</gpxtpx:hr>
          </gpxtpx:TrackPointExtension>
        </extensions>
      </trkpt>
      <trkpt lat="30.932841701337217" lon="113.55778790050965">
        <ele>27.72000968735665</ele>
        <time>2022-10-23T12:35:25Z</time>
        <extensions>
          <gpxtpx:TrackPointExtension>
            <gpxtpx:hr>138</gpxtpx:hr>
          </gpxtpx:TrackPointExtension>
        </extensions>
      </trkpt>
      <trkpt lat="30.932740587949258" lon="113.55770474457032">
        <ele>27.929830447770655</ele>
        <time>2022-10-23T12:35:33Z</time>
        <extensions>
          <gpxtpx:TrackPointExtension>
            <gpxtpx:hr>137</gpxtpx:hr>
          </gpxtpx:TrackPointExtension>
        </extensions>
      </trkpt>
      <trkpt lat="30.932770270248334" lon="113.55776847023327">
        <ele>29.321387426927686</ele>
        <time>2022-10-23T12:35:41Z</time>
        <extensions>
          <gpxtpx:TrackPointExtension>
            <gpxtpx:hr>133</gpxtpx:hr>
          </gpxtpx:TrackPointExtension>
        </extensions>
      </trkpt>
      <trkpt lat="30.932956252345146" lon="113.55789343040837">
        <ele>29.966967810876667</ele>
        <time>2022-10-23T12:35:53Z</time>
        <extensions>
          <gpxtpx:TrackPointExtension>
            <gpxtpx:hr>138</gpxtpx:hr>
          </gpxtpx:TrackPointExtension>
        </extensions>
      </trkpt>
      <trkpt lat="30.933130889038395" lon="113.55797358864993">
        <ele>29.105556295253336</ele>
        <time>2022-10-23T12:36:05Z</time>
        <extensions>
          <gpxtpx:TrackPointExtension>
            <gpxtpx:hr>135</gpxtpx:hr>
          </gpxtpx:TrackPointExtension>
        </extensions>
      </trkpt>
      <trkpt lat="30.93344507323866" lon="113.5580505161652">
        <ele>29.4668263271451</ele>
        <time>2022-10-23T12:36:25Z</time>
        <extensions>
          <gpxtpx:TrackPointExtension>
            <gpxtpx:hr>135</gpxtpx:hr>
          </gpxtpx:TrackPointExtension>
        </extensions>
      </trkpt>
      <trkpt lat="30.933732869491394" lon="113.55811353530633">
        <ele>31.06944480817765</ele>
        <time>2022-10-23T12:36:44Z</time>
        <extensions>
          <gpxtpx:TrackPointExtension>
            <gpxtpx:hr>134</gpxtpx:hr>
          </gpxtpx:TrackPointExtension>
        </extensions>
      </trkpt>
      <trkpt lat="30.933925230538957" lon="113.55814521713391">
        <ele>30.79331953357905</ele>
        <time>2022-10-23T12:36:56Z</time>
        <extensions>
          <gpxtpx:TrackPointExtension>
            <gpxtpx:hr>132</gpxtpx:hr>
          </gpxtpx:TrackPointExtension>
        </extensions>
      </trkpt>
      <trkpt lat="30.93404820571568" lon="113.55814872790022">
        <ele>30.39027865603566</ele>
        <time>2022-10-23T12:37:04Z</time>
        <extensions>
          <gpxtpx:TrackPointExtension>
            <gpxtpx:hr>132</gpxtpx:hr>
          </gpxtpx:TrackPointExtension>
        </extensions>
      </trkpt>
      <trkpt lat="30.9343648768578" lon="113.5582467651686">
        <ele>32.35544795077294</ele>
        <time>2022-10-23T12:37:24Z</time>
        <extensions>
          <gpxtpx:TrackPointExtension>
            <gpxtpx:hr>136</gpxtpx:hr>
          </gpxtpx:TrackPointExtension>
        </extensions>
      </trkpt>
      <trkpt lat="30.93455735178502" lon="113.55825435180566">
        <ele>31.837259541265666</ele>
        <time>2022-10-23T12:37:36Z</time>
        <extensions>
          <gpxtpx:TrackPointExtension>
            <gpxtpx:hr>135</gpxtpx:hr>
          </gpxtpx:TrackPointExtension>
        </extensions>
      </trkpt>
      <trkpt lat="30.934626955089723" lon="113.55828199882488">
        <ele>31.517329504713416</ele>
        <time>2022-10-23T12:37:40Z</time>
        <extensions>
          <gpxtpx:TrackPointExtension>
            <gpxtpx:hr>136</gpxtpx:hr>
          </gpxtpx:TrackPointExtension>
        </extensions>
      </trkpt>
      <trkpt lat="30.9348642083989" lon="113.55830933220896">
        <ele>32.64780375827104</ele>
        <time>2022-10-23T12:37:55Z</time>
        <extensions>
          <gpxtpx:TrackPointExtension>
            <gpxtpx:hr>136</gpxtpx:hr>
          </gpxtpx:TrackPointExtension>
        </extensions>
      </trkpt>
      <trkpt lat="30.93499738982319" lon="113.55827567301723">
        <ele>31.067720993421972</ele>
        <time>2022-10-23T12:38:03Z</time>
        <extensions>
          <gpxtpx:TrackPointExtension>
            <gpxtpx:hr>137</gpxtpx:hr>
          </gpxtpx:TrackPointExtension>
        </extensions>
      </trkpt>
      <trkpt lat="30.935250656683397" lon="113.55827052456634">
        <ele>31.199942556209862</ele>
        <time>2022-10-23T12:38:19Z</time>
        <extensions>
          <gpxtpx:TrackPointExtension>
            <gpxtpx:hr>134</gpxtpx:hr>
          </gpxtpx:TrackPointExtension>
        </extensions>
      </trkpt>
      <trkpt lat="30.935500017786573" lon="113.55820870378567">
        <ele>30.507490761578083</ele>
        <time>2022-10-23T12:38:35Z</time>
        <extensions>
          <gpxtpx:TrackPointExtension>
            <gpxtpx:hr>136</gpxtpx:hr>
          </gpxtpx:TrackPointExtension>
        </extensions>
      </trkpt>
      <trkpt lat="30.9357280267304" lon="113.55811512408035">
        <ele>30.960991443134844</ele>
        <time>2022-10-23T12:38:50Z</time>
        <extensions>
          <gpxtpx:TrackPointExtension>
            <gpxtpx:hr>137</gpxtpx:hr>
          </gpxtpx:TrackPointExtension>
        </extensions>
      </trkpt>
      <trkpt lat="30.93597641309292" lon="113.557888775779">
        <ele>30.82856288459152</ele>
        <time>2022-10-23T12:39:09Z</time>
        <extensions>
          <gpxtpx:TrackPointExtension>
            <gpxtpx:hr>139</gpxtpx:hr>
          </gpxtpx:TrackPointExtension>
        </extensions>
      </trkpt>
      <trkpt lat="30.936182663360178" lon="113.55766421531222">
        <ele>31.60144293680787</ele>
        <time>2022-10-23T12:39:28Z</time>
        <extensions>
          <gpxtpx:TrackPointExtension>
            <gpxtpx:hr>134</gpxtpx:hr>
          </gpxtpx:TrackPointExtension>
        </extensions>
      </trkpt>
      <trkpt lat="30.936256977798923" lon="113.55759435611827">
        <ele>31.416029803454876</ele>
        <time>2022-10-23T12:39:36Z</time>
        <extensions>
          <gpxtpx:TrackPointExtension>
            <gpxtpx:hr>130</gpxtpx:hr>
          </gpxtpx:TrackPointExtension>
        </extensions>
      </trkpt>
      <trkpt lat="30.9364080193685" lon="113.55751302070435">
        <ele>31.574205426499248</ele>
        <time>2022-10-23T12:39:48Z</time>
        <extensions>
          <gpxtpx:TrackPointExtension>
            <gpxtpx:hr>120</gpxtpx:hr>
          </gpxtpx:TrackPointExtension>
        </extensions>
      </trkpt>
      <trkpt lat="30.936616382993968" lon="113.55735137528197">
        <ele>31.487806098535657</ele>
        <time>2022-10-23T12:40:08Z</time>
        <extensions>
          <gpxtpx:TrackPointExtension>
            <gpxtpx:hr>118</gpxtpx:hr>
          </gpxtpx:TrackPointExtension>
        </extensions>
      </trkpt>
      <trkpt lat="30.93683825006018" lon="113.55709825420526">
        <ele>30.89499089680612</ele>
        <time>2022-10-23T12:40:31Z</time>
        <extensions>
          <gpxtpx:TrackPointExtension>
            <gpxtpx:hr>115</gpxtpx:hr>
          </gpxtpx:TrackPointExtension>
        </extensions>
      </trkpt>
      <trkpt lat="30.936957564427324" lon="113.55695641730664">
        <ele>31.119772971607745</ele>
        <time>2022-10-23T12:40:43Z</time>
        <extensions>
          <gpxtpx:TrackPointExtension>
            <gpxtpx:hr>120</gpxtpx:hr>
          </gpxtpx:TrackPointExtension>
        </extensions>
      </trkpt>
      <trkpt lat="30.937046833699124" lon="113.55674592107601">
        <ele>30.98901110049337</ele>
        <time>2022-10-23T12:40:54Z</time>
        <extensions>
          <gpxtpx:TrackPointExtension>
            <gpxtpx:hr>125</gpxtpx:hr>
          </gpxtpx:TrackPointExtension>
        </extensions>
      </trkpt>
      <trkpt lat="30.937069002705382" lon="113.55642541011699">
        <ele>30.64995153993368</ele>
        <time>2022-10-23T12:41:10Z</time>
        <extensions>
          <gpxtpx:TrackPointExtension>
            <gpxtpx:hr>130</gpxtpx:hr>
          </gpxtpx:TrackPointExtension>
        </extensions>
      </trkpt>
      <trkpt lat="30.937075295367364" lon="113.55617844702775">
        <ele>31.09041312802583</ele>
        <time>2022-10-23T12:41:22Z</time>
        <extensions>
          <gpxtpx:TrackPointExtension>
            <gpxtpx:hr>131</gpxtpx:hr>
          </gpxtpx:TrackPointExtension>
        </extensions>
      </trkpt>
      <trkpt lat="30.937065137532628" lon="113.55609089603117">
        <ele>30.792189055122435</ele>
        <time>2022-10-23T12:41:26Z</time>
        <extensions>
          <gpxtpx:TrackPointExtension>
            <gpxtpx:hr>134</gpxtpx:hr>
          </gpxtpx:TrackPointExtension>
        </extensions>
      </trkpt>
      <trkpt lat="30.936989328264247" lon="113.55593477025003">
        <ele>31.63404363952577</ele>
        <time>2022-10-23T12:41:34Z</time>
        <extensions>
          <gpxtpx:TrackPointExtension>
            <gpxtpx:hr>136</gpxtpx:hr>
          </gpxtpx:TrackPointExtension>
        </extensions>
      </trkpt>
      <trkpt lat="30.936931298880786" lon="113.55569202911376">
        <ele>32.099456610158086</ele>
        <time>2022-10-23T12:41:46Z</time>
        <extensions>
          <gpxtpx:TrackPointExtension>
            <gpxtpx:hr>139</gpxtpx:hr>
          </gpxtpx:TrackPointExtension>
        </extensions>
      </trkpt>
      <trkpt lat="30.936824083348892" lon="113.55547444795786">
        <ele>31.40708929952234</ele>
        <time>2022-10-23T12:41:58Z</time>
        <extensions>
          <gpxtpx:TrackPointExtension>
            <gpxtpx:hr>139</gpxtpx:hr>
          </gpxtpx:TrackPointExtension>
        </extensions>
      </trkpt>
      <trkpt lat="30.936776282939107" lon="113.555415788626">
        <ele>31.383869698271155</ele>
        <time>2022-10-23T12:42:02Z</time>
        <extensions>
          <gpxtpx:TrackPointExtension>
            <gpxtpx:hr>141</gpxtpx:hr>
          </gpxtpx:TrackPointExtension>
        </extensions>
      </trkpt>
      <trkpt lat="30.93671259031987" lon="113.55526395539883">
        <ele>30.30081158131361</ele>
        <time>2022-10-23T12:42:10Z</time>
        <extensions>
          <gpxtpx:TrackPointExtension>
            <gpxtpx:hr>142</gpxtpx:hr>
          </gpxtpx:TrackPointExtension>
        </extensions>
      </trkpt>
      <trkpt lat="30.936623564502142" lon="113.55512599848318">
        <ele>30.24958015140146</ele>
        <time>2022-10-23T12:42:18Z</time>
        <extensions>
          <gpxtpx:TrackPointExtension>
            <gpxtpx:hr>142</gpxtpx:hr>
          </gpxtpx:TrackPointExtension>
        </extensions>
      </trkpt>
      <trkpt lat="30.936488769864184" lon="113.55483452183809">
        <ele>30.081676330417395</ele>
        <time>2022-10-23T12:42:34Z</time>
        <extensions>
          <gpxtpx:TrackPointExtension>
            <gpxtpx:hr>140</gpxtpx:hr>
          </gpxtpx:TrackPointExtension>
        </extensions>
      </trkpt>
      <trkpt lat="30.93632989191039" lon="113.55455255914194">
        <ele>30.26020315568894</ele>
        <time>2022-10-23T12:42:50Z</time>
        <extensions>
          <gpxtpx:TrackPointExtension>
            <gpxtpx:hr>143</gpxtpx:hr>
          </gpxtpx:TrackPointExtension>
        </extensions>
      </trkpt>
      <trkpt lat="30.936238577662394" lon="113.55435665857748">
        <ele>30.042467680759728</ele>
        <time>2022-10-23T12:43:01Z</time>
        <extensions>
          <gpxtpx:TrackPointExtension>
            <gpxtpx:hr>145</gpxtpx:hr>
          </gpxtpx:TrackPointExtension>
        </extensions>
      </trkpt>
      <trkpt lat="30.93606374781329" lon="113.55409379299074">
        <ele>29.828715968877077</ele>
        <time>2022-10-23T12:43:17Z</time>
        <extensions>
          <gpxtpx:TrackPointExtension>
            <gpxtpx:hr>142</gpxtpx:hr>
          </gpxtpx:TrackPointExtension>
        </extensions>
      </trkpt>
      <trkpt lat="30.935930919062827" lon="113.55381625001145">
        <ele>30.249716997146606</ele>
        <time>2022-10-23T12:43:33Z</time>
        <extensions>
          <gpxtpx:TrackPointExtension>
            <gpxtpx:hr>142</gpxtpx:hr>
          </gpxtpx:TrackPointExtension>
        </extensions>
      </trkpt>
      <trkpt lat="30.935723005722892" lon="113.55350886106073">
        <ele>29.733001531101763</ele>
        <time>2022-10-23T12:43:53Z</time>
        <extensions>
          <gpxtpx:TrackPointExtension>
            <gpxtpx:hr>145</gpxtpx:hr>
          </gpxtpx:TrackPointExtension>
        </extensions>
      </trkpt>
      <trkpt lat="30.935555843454587" lon="113.55325651647767">
        <ele>29.62950245384127</ele>
        <time>2022-10-23T12:44:09Z</time>
        <extensions>
          <gpxtpx:TrackPointExtension>
            <gpxtpx:hr>143</gpxtpx:hr>
          </gpxtpx:TrackPointExtension>
        </extensions>
      </trkpt>
      <trkpt lat="30.93539977924046" lon="113.55299601214905">
        <ele>29.399995071813464</ele>
        <time>2022-10-23T12:44:25Z</time>
        <extensions>
          <gpxtpx:TrackPointExtension>
            <gpxtpx:hr>137</gpxtpx:hr>
          </gpxtpx:TrackPointExtension>
        </extensions>
      </trkpt>
      <trkpt lat="30.935307986608084" lon="113.55278958781564">
        <ele>28.98148833308369</ele>
        <time>2022-10-23T12:44:37Z</time>
        <extensions>
          <gpxtpx:TrackPointExtension>
            <gpxtpx:hr>137</gpxtpx:hr>
          </gpxtpx:TrackPointExtension>
        </extensions>
      </trkpt>
      <trkpt lat="30.935220264274434" lon="113.55267478153125">
        <ele>30.464791136793792</ele>
        <time>2022-10-23T12:44:45Z</time>
        <extensions>
          <gpxtpx:TrackPointExtension>
            <gpxtpx:hr>141</gpxtpx:hr>
          </gpxtpx:TrackPointExtension>
        </extensions>
      </trkpt>
      <trkpt lat="30.935206177213963" lon="113.55259141592772">
        <ele>29.69614195730537</ele>
        <time>2022-10-23T12:44:49Z</time>
        <extensions>
          <gpxtpx:TrackPointExtension>
            <gpxtpx:hr>141</gpxtpx:hr>
          </gpxtpx:TrackPointExtension>
        </extensions>
      </trkpt>
      <trkpt lat="30.935068231244518" lon="113.5522555869617">
        <ele>29.934470837935805</ele>
        <time>2022-10-23T12:45:08Z</time>
        <extensions>
          <gpxtpx:TrackPointExtension>
            <gpxtpx:hr>143</gpxtpx:hr>
          </gpxtpx:TrackPointExtension>
        </extensions>
      </trkpt>
      <trkpt lat="30.934985924824865" lon="113.55204043670763">
        <ele>29.92205348610878</ele>
        <time>2022-10-23T12:45:20Z</time>
        <extensions>
          <gpxtpx:TrackPointExtension>
            <gpxtpx:hr>143</gpxtpx:hr>
          </gpxtpx:TrackPointExtension>
        </extensions>
      </trkpt>
      <trkpt lat="30.934844418066074" lon="113.55168941669787">
        <ele>29.01421305909753</ele>
        <time>2022-10-23T12:45:40Z</time>
        <extensions>
          <gpxtpx:TrackPointExtension>
            <gpxtpx:hr>142</gpxtpx:hr>
          </gpxtpx:TrackPointExtension>
        </extensions>
      </trkpt>
      <trkpt lat="30.934808868499665" lon="113.5515451736879">
        <ele>28.377598401159048</ele>
        <time>2022-10-23T12:45:48Z</time>
        <extensions>
          <gpxtpx:TrackPointExtension>
            <gpxtpx:hr>145</gpxtpx:hr>
          </gpxtpx:TrackPointExtension>
        </extensions>
      </trkpt>
      <trkpt lat="30.93482345047327" lon="113.55139461640732">
        <ele>29.374058270826936</ele>
        <time>2022-10-23T12:45:56Z</time>
        <extensions>
          <gpxtpx:TrackPointExtension>
            <gpxtpx:hr>144</gpxtpx:hr>
          </gpxtpx:TrackPointExtension>
        </extensions>
      </trkpt>
      <trkpt lat="30.93489447084938" lon="113.55120508463162">
        <ele>29.27813003025949</ele>
        <time>2022-10-23T12:46:12Z</time>
        <extensions>
          <gpxtpx:TrackPointExtension>
            <gpxtpx:hr>130</gpxtpx:hr>
          </gpxtpx:TrackPointExtension>
        </extensions>
      </trkpt>
      <trkpt lat="30.93511387190336" lon="113.55097276785979">
        <ele>29.914257438853383</ele>
        <time>2022-10-23T12:46:36Z</time>
        <extensions>
          <gpxtpx:TrackPointExtension>
            <gpxtpx:hr>127</gpxtpx:hr>
          </gpxtpx:TrackPointExtension>
        </extensions>
      </trkpt>
      <trkpt lat="30.934940552551513" lon="113.55114611077411">
        <ele>30.889150174334645</ele>
        <time>2022-10-23T12:47:06Z</time>
        <extensions>
          <gpxtpx:TrackPointExtension>
            <gpxtpx:hr>117</gpxtpx:hr>
          </gpxtpx:TrackPointExtension>
        </extensions>
      </trkpt>
      <trkpt lat="30.93484953680221" lon="113.55136179559034">
        <ele>30.263979218900204</ele>
        <time>2022-10-23T12:47:21Z</time>
        <extensions>
          <gpxtpx:TrackPointExtension>
            <gpxtpx:hr>122</gpxtpx:hr>
          </gpxtpx:TrackPointExtension>
        </extensions>
      </trkpt>
      <trkpt lat="30.93485635939097" lon="113.55167527154815">
        <ele>30.154702371917665</ele>
        <time>2022-10-23T12:47:37Z</time>
        <extensions>
          <gpxtpx:TrackPointExtension>
            <gpxtpx:hr>125</gpxtpx:hr>
          </gpxtpx:TrackPointExtension>
        </extensions>
      </trkpt>
      <trkpt lat="30.934891428969554" lon="113.55183184182832">
        <ele>31.160724388435483</ele>
        <time>2022-10-23T12:47:45Z</time>
        <extensions>
          <gpxtpx:TrackPointExtension>
            <gpxtpx:hr>129</gpxtpx:hr>
          </gpxtpx:TrackPointExtension>
        </extensions>
      </trkpt>
      <trkpt lat="30.935042003425735" lon="113.55216960158135">
        <ele>30.60674510896206</ele>
        <time>2022-10-23T12:48:05Z</time>
        <extensions>
          <gpxtpx:TrackPointExtension>
            <gpxtpx:hr>135</gpxtpx:hr>
          </gpxtpx:TrackPointExtension>
        </extensions>
      </trkpt>
      <trkpt lat="30.93519338022195" lon="113.55249204264815">
        <ele>31.374820734374225</ele>
        <time>2022-10-23T12:48:25Z</time>
        <extensions>
          <gpxtpx:TrackPointExtension>
            <gpxtpx:hr>132</gpxtpx:hr>
          </gpxtpx:TrackPointExtension>
        </extensions>
      </trkpt>
      <trkpt lat="30.935347657304128" lon="113.55281955301054">
        <ele>31.476090067997575</ele>
        <time>2022-10-23T12:48:45Z</time>
        <extensions>
          <gpxtpx:TrackPointExtension>
            <gpxtpx:hr>139</gpxtpx:hr>
          </gpxtpx:TrackPointExtension>
        </extensions>
      </trkpt>
      <trkpt lat="30.935471213172164" lon="113.55311136191115">
        <ele>30.396364429034293</ele>
        <time>2022-10-23T12:49:01Z</time>
        <extensions>
          <gpxtpx:TrackPointExtension>
            <gpxtpx:hr>141</gpxtpx:hr>
          </gpxtpx:TrackPointExtension>
        </extensions>
      </trkpt>
      <trkpt lat="30.93561063691714" lon="113.5533850023637">
        <ele>31.097301890142262</ele>
        <time>2022-10-23T12:49:16Z</time>
        <extensions>
          <gpxtpx:TrackPointExtension>
            <gpxtpx:hr>142</gpxtpx:hr>
          </gpxtpx:TrackPointExtension>
        </extensions>
      </trkpt>
      <trkpt lat="30.935770087618295" lon="113.55366189274284">
        <ele>30.169513045810163</ele>
        <time>2022-10-23T12:49:32Z</time>
        <extensions>
          <gpxtpx:TrackPointExtension>
            <gpxtpx:hr>146</gpxtpx:hr>
          </gpxtpx:TrackPointExtension>
        </extensions>
      </trkpt>
      <trkpt lat="30.935963802093536" lon="113.55392964664883">
        <ele>31.543362002819777</ele>
        <time>2022-10-23T12:49:48Z</time>
        <extensions>
          <gpxtpx:TrackPointExtension>
            <gpxtpx:hr>149</gpxtpx:hr>
          </gpxtpx:TrackPointExtension>
        </extensions>
      </trkpt>
      <trkpt lat="30.936136247519734" lon="113.55420548608463">
        <ele>31.19926064182073</ele>
        <time>2022-10-23T12:50:04Z</time>
        <extensions>
          <gpxtpx:TrackPointExtension>
            <gpxtpx:hr>147</gpxtpx:hr>
          </gpxtpx:TrackPointExtension>
        </extensions>
      </trkpt>
      <trkpt lat="30.936290299532917" lon="113.55449523099752">
        <ele>32.67583074886352</ele>
        <time>2022-10-23T12:50:20Z</time>
        <extensions>
          <gpxtpx:TrackPointExtension>
            <gpxtpx:hr>146</gpxtpx:hr>
          </gpxtpx:TrackPointExtension>
        </extensions>
      </trkpt>
      <trkpt lat="30.936407045577575" lon="113.55471224305754">
        <ele>31.671839468181133</ele>
        <time>2022-10-23T12:50:32Z</time>
        <extensions>
          <gpxtpx:TrackPointExtension>
            <gpxtpx:hr>148</gpxtpx:hr>
          </gpxtpx:TrackPointExtension>
        </extensions>
      </trkpt>
      <trkpt lat="30.936470194030527" lon="113.55486440694695">
        <ele>31.778339890763164</ele>
        <time>2022-10-23T12:50:40Z</time>
        <extensions>
          <gpxtpx:TrackPointExtension>
            <gpxtpx:hr>148</gpxtpx:hr>
          </gpxtpx:TrackPointExtension>
        </extensions>
      </trkpt>
      <trkpt lat="30.93661097800402" lon="113.55517443466375">
        <ele>29.98654894065112</ele>
        <time>2022-10-23T12:51:03Z</time>
        <extensions>
          <gpxtpx:TrackPointExtension>
            <gpxtpx:hr>138</gpxtpx:hr>
          </gpxtpx:TrackPointExtension>
        </extensions>
      </trkpt>
      <trkpt lat="30.936752690402766" lon="113.5554492366392">
        <ele>29.16305203270167</ele>
        <time>2022-10-23T12:51:26Z</time>
        <extensions>
          <gpxtpx:TrackPointExtension>
            <gpxtpx:hr>127</gpxtpx:hr>
          </gpxtpx:TrackPointExtension>
        </extensions>
      </trkpt>
      <trkpt lat="30.936907788441573" lon="113.55576650153759">
        <ele>30.941513766534626</ele>
        <time>2022-10-23T12:51:51Z</time>
        <extensions>
          <gpxtpx:TrackPointExtension>
            <gpxtpx:hr>126</gpxtpx:hr>
          </gpxtpx:TrackPointExtension>
        </extensions>
      </trkpt>
      <trkpt lat="30.937007183761146" lon="113.55611394340372">
        <ele>31.248534698970616</ele>
        <time>2022-10-23T12:52:15Z</time>
        <extensions>
          <gpxtpx:TrackPointExtension>
            <gpxtpx:hr>119</gpxtpx:hr>
          </gpxtpx:TrackPointExtension>
        </extensions>
      </trkpt>
      <trkpt lat="30.93706904135508" lon="113.55649119706858">
        <ele>31.663951280526817</ele>
        <time>2022-10-23T12:52:35Z</time>
        <extensions>
          <gpxtpx:TrackPointExtension>
            <gpxtpx:hr>128</gpxtpx:hr>
          </gpxtpx:TrackPointExtension>
        </extensions>
      </trkpt>
      <trkpt lat="30.93706009459617" lon="113.55666782348675">
        <ele>31.640284875407815</ele>
        <time>2022-10-23T12:52:43Z</time>
        <extensions>
          <gpxtpx:TrackPointExtension>
            <gpxtpx:hr>129</gpxtpx:hr>
          </gpxtpx:TrackPointExtension>
        </extensions>
      </trkpt>
      <trkpt lat="30.93698020625592" lon="113.55689202050736">
        <ele>32.31460925936699</ele>
        <time>2022-10-23T12:52:55Z</time>
        <extensions>
          <gpxtpx:TrackPointExtension>
            <gpxtpx:hr>135</gpxtpx:hr>
          </gpxtpx:TrackPointExtension>
        </extensions>
      </trkpt>
      <trkpt lat="30.936779454955943" lon="113.55713022177939">
        <ele>32.080743678845465</ele>
        <time>2022-10-23T12:53:11Z</time>
        <extensions>
          <gpxtpx:TrackPointExtension>
            <gpxtpx:hr>137</gpxtpx:hr>
          </gpxtpx:TrackPointExtension>
        </extensions>
      </trkpt>
      <trkpt lat="30.93662341412027" lon="113.55728968222007">
        <ele>32.2616561492905</ele>
        <time>2022-10-23T12:53:22Z</time>
        <extensions>
          <gpxtpx:TrackPointExtension>
            <gpxtpx:hr>138</gpxtpx:hr>
          </gpxtpx:TrackPointExtension>
        </extensions>
      </trkpt>
      <trkpt lat="30.93637265009779" lon="113.55745970011532">
        <ele>32.40804321318865</ele>
        <time>2022-10-23T12:53:38Z</time>
        <extensions>
          <gpxtpx:TrackPointExtension>
            <gpxtpx:hr>141</gpxtpx:hr>
          </gpxtpx:TrackPointExtension>
        </extensions>
      </trkpt>
      <trkpt lat="30.936253551348333" lon="113.55752363518495">
        <ele>32.1822159755975</ele>
        <time>2022-10-23T12:53:46Z</time>
        <extensions>
          <gpxtpx:TrackPointExtension>
            <gpxtpx:hr>142</gpxtpx:hr>
          </gpxtpx:TrackPointExtension>
        </extensions>
      </trkpt>
      <trkpt lat="30.936106585120235" lon="113.55766634502339">
        <ele>32.257598602212965</ele>
        <time>2022-10-23T12:53:58Z</time>
        <extensions>
          <gpxtpx:TrackPointExtension>
            <gpxtpx:hr>143</gpxtpx:hr>
          </gpxtpx:TrackPointExtension>
        </extensions>
      </trkpt>
      <trkpt lat="30.935918199795573" lon="113.5578983068766">
        <ele>30.890164787881076</ele>
        <time>2022-10-23T12:54:14Z</time>
        <extensions>
          <gpxtpx:TrackPointExtension>
            <gpxtpx:hr>141</gpxtpx:hr>
          </gpxtpx:TrackPointExtension>
        </extensions>
      </trkpt>
      <trkpt lat="30.93568381549347" lon="113.5580672736051">
        <ele>30.673016482964158</ele>
        <time>2022-10-23T12:54:30Z</time>
        <extensions>
          <gpxtpx:TrackPointExtension>
            <gpxtpx:hr>142</gpxtpx:hr>
          </gpxtpx:TrackPointExtension>
        </extensions>
      </trkpt>
      <trkpt lat="30.935413596163404" lon="113.55817519442564">
        <ele>30.037533722817898</ele>
        <time>2022-10-23T12:54:46Z</time>
        <extensions>
          <gpxtpx:TrackPointExtension>
            <gpxtpx:hr>143</gpxtpx:hr>
          </gpxtpx:TrackPointExtension>
        </extensions>
      </trkpt>
      <trkpt lat="30.935205820773387" lon="113.55822571127216">
        <ele>30.109849729575217</ele>
        <time>2022-10-23T12:54:58Z</time>
        <extensions>
          <gpxtpx:TrackPointExtension>
            <gpxtpx:hr>145</gpxtpx:hr>
          </gpxtpx:TrackPointExtension>
        </extensions>
      </trkpt>
      <trkpt lat="30.93492606164229" lon="113.55823787713945">
        <ele>30.81866175122559</ele>
        <time>2022-10-23T12:55:14Z</time>
        <extensions>
          <gpxtpx:TrackPointExtension>
            <gpxtpx:hr>145</gpxtpx:hr>
          </gpxtpx:TrackPointExtension>
        </extensions>
      </trkpt>
      <trkpt lat="30.934786847932575" lon="113.55823505230687">
        <ele>30.643342409282923</ele>
        <time>2022-10-23T12:55:22Z</time>
        <extensions>
          <gpxtpx:TrackPointExtension>
            <gpxtpx:hr>144</gpxtpx:hr>
          </gpxtpx:TrackPointExtension>
        </extensions>
      </trkpt>
      <trkpt lat="30.93444093548631" lon="113.55815845739637">
        <ele>30.15753583610058</ele>
        <time>2022-10-23T12:55:41Z</time>
        <extensions>
          <gpxtpx:TrackPointExtension>
            <gpxtpx:hr>144</gpxtpx:hr>
          </gpxtpx:TrackPointExtension>
        </extensions>
      </trkpt>
      <trkpt lat="30.934184018430177" lon="113.55812341085232">
        <ele>29.88884263765067</ele>
        <time>2022-10-23T12:55:57Z</time>
        <extensions>
          <gpxtpx:TrackPointExtension>
            <gpxtpx:hr>145</gpxtpx:hr>
          </gpxtpx:TrackPointExtension>
        </extensions>
      </trkpt>
      <trkpt lat="30.93413493995503" lon="113.55809975279303">
        <ele>30.27007558941841</ele>
        <time>2022-10-23T12:56:01Z</time>
        <extensions>
          <gpxtpx:TrackPointExtension>
            <gpxtpx:hr>139</gpxtpx:hr>
          </gpxtpx:TrackPointExtension>
        </extensions>
      </trkpt>
      <trkpt lat="30.933787239426852" lon="113.55807306509874">
        <ele>29.88748360425234</ele>
        <time>2022-10-23T12:56:29Z</time>
        <extensions>
          <gpxtpx:TrackPointExtension>
            <gpxtpx:hr>128</gpxtpx:hr>
          </gpxtpx:TrackPointExtension>
        </extensions>
      </trkpt>
      <trkpt lat="30.933507718601163" lon="113.55800192528325">
        <ele>30.173252704553306</ele>
        <time>2022-10-23T12:56:53Z</time>
        <extensions>
          <gpxtpx:TrackPointExtension>
            <gpxtpx:hr>125</gpxtpx:hr>
          </gpxtpx:TrackPointExtension>
        </extensions>
      </trkpt>
      <trkpt lat="30.933271344709105" lon="113.55796671822729">
        <ele>29.069836040958762</ele>
        <time>2022-10-23T12:57:09Z</time>
        <extensions>
          <gpxtpx:TrackPointExtension>
            <gpxtpx:hr>128</gpxtpx:hr>
          </gpxtpx:TrackPointExtension>
        </extensions>
      </trkpt>
      <trkpt lat="30.93305133790771" lon="113.55789877663663">
        <ele>27.313133528456092</ele>
        <time>2022-10-23T12:57:21Z</time>
        <extensions>
          <gpxtpx:TrackPointExtension>
            <gpxtpx:hr>132</gpxtpx:hr>
          </gpxtpx:TrackPointExtension>
        </extensions>
      </trkpt>
      <trkpt lat="30.932748338231036" lon="113.55772929590309">
        <ele>27.76933104917407</ele>
        <time>2022-10-23T12:57:40Z</time>
        <extensions>
          <gpxtpx:TrackPointExtension>
            <gpxtpx:hr>140</gpxtpx:hr>
          </gpxtpx:TrackPointExtension>
        </extensions>
      </trkpt>
      <trkpt lat="30.932695843166137" lon="113.5576832524314">
        <ele>28.26665568444878</ele>
        <time>2022-10-23T12:57:44Z</time>
        <extensions>
          <gpxtpx:TrackPointExtension>
            <gpxtpx:hr>140</gpxtpx:hr>
          </gpxtpx:TrackPointExtension>
        </extensions>
      </trkpt>
      <trkpt lat="30.932852377327784" lon="113.55784065532683">
        <ele>28.393706921488047</ele>
        <time>2022-10-23T12:57:56Z</time>
        <extensions>
          <gpxtpx:TrackPointExtension>
            <gpxtpx:hr>136</gpxtpx:hr>
          </gpxtpx:TrackPointExtension>
        </extensions>
      </trkpt>
      <trkpt lat="30.933126406587323" lon="113.55795754569897">
        <ele>27.81930712610483</ele>
        <time>2022-10-23T12:58:12Z</time>
        <extensions>
          <gpxtpx:TrackPointExtension>
            <gpxtpx:hr>141</gpxtpx:hr>
          </gpxtpx:TrackPointExtension>
        </extensions>
      </trkpt>
      <trkpt lat="30.933396268836496" lon="113.5580462785827">
        <ele>29.556255966424942</ele>
        <time>2022-10-23T12:58:27Z</time>
        <extensions>
          <gpxtpx:TrackPointExtension>
            <gpxtpx:hr>143</gpxtpx:hr>
          </gpxtpx:TrackPointExtension>
        </extensions>
      </trkpt>
      <trkpt lat="30.933693169198655" lon="113.558104936262">
        <ele>30.740305961109698</ele>
        <time>2022-10-23T12:58:43Z</time>
        <extensions>
          <gpxtpx:TrackPointExtension>
            <gpxtpx:hr>147</gpxtpx:hr>
          </gpxtpx:TrackPointExtension>
        </extensions>
      </trkpt>
      <trkpt lat="30.933984175325705" lon="113.55813797572291">
        <ele>29.851650501601398</ele>
        <time>2022-10-23T12:58:59Z</time>
        <extensions>
          <gpxtpx:TrackPointExtension>
            <gpxtpx:hr>148</gpxtpx:hr>
          </gpxtpx:TrackPointExtension>
        </extensions>
      </trkpt>
      <trkpt lat="30.934265039431647" lon="113.55821203415994">
        <ele>31.11369074229151</ele>
        <time>2022-10-23T12:59:15Z</time>
        <extensions>
          <gpxtpx:TrackPointExtension>
            <gpxtpx:hr>143</gpxtpx:hr>
          </gpxtpx:TrackPointExtension>
        </extensions>
      </trkpt>
      <trkpt lat="30.934550360702588" lon="113.55824725959188">
        <ele>32.337863960303366</ele>
        <time>2022-10-23T12:59:31Z</time>
        <extensions>
          <gpxtpx:TrackPointExtension>
            <gpxtpx:hr>146</gpxtpx:hr>
          </gpxtpx:TrackPointExtension>
        </extensions>
      </trkpt>
      <trkpt lat="30.934742656685494" lon="113.55830082747983">
        <ele>31.979252755641937</ele>
        <time>2022-10-23T12:59:42Z</time>
        <extensions>
          <gpxtpx:TrackPointExtension>
            <gpxtpx:hr>144</gpxtpx:hr>
          </gpxtpx:TrackPointExtension>
        </extensions>
      </trkpt>
      <trkpt lat="30.93504280554271" lon="113.55828087362549">
        <ele>31.837775628082454</ele>
        <time>2022-10-23T12:59:58Z</time>
        <extensions>
          <gpxtpx:TrackPointExtension>
            <gpxtpx:hr>152</gpxtpx:hr>
          </gpxtpx:TrackPointExtension>
        </extensions>
      </trkpt>
      <trkpt lat="30.935326976644284" lon="113.55824761374365">
        <ele>30.985007780604064</ele>
        <time>2022-10-23T13:00:14Z</time>
        <extensions>
          <gpxtpx:TrackPointExtension>
            <gpxtpx:hr>150</gpxtpx:hr>
          </gpxtpx:TrackPointExtension>
        </extensions>
      </trkpt>
      <trkpt lat="30.93561523803027" lon="113.55813268030401">
        <ele>29.85326641704887</ele>
        <time>2022-10-23T13:00:34Z</time>
        <extensions>
          <gpxtpx:TrackPointExtension>
            <gpxtpx:hr>147</gpxtpx:hr>
          </gpxtpx:TrackPointExtension>
        </extensions>
      </trkpt>
      <trkpt lat="30.935706935315324" lon="113.55810047943268">
        <ele>29.74410297255963</ele>
        <time>2022-10-23T13:00:42Z</time>
        <extensions>
          <gpxtpx:TrackPointExtension>
            <gpxtpx:hr>136</gpxtpx:hr>
          </gpxtpx:TrackPointExtension>
        </extensions>
      </trkpt>
      <trkpt lat="30.935928002685724" lon="113.55791463563592">
        <ele>29.94129033666104</ele>
        <time>2022-10-23T13:01:02Z</time>
        <extensions>
          <gpxtpx:TrackPointExtension>
            <gpxtpx:hr>131</gpxtpx:hr>
          </gpxtpx:TrackPointExtension>
        </extensions>
      </trkpt>
      <trkpt lat="30.93617712588187" lon="113.55767989826795">
        <ele>30.685060393996537</ele>
        <time>2022-10-23T13:01:26Z</time>
        <extensions>
          <gpxtpx:TrackPointExtension>
            <gpxtpx:hr>126</gpxtpx:hr>
          </gpxtpx:TrackPointExtension>
        </extensions>
      </trkpt>
      <trkpt lat="30.936250002595617" lon="113.55760110112196">
        <ele>30.8303557690233</ele>
        <time>2022-10-23T13:01:34Z</time>
        <extensions>
          <gpxtpx:TrackPointExtension>
            <gpxtpx:hr>124</gpxtpx:hr>
          </gpxtpx:TrackPointExtension>
        </extensions>
      </trkpt>
      <trkpt lat="30.936522590162767" lon="113.55742703000743">
        <ele>31.928909578360617</ele>
        <time>2022-10-23T13:01:52Z</time>
        <extensions>
          <gpxtpx:TrackPointExtension>
            <gpxtpx:hr>130</gpxtpx:hr>
          </gpxtpx:TrackPointExtension>
        </extensions>
      </trkpt>
      <trkpt lat="30.93659519582517" lon="113.55738298672935">
        <ele>31.992227060720325</ele>
        <time>2022-10-23T13:01:56Z</time>
        <extensions>
          <gpxtpx:TrackPointExtension>
            <gpxtpx:hr>136</gpxtpx:hr>
          </gpxtpx:TrackPointExtension>
        </extensions>
      </trkpt>
      <trkpt lat="30.93680190799009" lon="113.55713634620972">
        <ele>32.07845771871507</ele>
        <time>2022-10-23T13:02:11Z</time>
        <extensions>
          <gpxtpx:TrackPointExtension>
            <gpxtpx:hr>138</gpxtpx:hr>
          </gpxtpx:TrackPointExtension>
        </extensions>
      </trkpt>
      <trkpt lat="30.936966695078457" lon="113.5569643265492">
        <ele>31.687705815769732</ele>
        <time>2022-10-23T13:02:22Z</time>
        <extensions>
          <gpxtpx:TrackPointExtension>
            <gpxtpx:hr>142</gpxtpx:hr>
          </gpxtpx:TrackPointExtension>
        </extensions>
      </trkpt>
      <trkpt lat="30.936996911633372" lon="113.55687633965269">
        <ele>31.54882634896785</ele>
        <time>2022-10-23T13:02:26Z</time>
        <extensions>
          <gpxtpx:TrackPointExtension>
            <gpxtpx:hr>142</gpxtpx:hr>
          </gpxtpx:TrackPointExtension>
        </extensions>
      </trkpt>
      <trkpt lat="30.937044899569067" lon="113.55679551775712">
        <ele>30.52913874667138</ele>
        <time>2022-10-23T13:02:30Z</time>
        <extensions>
          <gpxtpx:TrackPointExtension>
            <gpxtpx:hr>144</gpxtpx:hr>
          </gpxtpx:TrackPointExtension>
        </extensions>
      </trkpt>
      <trkpt lat="30.93708879804669" lon="113.55651812545963">
        <ele>29.41278745699674</ele>
        <time>2022-10-23T13:02:42Z</time>
        <extensions>
          <gpxtpx:TrackPointExtension>
            <gpxtpx:hr>144</gpxtpx:hr>
          </gpxtpx:TrackPointExtension>
        </extensions>
      </trkpt>
      <trkpt lat="30.9370450989497" lon="113.55615193472252">
        <ele>30.898093175143003</ele>
        <time>2022-10-23T13:02:58Z</time>
        <extensions>
          <gpxtpx:TrackPointExtension>
            <gpxtpx:hr>148</gpxtpx:hr>
          </gpxtpx:TrackPointExtension>
        </extensions>
      </trkpt>
      <trkpt lat="30.93703546280526" lon="113.55606415662781">
        <ele>30.579780599102378</ele>
        <time>2022-10-23T13:03:02Z</time>
        <extensions>
          <gpxtpx:TrackPointExtension>
            <gpxtpx:hr>150</gpxtpx:hr>
          </gpxtpx:TrackPointExtension>
        </extensions>
      </trkpt>
      <trkpt lat="30.936924661979553" lon="113.55573016558635">
        <ele>31.39202615339309</ele>
        <time>2022-10-23T13:03:18Z</time>
        <extensions>
          <gpxtpx:TrackPointExtension>
            <gpxtpx:hr>149</gpxtpx:hr>
          </gpxtpx:TrackPointExtension>
        </extensions>
      </trkpt>
      <trkpt lat="30.936858552373398" lon="113.55556320678689">
        <ele>31.706948067061603</ele>
        <time>2022-10-23T13:03:26Z</time>
        <extensions>
          <gpxtpx:TrackPointExtension>
            <gpxtpx:hr>148</gpxtpx:hr>
          </gpxtpx:TrackPointExtension>
        </extensions>
      </trkpt>
      <trkpt lat="30.936707566119452" lon="113.55525837441122">
        <ele>30.638705198653042</ele>
        <time>2022-10-23T13:03:42Z</time>
        <extensions>
          <gpxtpx:TrackPointExtension>
            <gpxtpx:hr>154</gpxtpx:hr>
          </gpxtpx:TrackPointExtension>
        </extensions>
      </trkpt>
      <trkpt lat="30.93661979583638" lon="113.55511750491632">
        <ele>30.28123590629548</ele>
        <time>2022-10-23T13:03:50Z</time>
        <extensions>
          <gpxtpx:TrackPointExtension>
            <gpxtpx:hr>155</gpxtpx:hr>
          </gpxtpx:TrackPointExtension>
        </extensions>
      </trkpt>
      <trkpt lat="30.936462554016295" lon="113.55481569413219">
        <ele>30.255580998025835</ele>
        <time>2022-10-23T13:04:06Z</time>
        <extensions>
          <gpxtpx:TrackPointExtension>
            <gpxtpx:hr>153</gpxtpx:hr>
          </gpxtpx:TrackPointExtension>
        </extensions>
      </trkpt>
      <trkpt lat="30.93631264607181" lon="113.55454546405701">
        <ele>30.0763026336208</ele>
        <time>2022-10-23T13:04:21Z</time>
        <extensions>
          <gpxtpx:TrackPointExtension>
            <gpxtpx:hr>155</gpxtpx:hr>
          </gpxtpx:TrackPointExtension>
        </extensions>
      </trkpt>
      <trkpt lat="30.936151687491382" lon="113.55421691910578">
        <ele>31.050716292113066</ele>
        <time>2022-10-23T13:04:37Z</time>
        <extensions>
          <gpxtpx:TrackPointExtension>
            <gpxtpx:hr>156</gpxtpx:hr>
          </gpxtpx:TrackPointExtension>
        </extensions>
      </trkpt>
      <trkpt lat="30.935979755283917" lon="113.55391747694516">
        <ele>29.153031541965902</ele>
        <time>2022-10-23T13:04:53Z</time>
        <extensions>
          <gpxtpx:TrackPointExtension>
            <gpxtpx:hr>156</gpxtpx:hr>
          </gpxtpx:TrackPointExtension>
        </extensions>
      </trkpt>
      <trkpt lat="30.935847721109585" lon="113.55368715992927">
        <ele>29.15177014376968</ele>
        <time>2022-10-23T13:05:05Z</time>
        <extensions>
          <gpxtpx:TrackPointExtension>
            <gpxtpx:hr>155</gpxtpx:hr>
          </gpxtpx:TrackPointExtension>
        </extensions>
      </trkpt>
      <trkpt lat="30.935636164249182" lon="113.55342122432029">
        <ele>29.940669902600348</ele>
        <time>2022-10-23T13:05:21Z</time>
        <extensions>
          <gpxtpx:TrackPointExtension>
            <gpxtpx:hr>157</gpxtpx:hr>
          </gpxtpx:TrackPointExtension>
        </extensions>
      </trkpt>
      <trkpt lat="30.935564124481246" lon="113.55330520654594">
        <ele>30.024926263839006</ele>
        <time>2022-10-23T13:05:29Z</time>
        <extensions>
          <gpxtpx:TrackPointExtension>
            <gpxtpx:hr>152</gpxtpx:hr>
          </gpxtpx:TrackPointExtension>
        </extensions>
      </trkpt>
      <trkpt lat="30.935533614081674" lon="113.55319647320323">
        <ele>29.013724227435887</ele>
        <time>2022-10-23T13:05:37Z</time>
        <extensions>
          <gpxtpx:TrackPointExtension>
            <gpxtpx:hr>149</gpxtpx:hr>
          </gpxtpx:TrackPointExtension>
        </extensions>
      </trkpt>
      <trkpt lat="30.935594644078662" lon="113.5531803173866">
        <ele>30.988094720989466</ele>
        <time>2022-10-23T13:05:49Z</time>
        <extensions>
          <gpxtpx:TrackPointExtension>
            <gpxtpx:hr>142</gpxtpx:hr>
          </gpxtpx:TrackPointExtension>
        </extensions>
      </trkpt>
      <trkpt lat="30.93567003133396" lon="113.55332790602921">
        <ele>29.803180668503046</ele>
        <time>2022-10-23T13:06:04Z</time>
        <extensions>
          <gpxtpx:TrackPointExtension>
            <gpxtpx:hr>140</gpxtpx:hr>
          </gpxtpx:TrackPointExtension>
        </extensions>
      </trkpt>
      <trkpt lat="30.93571714697984" lon="113.55336872463313">
        <ele>29.646711863577366</ele>
        <time>2022-10-23T13:06:08Z</time>
        <extensions>
          <gpxtpx:TrackPointExtension>
            <gpxtpx:hr>140</gpxtpx:hr>
          </gpxtpx:TrackPointExtension>
        </extensions>
      </trkpt>
      <trkpt lat="30.935773051007615" lon="113.55352702887181">
        <ele>29.558736758306623</ele>
        <time>2022-10-23T13:06:20Z</time>
        <extensions>
          <gpxtpx:TrackPointExtension>
            <gpxtpx:hr>137</gpxtpx:hr>
          </gpxtpx:TrackPointExtension>
        </extensions>
      </trkpt>
      <trkpt lat="30.935801761074277" lon="113.55357052596143">
        <ele>29.94038810580969</ele>
        <time>2022-10-23T13:06:24Z</time>
        <extensions>
          <gpxtpx:TrackPointExtension>
            <gpxtpx:hr>136</gpxtpx:hr>
          </gpxtpx:TrackPointExtension>
        </extensions>
      </trkpt>
      <trkpt lat="30.935801761074277" lon="113.55357052596143">
        <ele>29.94038810580969</ele>
        <time>2022-10-23T13:06:29Z</time>
        <extensions>
          <gpxtpx:TrackPointExtension>
            <gpxtpx:hr>136</gpxtpx:hr>
          </gpxtpx:TrackPointExtension>
        </extensions>
      </trkpt>
      <trkpt lat="30.93583349237539" lon="113.5536118313689">
        <ele>29.493798029609025</ele>
        <time>2022-10-23T13:06:34Z</time>
        <extensions>
          <gpxtpx:TrackPointExtension>
            <gpxtpx:hr>136</gpxtpx:hr>
          </gpxtpx:TrackPointExtension>
        </extensions>
      </trkpt>
      <trkpt lat="30.935904241332562" lon="113.55371478737439">
        <ele>29.446133689954877</ele>
        <time>2022-10-23T13:06:42Z</time>
        <extensions>
          <gpxtpx:TrackPointExtension>
            <gpxtpx:hr>125</gpxtpx:hr>
          </gpxtpx:TrackPointExtension>
        </extensions>
      </trkpt>
      <trkpt lat="30.93604713791814" lon="113.55389882023186">
        <ele>30.488287199288607</ele>
        <time>2022-10-23T13:06:58Z</time>
        <extensions>
          <gpxtpx:TrackPointExtension>
            <gpxtpx:hr>124</gpxtpx:hr>
          </gpxtpx:TrackPointExtension>
        </extensions>
      </trkpt>
      <trkpt lat="30.936094155209727" lon="113.5540056237658">
        <ele>30.580310329794884</ele>
        <time>2022-10-23T13:07:06Z</time>
        <extensions>
          <gpxtpx:TrackPointExtension>
            <gpxtpx:hr>122</gpxtpx:hr>
          </gpxtpx:TrackPointExtension>
        </extensions>
      </trkpt>
      <trkpt lat="30.936268317633548" lon="113.55427861837317">
        <ele>30.71416367497295</ele>
        <time>2022-10-23T13:07:30Z</time>
        <extensions>
          <gpxtpx:TrackPointExtension>
            <gpxtpx:hr>120</gpxtpx:hr>
          </gpxtpx:TrackPointExtension>
        </extensions>
      </trkpt>
      <trkpt lat="30.936295517495058" lon="113.55433332807516">
        <ele>31.192179817706347</ele>
        <time>2022-10-23T13:07:34Z</time>
        <extensions>
          <gpxtpx:TrackPointExtension>
            <gpxtpx:hr>120</gpxtpx:hr>
          </gpxtpx:TrackPointExtension>
        </extensions>
      </trkpt>
      <trkpt lat="30.936295517495058" lon="113.55433332807516">
        <ele>31.192179817706347</ele>
        <time>2022-10-23T13:07:36Z</time>
        <extensions>
          <gpxtpx:TrackPointExtension>
            <gpxtpx:hr>120</gpxtpx:hr>
          </gpxtpx:TrackPointExtension>
        </extensions>
      </trkpt>
    </trkseg>
  </trk>
</gpx>