<?xml version="1.0" encoding="UTF-8"?>
<gpx xmlns="http://www.topografix.com/GPX/1/1" xmlns:gpxtpx="http://www.garmin.com/xmlschemas/TrackPointExtension/v1" xmlns:xsi="http://www.w3.org/2001/XMLSchema-instance" xsi:schemaLocation="http://www.topografix.com/GPX/1/1 http://www.topografix.com/GPX/1/1/gpx.xsd" version="1.1" creator="gpx.py -- https://github.com/tkrajina/gpxpy">
  <trk>
    <name>gpx from keep</name>
    <type>Run</type>
    <trkseg>
      <trkpt lat="30.937440896668058" lon="113.55650569188496">
        <ele>37.61428451538086</ele>
        <time>2022-09-28T12:40:16Z</time>
      </trkpt>
      <trkpt lat="30.937496662863133" lon="113.5563917280191">
        <ele>36.71914291381836</ele>
        <time>2022-09-28T12:40:23Z</time>
      </trkpt>
      <trkpt lat="30.937505798478366" lon="113.55612631387444">
        <ele>40.43667249660939</ele>
        <time>2022-09-28T12:40:35Z</time>
      </trkpt>
      <trkpt lat="30.937526515155017" lon="113.55603866278584">
        <ele>37.517422006465495</ele>
        <time>2022-09-28T12:40:39Z</time>
      </trkpt>
      <trkpt lat="30.93754585830684" lon="113.55595668536188">
        <ele>36.252529424615204</ele>
        <time>2022-09-28T12:40:43Z</time>
      </trkpt>
      <trkpt lat="30.937649978162423" lon="113.5558450594169">
        <ele>32.2750777611509</ele>
        <time>2022-09-28T12:40:47Z</time>
      </trkpt>
      <trkpt lat="30.937703794193084" lon="113.55576331908898">
        <ele>31.431206022389233</ele>
        <time>2022-09-28T12:40:51Z</time>
      </trkpt>
      <trkpt lat="30.937720256309362" lon="113.55567881120484">
        <ele>31.72136517241597</ele>
        <time>2022-09-28T12:40:55Z</time>
      </trkpt>
      <trkpt lat="30.937713600931392" lon="113.55558887872604">
        <ele>31.71274909004569</ele>
        <time>2022-09-28T12:40:59Z</time>
      </trkpt>
      <trkpt lat="30.93764188800477" lon="113.55539052287308">
        <ele>32.44168897066265</ele>
        <time>2022-09-28T12:41:07Z</time>
      </trkpt>
      <trkpt lat="30.937594258604854" lon="113.55531606353723">
        <ele>33.20817526523024</ele>
        <time>2022-09-28T12:41:11Z</time>
        <extensions>
          <gpxtpx:TrackPointExtension>
            <gpxtpx:hr>153</gpxtpx:hr>
          </gpxtpx:TrackPointExtension>
        </extensions>
      </trkpt>
      <trkpt lat="30.93751122900967" lon="113.55524411436713">
        <ele>33.78917279280722</ele>
        <time>2022-09-28T12:41:15Z</time>
        <extensions>
          <gpxtpx:TrackPointExtension>
            <gpxtpx:hr>153</gpxtpx:hr>
          </gpxtpx:TrackPointExtension>
        </extensions>
      </trkpt>
      <trkpt lat="30.937218363589636" lon="113.55523281786529">
        <ele>32.43341177050024</ele>
        <time>2022-09-28T12:41:27Z</time>
        <extensions>
          <gpxtpx:TrackPointExtension>
            <gpxtpx:hr>135</gpxtpx:hr>
          </gpxtpx:TrackPointExtension>
        </extensions>
      </trkpt>
      <trkpt lat="30.936929405306756" lon="113.55520457355786">
        <ele>33.96991764381528</ele>
        <time>2022-09-28T12:41:43Z</time>
        <extensions>
          <gpxtpx:TrackPointExtension>
            <gpxtpx:hr>137</gpxtpx:hr>
          </gpxtpx:TrackPointExtension>
        </extensions>
      </trkpt>
      <trkpt lat="30.93676756434066" lon="113.55491676246291">
        <ele>31.23154798988253</ele>
        <time>2022-09-28T12:42:03Z</time>
        <extensions>
          <gpxtpx:TrackPointExtension>
            <gpxtpx:hr>136</gpxtpx:hr>
          </gpxtpx:TrackPointExtension>
        </extensions>
      </trkpt>
      <trkpt lat="30.93669744191926" lon="113.55478932403753">
        <ele>31.380268038250506</ele>
        <time>2022-09-28T12:42:11Z</time>
        <extensions>
          <gpxtpx:TrackPointExtension>
            <gpxtpx:hr>134</gpxtpx:hr>
          </gpxtpx:TrackPointExtension>
        </extensions>
      </trkpt>
      <trkpt lat="30.93650269552311" lon="113.55449766210884">
        <ele>31.261253998614848</ele>
        <time>2022-09-28T12:42:29Z</time>
        <extensions>
          <gpxtpx:TrackPointExtension>
            <gpxtpx:hr>142</gpxtpx:hr>
          </gpxtpx:TrackPointExtension>
        </extensions>
      </trkpt>
      <trkpt lat="30.93635912687538" lon="113.55418410461533">
        <ele>30.772913824766874</ele>
        <time>2022-09-28T12:42:48Z</time>
        <extensions>
          <gpxtpx:TrackPointExtension>
            <gpxtpx:hr>139</gpxtpx:hr>
          </gpxtpx:TrackPointExtension>
        </extensions>
      </trkpt>
      <trkpt lat="30.93617776271757" lon="113.55387209810249">
        <ele>30.557367241941392</ele>
        <time>2022-09-28T12:43:08Z</time>
        <extensions>
          <gpxtpx:TrackPointExtension>
            <gpxtpx:hr>141</gpxtpx:hr>
          </gpxtpx:TrackPointExtension>
        </extensions>
      </trkpt>
      <trkpt lat="30.936094548830148" lon="113.5537484279716">
        <ele>31.20611566863954</ele>
        <time>2022-09-28T12:43:16Z</time>
        <extensions>
          <gpxtpx:TrackPointExtension>
            <gpxtpx:hr>139</gpxtpx:hr>
          </gpxtpx:TrackPointExtension>
        </extensions>
      </trkpt>
      <trkpt lat="30.93601926864923" lon="113.55361424892075">
        <ele>32.342643078416586</ele>
        <time>2022-09-28T12:43:24Z</time>
        <extensions>
          <gpxtpx:TrackPointExtension>
            <gpxtpx:hr>142</gpxtpx:hr>
          </gpxtpx:TrackPointExtension>
        </extensions>
      </trkpt>
      <trkpt lat="30.93585924507272" lon="113.5534328958411">
        <ele>31.014144726097584</ele>
        <time>2022-09-28T12:43:36Z</time>
        <extensions>
          <gpxtpx:TrackPointExtension>
            <gpxtpx:hr>145</gpxtpx:hr>
          </gpxtpx:TrackPointExtension>
        </extensions>
      </trkpt>
      <trkpt lat="30.935704217616486" lon="113.55315931467041">
        <ele>30.914686650037766</ele>
        <time>2022-09-28T12:43:52Z</time>
        <extensions>
          <gpxtpx:TrackPointExtension>
            <gpxtpx:hr>142</gpxtpx:hr>
          </gpxtpx:TrackPointExtension>
        </extensions>
      </trkpt>
      <trkpt lat="30.935591290668896" lon="113.55295759134364">
        <ele>31.324223147705197</ele>
        <time>2022-09-28T12:44:04Z</time>
        <extensions>
          <gpxtpx:TrackPointExtension>
            <gpxtpx:hr>142</gpxtpx:hr>
          </gpxtpx:TrackPointExtension>
        </extensions>
      </trkpt>
      <trkpt lat="30.93557821698965" lon="113.55287547349474">
        <ele>31.934194838628173</ele>
        <time>2022-09-28T12:44:08Z</time>
        <extensions>
          <gpxtpx:TrackPointExtension>
            <gpxtpx:hr>142</gpxtpx:hr>
          </gpxtpx:TrackPointExtension>
        </extensions>
      </trkpt>
      <trkpt lat="30.9354424259822" lon="113.55258142427623">
        <ele>31.376532085239887</ele>
        <time>2022-09-28T12:44:24Z</time>
        <extensions>
          <gpxtpx:TrackPointExtension>
            <gpxtpx:hr>142</gpxtpx:hr>
          </gpxtpx:TrackPointExtension>
        </extensions>
      </trkpt>
      <trkpt lat="30.93536410591955" lon="113.55246978320287">
        <ele>31.3856956101954</ele>
        <time>2022-09-28T12:44:31Z</time>
        <extensions>
          <gpxtpx:TrackPointExtension>
            <gpxtpx:hr>143</gpxtpx:hr>
          </gpxtpx:TrackPointExtension>
        </extensions>
      </trkpt>
      <trkpt lat="30.93523163122312" lon="113.55214791389092">
        <ele>31.254375467076898</ele>
        <time>2022-09-28T12:44:49Z</time>
        <extensions>
          <gpxtpx:TrackPointExtension>
            <gpxtpx:hr>143</gpxtpx:hr>
          </gpxtpx:TrackPointExtension>
        </extensions>
      </trkpt>
      <trkpt lat="30.935098628405107" lon="113.55186402476647">
        <ele>30.326184350065887</ele>
        <time>2022-09-28T12:45:05Z</time>
        <extensions>
          <gpxtpx:TrackPointExtension>
            <gpxtpx:hr>142</gpxtpx:hr>
          </gpxtpx:TrackPointExtension>
        </extensions>
      </trkpt>
      <trkpt lat="30.93498467519855" lon="113.55156298950266">
        <ele>30.080088229849935</ele>
        <time>2022-09-28T12:45:21Z</time>
        <extensions>
          <gpxtpx:TrackPointExtension>
            <gpxtpx:hr>146</gpxtpx:hr>
          </gpxtpx:TrackPointExtension>
        </extensions>
      </trkpt>
      <trkpt lat="30.93498315876986" lon="113.55140670479862">
        <ele>29.759668468497694</ele>
        <time>2022-09-28T12:45:29Z</time>
        <extensions>
          <gpxtpx:TrackPointExtension>
            <gpxtpx:hr>148</gpxtpx:hr>
          </gpxtpx:TrackPointExtension>
        </extensions>
      </trkpt>
      <trkpt lat="30.93500442066825" lon="113.55133338617841">
        <ele>29.63013797812164</ele>
        <time>2022-09-28T12:45:33Z</time>
        <extensions>
          <gpxtpx:TrackPointExtension>
            <gpxtpx:hr>148</gpxtpx:hr>
          </gpxtpx:TrackPointExtension>
        </extensions>
      </trkpt>
      <trkpt lat="30.935213973250658" lon="113.55109181110828">
        <ele>30.549460847862065</ele>
        <time>2022-09-28T12:45:49Z</time>
        <extensions>
          <gpxtpx:TrackPointExtension>
            <gpxtpx:hr>146</gpxtpx:hr>
          </gpxtpx:TrackPointExtension>
        </extensions>
      </trkpt>
      <trkpt lat="30.935441068323033" lon="113.5508165405503">
        <ele>31.269630807451904</ele>
        <time>2022-09-28T12:46:09Z</time>
        <extensions>
          <gpxtpx:TrackPointExtension>
            <gpxtpx:hr>146</gpxtpx:hr>
          </gpxtpx:TrackPointExtension>
        </extensions>
      </trkpt>
      <trkpt lat="30.93547657477459" lon="113.55075320574993">
        <ele>31.61601476278156</ele>
        <time>2022-09-28T12:46:13Z</time>
        <extensions>
          <gpxtpx:TrackPointExtension>
            <gpxtpx:hr>145</gpxtpx:hr>
          </gpxtpx:TrackPointExtension>
        </extensions>
      </trkpt>
      <trkpt lat="30.935336281779897" lon="113.55069263895857">
        <ele>32.479138761758804</ele>
        <time>2022-09-28T12:46:21Z</time>
        <extensions>
          <gpxtpx:TrackPointExtension>
            <gpxtpx:hr>141</gpxtpx:hr>
          </gpxtpx:TrackPointExtension>
        </extensions>
      </trkpt>
      <trkpt lat="30.93503280027885" lon="113.55065717114088">
        <ele>32.10216077975929</ele>
        <time>2022-09-28T12:46:39Z</time>
        <extensions>
          <gpxtpx:TrackPointExtension>
            <gpxtpx:hr>146</gpxtpx:hr>
          </gpxtpx:TrackPointExtension>
        </extensions>
      </trkpt>
      <trkpt lat="30.93474408436759" lon="113.55063140630381">
        <ele>31.49826767295599</ele>
        <time>2022-09-28T12:46:57Z</time>
        <extensions>
          <gpxtpx:TrackPointExtension>
            <gpxtpx:hr>141</gpxtpx:hr>
          </gpxtpx:TrackPointExtension>
        </extensions>
      </trkpt>
      <trkpt lat="30.934647610040045" lon="113.55064396388659">
        <ele>30.129237320274115</ele>
        <time>2022-09-28T12:47:03Z</time>
        <extensions>
          <gpxtpx:TrackPointExtension>
            <gpxtpx:hr>141</gpxtpx:hr>
          </gpxtpx:TrackPointExtension>
        </extensions>
      </trkpt>
      <trkpt lat="30.934575645026513" lon="113.55063332651798">
        <ele>30.22841146402061</ele>
        <time>2022-09-28T12:47:07Z</time>
        <extensions>
          <gpxtpx:TrackPointExtension>
            <gpxtpx:hr>141</gpxtpx:hr>
          </gpxtpx:TrackPointExtension>
        </extensions>
      </trkpt>
      <trkpt lat="30.934503725712943" lon="113.55064392799771">
        <ele>29.946467609144747</ele>
        <time>2022-09-28T12:47:11Z</time>
        <extensions>
          <gpxtpx:TrackPointExtension>
            <gpxtpx:hr>141</gpxtpx:hr>
          </gpxtpx:TrackPointExtension>
        </extensions>
      </trkpt>
      <trkpt lat="30.93444880814668" lon="113.55068438021038">
        <ele>31.06312890537083</ele>
        <time>2022-09-28T12:47:15Z</time>
        <extensions>
          <gpxtpx:TrackPointExtension>
            <gpxtpx:hr>139</gpxtpx:hr>
          </gpxtpx:TrackPointExtension>
        </extensions>
      </trkpt>
      <trkpt lat="30.934370226137673" lon="113.55102416228075">
        <ele>30.638050515204668</ele>
        <time>2022-09-28T12:47:31Z</time>
        <extensions>
          <gpxtpx:TrackPointExtension>
            <gpxtpx:hr>139</gpxtpx:hr>
          </gpxtpx:TrackPointExtension>
        </extensions>
      </trkpt>
      <trkpt lat="30.934278873157844" lon="113.55139652484942">
        <ele>30.714490432292223</ele>
        <time>2022-09-28T12:47:51Z</time>
        <extensions>
          <gpxtpx:TrackPointExtension>
            <gpxtpx:hr>145</gpxtpx:hr>
          </gpxtpx:TrackPointExtension>
        </extensions>
      </trkpt>
      <trkpt lat="30.934278519852548" lon="113.55163976601388">
        <ele>31.62176342587918</ele>
        <time>2022-09-28T12:48:03Z</time>
        <extensions>
          <gpxtpx:TrackPointExtension>
            <gpxtpx:hr>145</gpxtpx:hr>
          </gpxtpx:TrackPointExtension>
        </extensions>
      </trkpt>
      <trkpt lat="30.934292891570585" lon="113.5517166494342">
        <ele>32.11873032245785</ele>
        <time>2022-09-28T12:48:07Z</time>
        <extensions>
          <gpxtpx:TrackPointExtension>
            <gpxtpx:hr>147</gpxtpx:hr>
          </gpxtpx:TrackPointExtension>
        </extensions>
      </trkpt>
      <trkpt lat="30.934294120347364" lon="113.55190210245789">
        <ele>32.8285143468529</ele>
        <time>2022-09-28T12:48:15Z</time>
        <extensions>
          <gpxtpx:TrackPointExtension>
            <gpxtpx:hr>150</gpxtpx:hr>
          </gpxtpx:TrackPointExtension>
        </extensions>
      </trkpt>
      <trkpt lat="30.934345821748543" lon="113.55209061300476">
        <ele>32.70938682556152</ele>
        <time>2022-09-28T12:48:23Z</time>
        <extensions>
          <gpxtpx:TrackPointExtension>
            <gpxtpx:hr>153</gpxtpx:hr>
          </gpxtpx:TrackPointExtension>
        </extensions>
      </trkpt>
      <trkpt lat="30.93447447193808" lon="113.55237909774466">
        <ele>32.070772347040474</ele>
        <time>2022-09-28T12:48:35Z</time>
        <extensions>
          <gpxtpx:TrackPointExtension>
            <gpxtpx:hr>157</gpxtpx:hr>
          </gpxtpx:TrackPointExtension>
        </extensions>
      </trkpt>
      <trkpt lat="30.9346263317564" lon="113.55269797160511">
        <ele>30.759605857543647</ele>
        <time>2022-09-28T12:48:49Z</time>
        <extensions>
          <gpxtpx:TrackPointExtension>
            <gpxtpx:hr>154</gpxtpx:hr>
          </gpxtpx:TrackPointExtension>
        </extensions>
      </trkpt>
      <trkpt lat="30.93478793090871" lon="113.55304712483482">
        <ele>31.9464730322361</ele>
        <time>2022-09-28T12:49:05Z</time>
        <extensions>
          <gpxtpx:TrackPointExtension>
            <gpxtpx:hr>158</gpxtpx:hr>
          </gpxtpx:TrackPointExtension>
        </extensions>
      </trkpt>
      <trkpt lat="30.934859568820766" lon="113.55323005433864">
        <ele>32.600312386639416</ele>
        <time>2022-09-28T12:49:13Z</time>
        <extensions>
          <gpxtpx:TrackPointExtension>
            <gpxtpx:hr>156</gpxtpx:hr>
          </gpxtpx:TrackPointExtension>
        </extensions>
      </trkpt>
      <trkpt lat="30.935051648351784" lon="113.55351417382272">
        <ele>31.6500973822549</ele>
        <time>2022-09-28T12:49:29Z</time>
        <extensions>
          <gpxtpx:TrackPointExtension>
            <gpxtpx:hr>156</gpxtpx:hr>
          </gpxtpx:TrackPointExtension>
        </extensions>
      </trkpt>
      <trkpt lat="30.935197647089932" lon="113.5537483948024">
        <ele>30.98689920268953</ele>
        <time>2022-09-28T12:49:45Z</time>
        <extensions>
          <gpxtpx:TrackPointExtension>
            <gpxtpx:hr>151</gpxtpx:hr>
          </gpxtpx:TrackPointExtension>
        </extensions>
      </trkpt>
      <trkpt lat="30.93532361422731" lon="113.5540222177497">
        <ele>30.60131072346121</ele>
        <time>2022-09-28T12:50:01Z</time>
        <extensions>
          <gpxtpx:TrackPointExtension>
            <gpxtpx:hr>149</gpxtpx:hr>
          </gpxtpx:TrackPointExtension>
        </extensions>
      </trkpt>
      <trkpt lat="30.93550103785676" lon="113.55434914633172">
        <ele>30.218760373070836</ele>
        <time>2022-09-28T12:50:21Z</time>
        <extensions>
          <gpxtpx:TrackPointExtension>
            <gpxtpx:hr>142</gpxtpx:hr>
          </gpxtpx:TrackPointExtension>
        </extensions>
      </trkpt>
      <trkpt lat="30.93564198253708" lon="113.55462679453271">
        <ele>31.311326104216278</ele>
        <time>2022-09-28T12:50:37Z</time>
        <extensions>
          <gpxtpx:TrackPointExtension>
            <gpxtpx:hr>147</gpxtpx:hr>
          </gpxtpx:TrackPointExtension>
        </extensions>
      </trkpt>
      <trkpt lat="30.935798805228227" lon="113.5549205024939">
        <ele>30.77741038426757</ele>
        <time>2022-09-28T12:50:54Z</time>
        <extensions>
          <gpxtpx:TrackPointExtension>
            <gpxtpx:hr>144</gpxtpx:hr>
          </gpxtpx:TrackPointExtension>
        </extensions>
      </trkpt>
      <trkpt lat="30.93595845235472" lon="113.55518373421168">
        <ele>30.672660313546658</ele>
        <time>2022-09-28T12:51:12Z</time>
        <extensions>
          <gpxtpx:TrackPointExtension>
            <gpxtpx:hr>144</gpxtpx:hr>
          </gpxtpx:TrackPointExtension>
        </extensions>
      </trkpt>
      <trkpt lat="30.936138653603123" lon="113.55549530044115">
        <ele>29.409997693262994</ele>
        <time>2022-09-28T12:51:32Z</time>
        <extensions>
          <gpxtpx:TrackPointExtension>
            <gpxtpx:hr>146</gpxtpx:hr>
          </gpxtpx:TrackPointExtension>
        </extensions>
      </trkpt>
      <trkpt lat="30.93630010359607" lon="113.55579882500905">
        <ele>31.123513133265078</ele>
        <time>2022-09-28T12:51:51Z</time>
        <extensions>
          <gpxtpx:TrackPointExtension>
            <gpxtpx:hr>143</gpxtpx:hr>
          </gpxtpx:TrackPointExtension>
        </extensions>
      </trkpt>
      <trkpt lat="30.93638716017482" lon="113.55599852489058">
        <ele>31.060882120393217</ele>
        <time>2022-09-28T12:52:03Z</time>
        <extensions>
          <gpxtpx:TrackPointExtension>
            <gpxtpx:hr>139</gpxtpx:hr>
          </gpxtpx:TrackPointExtension>
        </extensions>
      </trkpt>
      <trkpt lat="30.936421128549593" lon="113.55629673286211">
        <ele>30.08361793588847</ele>
        <time>2022-09-28T12:52:19Z</time>
        <extensions>
          <gpxtpx:TrackPointExtension>
            <gpxtpx:hr>138</gpxtpx:hr>
          </gpxtpx:TrackPointExtension>
        </extensions>
      </trkpt>
      <trkpt lat="30.936329763940854" lon="113.55666043291042">
        <ele>30.14621381647885</ele>
        <time>2022-09-28T12:52:39Z</time>
        <extensions>
          <gpxtpx:TrackPointExtension>
            <gpxtpx:hr>142</gpxtpx:hr>
          </gpxtpx:TrackPointExtension>
        </extensions>
      </trkpt>
      <trkpt lat="30.936206871848402" lon="113.55685477716673">
        <ele>29.499060245230794</ele>
        <time>2022-09-28T12:52:51Z</time>
        <extensions>
          <gpxtpx:TrackPointExtension>
            <gpxtpx:hr>144</gpxtpx:hr>
          </gpxtpx:TrackPointExtension>
        </extensions>
      </trkpt>
      <trkpt lat="30.935969063149237" lon="113.55704949853941">
        <ele>30.03493377380073</ele>
        <time>2022-09-28T12:53:07Z</time>
        <extensions>
          <gpxtpx:TrackPointExtension>
            <gpxtpx:hr>150</gpxtpx:hr>
          </gpxtpx:TrackPointExtension>
        </extensions>
      </trkpt>
      <trkpt lat="30.935672378368665" lon="113.55721701158784">
        <ele>30.780411148443818</ele>
        <time>2022-09-28T12:53:26Z</time>
        <extensions>
          <gpxtpx:TrackPointExtension>
            <gpxtpx:hr>147</gpxtpx:hr>
          </gpxtpx:TrackPointExtension>
        </extensions>
      </trkpt>
      <trkpt lat="30.935373360611383" lon="113.5573693180358">
        <ele>30.67639378271997</ele>
        <time>2022-09-28T12:53:46Z</time>
        <extensions>
          <gpxtpx:TrackPointExtension>
            <gpxtpx:hr>144</gpxtpx:hr>
          </gpxtpx:TrackPointExtension>
        </extensions>
      </trkpt>
      <trkpt lat="30.93504921097883" lon="113.55746962856266">
        <ele>30.478264378383756</ele>
        <time>2022-09-28T12:54:06Z</time>
        <extensions>
          <gpxtpx:TrackPointExtension>
            <gpxtpx:hr>145</gpxtpx:hr>
          </gpxtpx:TrackPointExtension>
        </extensions>
      </trkpt>
      <trkpt lat="30.934795491261998" lon="113.55752350730526">
        <ele>30.606242242269218</ele>
        <time>2022-09-28T12:54:22Z</time>
        <extensions>
          <gpxtpx:TrackPointExtension>
            <gpxtpx:hr>146</gpxtpx:hr>
          </gpxtpx:TrackPointExtension>
        </extensions>
      </trkpt>
      <trkpt lat="30.934518043713837" lon="113.55751149441785">
        <ele>31.506918002851307</ele>
        <time>2022-09-28T12:54:38Z</time>
        <extensions>
          <gpxtpx:TrackPointExtension>
            <gpxtpx:hr>143</gpxtpx:hr>
          </gpxtpx:TrackPointExtension>
        </extensions>
      </trkpt>
      <trkpt lat="30.93424569081955" lon="113.55751146555107">
        <ele>31.68370057735592</ele>
        <time>2022-09-28T12:54:54Z</time>
        <extensions>
          <gpxtpx:TrackPointExtension>
            <gpxtpx:hr>141</gpxtpx:hr>
          </gpxtpx:TrackPointExtension>
        </extensions>
      </trkpt>
      <trkpt lat="30.933926976230712" lon="113.55744190051296">
        <ele>32.44429049734026</ele>
        <time>2022-09-28T12:55:14Z</time>
        <extensions>
          <gpxtpx:TrackPointExtension>
            <gpxtpx:hr>140</gpxtpx:hr>
          </gpxtpx:TrackPointExtension>
        </extensions>
      </trkpt>
      <trkpt lat="30.933830441089377" lon="113.55743981521752">
        <ele>32.36297485977411</ele>
        <time>2022-09-28T12:55:20Z</time>
        <extensions>
          <gpxtpx:TrackPointExtension>
            <gpxtpx:hr>140</gpxtpx:hr>
          </gpxtpx:TrackPointExtension>
        </extensions>
      </trkpt>
      <trkpt lat="30.933625966960197" lon="113.55734807962298">
        <ele>33.27090472728014</ele>
        <time>2022-09-28T12:55:34Z</time>
        <extensions>
          <gpxtpx:TrackPointExtension>
            <gpxtpx:hr>142</gpxtpx:hr>
          </gpxtpx:TrackPointExtension>
        </extensions>
      </trkpt>
      <trkpt lat="30.93351243904058" lon="113.55732851502148">
        <ele>33.30612751841545</ele>
        <time>2022-09-28T12:55:41Z</time>
        <extensions>
          <gpxtpx:TrackPointExtension>
            <gpxtpx:hr>144</gpxtpx:hr>
          </gpxtpx:TrackPointExtension>
        </extensions>
      </trkpt>
      <trkpt lat="30.933324153957617" lon="113.5572496823663">
        <ele>32.67454230226576</ele>
        <time>2022-09-28T12:55:53Z</time>
        <extensions>
          <gpxtpx:TrackPointExtension>
            <gpxtpx:hr>145</gpxtpx:hr>
          </gpxtpx:TrackPointExtension>
        </extensions>
      </trkpt>
      <trkpt lat="30.933162483486115" lon="113.5571445614211">
        <ele>33.19604582898319</ele>
        <time>2022-09-28T12:56:04Z</time>
        <extensions>
          <gpxtpx:TrackPointExtension>
            <gpxtpx:hr>146</gpxtpx:hr>
          </gpxtpx:TrackPointExtension>
        </extensions>
      </trkpt>
      <trkpt lat="30.933032808227058" lon="113.55698354422309">
        <ele>36.73090641666204</ele>
        <time>2022-09-28T12:56:16Z</time>
        <extensions>
          <gpxtpx:TrackPointExtension>
            <gpxtpx:hr>148</gpxtpx:hr>
          </gpxtpx:TrackPointExtension>
        </extensions>
      </trkpt>
      <trkpt lat="30.93283535209844" lon="113.55672267897351">
        <ele>34.05850685760379</ele>
        <time>2022-09-28T12:56:32Z</time>
        <extensions>
          <gpxtpx:TrackPointExtension>
            <gpxtpx:hr>147</gpxtpx:hr>
          </gpxtpx:TrackPointExtension>
        </extensions>
      </trkpt>
      <trkpt lat="30.932699342928796" lon="113.55658941174066">
        <ele>34.99356272164732</ele>
        <time>2022-09-28T12:56:40Z</time>
        <extensions>
          <gpxtpx:TrackPointExtension>
            <gpxtpx:hr>154</gpxtpx:hr>
          </gpxtpx:TrackPointExtension>
        </extensions>
      </trkpt>
      <trkpt lat="30.93263576654257" lon="113.55667799933275">
        <ele>35.74865549150854</ele>
        <time>2022-09-28T12:56:44Z</time>
        <extensions>
          <gpxtpx:TrackPointExtension>
            <gpxtpx:hr>154</gpxtpx:hr>
          </gpxtpx:TrackPointExtension>
        </extensions>
      </trkpt>
      <trkpt lat="30.932632710468038" lon="113.55702106578144">
        <ele>35.31128239352256</ele>
        <time>2022-09-28T12:56:56Z</time>
        <extensions>
          <gpxtpx:TrackPointExtension>
            <gpxtpx:hr>155</gpxtpx:hr>
          </gpxtpx:TrackPointExtension>
        </extensions>
      </trkpt>
      <trkpt lat="30.932633601308027" lon="113.55740484952022">
        <ele>32.267377317883074</ele>
        <time>2022-09-28T12:57:11Z</time>
        <extensions>
          <gpxtpx:TrackPointExtension>
            <gpxtpx:hr>159</gpxtpx:hr>
          </gpxtpx:TrackPointExtension>
        </extensions>
      </trkpt>
      <trkpt lat="30.93261723406911" lon="113.55761037282474">
        <ele>30.854463265277445</ele>
        <time>2022-09-28T12:57:19Z</time>
        <extensions>
          <gpxtpx:TrackPointExtension>
            <gpxtpx:hr>158</gpxtpx:hr>
          </gpxtpx:TrackPointExtension>
        </extensions>
      </trkpt>
      <trkpt lat="30.932609203751728" lon="113.55779635999465">
        <ele>30.963790939189494</ele>
        <time>2022-09-28T12:57:27Z</time>
        <extensions>
          <gpxtpx:TrackPointExtension>
            <gpxtpx:hr>157</gpxtpx:hr>
          </gpxtpx:TrackPointExtension>
        </extensions>
      </trkpt>
      <trkpt lat="30.93263793738709" lon="113.55786561573149">
        <ele>31.796022459864616</ele>
        <time>2022-09-28T12:57:31Z</time>
        <extensions>
          <gpxtpx:TrackPointExtension>
            <gpxtpx:hr>157</gpxtpx:hr>
          </gpxtpx:TrackPointExtension>
        </extensions>
      </trkpt>
      <trkpt lat="30.932756274331602" lon="113.55788167092942">
        <ele>32.34831798542291</ele>
        <time>2022-09-28T12:57:39Z</time>
        <extensions>
          <gpxtpx:TrackPointExtension>
            <gpxtpx:hr>153</gpxtpx:hr>
          </gpxtpx:TrackPointExtension>
        </extensions>
      </trkpt>
      <trkpt lat="30.933034967860497" lon="113.5580291587993">
        <ele>32.31102485116571</ele>
        <time>2022-09-28T12:57:59Z</time>
        <extensions>
          <gpxtpx:TrackPointExtension>
            <gpxtpx:hr>149</gpxtpx:hr>
          </gpxtpx:TrackPointExtension>
        </extensions>
      </trkpt>
      <trkpt lat="30.933165870976463" lon="113.55806743471696">
        <ele>32.462573977187276</ele>
        <time>2022-09-28T12:58:07Z</time>
        <extensions>
          <gpxtpx:TrackPointExtension>
            <gpxtpx:hr>148</gpxtpx:hr>
          </gpxtpx:TrackPointExtension>
        </extensions>
      </trkpt>
      <trkpt lat="30.933439428041474" lon="113.55811116702553">
        <ele>30.460535269230604</ele>
        <time>2022-09-28T12:58:23Z</time>
        <extensions>
          <gpxtpx:TrackPointExtension>
            <gpxtpx:hr>148</gpxtpx:hr>
          </gpxtpx:TrackPointExtension>
        </extensions>
      </trkpt>
      <trkpt lat="30.93351268083507" lon="113.55810558216179">
        <ele>30.215916429646313</ele>
        <time>2022-09-28T12:58:27Z</time>
        <extensions>
          <gpxtpx:TrackPointExtension>
            <gpxtpx:hr>146</gpxtpx:hr>
          </gpxtpx:TrackPointExtension>
        </extensions>
      </trkpt>
      <trkpt lat="30.933799581565793" lon="113.55815930447521">
        <ele>30.94789126329124</ele>
        <time>2022-09-28T12:58:43Z</time>
        <extensions>
          <gpxtpx:TrackPointExtension>
            <gpxtpx:hr>147</gpxtpx:hr>
          </gpxtpx:TrackPointExtension>
        </extensions>
      </trkpt>
      <trkpt lat="30.933944941477538" lon="113.55821285475037">
        <ele>31.38151682075113</ele>
        <time>2022-09-28T12:58:51Z</time>
        <extensions>
          <gpxtpx:TrackPointExtension>
            <gpxtpx:hr>142</gpxtpx:hr>
          </gpxtpx:TrackPointExtension>
        </extensions>
      </trkpt>
      <trkpt lat="30.934225763808815" lon="113.55825277963574">
        <ele>31.043228693306446</ele>
        <time>2022-09-28T12:59:07Z</time>
        <extensions>
          <gpxtpx:TrackPointExtension>
            <gpxtpx:hr>146</gpxtpx:hr>
          </gpxtpx:TrackPointExtension>
        </extensions>
      </trkpt>
      <trkpt lat="30.934396897286348" lon="113.55831232893496">
        <ele>31.737362471409142</ele>
        <time>2022-09-28T12:59:17Z</time>
        <extensions>
          <gpxtpx:TrackPointExtension>
            <gpxtpx:hr>147</gpxtpx:hr>
          </gpxtpx:TrackPointExtension>
        </extensions>
      </trkpt>
      <trkpt lat="30.934692162296766" lon="113.55835999102665">
        <ele>31.33020628988743</ele>
        <time>2022-09-28T12:59:35Z</time>
        <extensions>
          <gpxtpx:TrackPointExtension>
            <gpxtpx:hr>147</gpxtpx:hr>
          </gpxtpx:TrackPointExtension>
        </extensions>
      </trkpt>
      <trkpt lat="30.93495217844842" lon="113.5583747648842">
        <ele>32.01818908005953</ele>
        <time>2022-09-28T12:59:51Z</time>
        <extensions>
          <gpxtpx:TrackPointExtension>
            <gpxtpx:hr>146</gpxtpx:hr>
          </gpxtpx:TrackPointExtension>
        </extensions>
      </trkpt>
      <trkpt lat="30.935092197460122" lon="113.55833664105553">
        <ele>31.71103987377137</ele>
        <time>2022-09-28T12:59:59Z</time>
        <extensions>
          <gpxtpx:TrackPointExtension>
            <gpxtpx:hr>140</gpxtpx:hr>
          </gpxtpx:TrackPointExtension>
        </extensions>
      </trkpt>
      <trkpt lat="30.93527998131392" lon="113.55837550504096">
        <ele>31.738804131746292</ele>
        <time>2022-09-28T13:00:11Z</time>
        <extensions>
          <gpxtpx:TrackPointExtension>
            <gpxtpx:hr>145</gpxtpx:hr>
          </gpxtpx:TrackPointExtension>
        </extensions>
      </trkpt>
      <trkpt lat="30.93559849267022" lon="113.55833327789942">
        <ele>33.54952829051763</ele>
        <time>2022-09-28T13:00:30Z</time>
        <extensions>
          <gpxtpx:TrackPointExtension>
            <gpxtpx:hr>145</gpxtpx:hr>
          </gpxtpx:TrackPointExtension>
        </extensions>
      </trkpt>
      <trkpt lat="30.93579405433112" lon="113.55830367619605">
        <ele>33.221583095379174</ele>
        <time>2022-09-28T13:00:42Z</time>
        <extensions>
          <gpxtpx:TrackPointExtension>
            <gpxtpx:hr>144</gpxtpx:hr>
          </gpxtpx:TrackPointExtension>
        </extensions>
      </trkpt>
      <trkpt lat="30.93601387999005" lon="113.55810436324879">
        <ele>31.62719759438187</ele>
        <time>2022-09-28T13:00:58Z</time>
        <extensions>
          <gpxtpx:TrackPointExtension>
            <gpxtpx:hr>145</gpxtpx:hr>
          </gpxtpx:TrackPointExtension>
        </extensions>
      </trkpt>
      <trkpt lat="30.936253784834772" lon="113.55786302613578">
        <ele>32.04192009009421</ele>
        <time>2022-09-28T13:01:18Z</time>
        <extensions>
          <gpxtpx:TrackPointExtension>
            <gpxtpx:hr>140</gpxtpx:hr>
          </gpxtpx:TrackPointExtension>
        </extensions>
      </trkpt>
      <trkpt lat="30.9364350755634" lon="113.55767753409381">
        <ele>31.34360481798649</ele>
        <time>2022-09-28T13:01:33Z</time>
        <extensions>
          <gpxtpx:TrackPointExtension>
            <gpxtpx:hr>141</gpxtpx:hr>
          </gpxtpx:TrackPointExtension>
        </extensions>
      </trkpt>
      <trkpt lat="30.936725523639616" lon="113.55747765820945">
        <ele>34.27506376989186</ele>
        <time>2022-09-28T13:01:53Z</time>
        <extensions>
          <gpxtpx:TrackPointExtension>
            <gpxtpx:hr>144</gpxtpx:hr>
          </gpxtpx:TrackPointExtension>
        </extensions>
      </trkpt>
      <trkpt lat="30.93683372804791" lon="113.55740117222562">
        <ele>34.14295857120305</ele>
        <time>2022-09-28T13:02:01Z</time>
        <extensions>
          <gpxtpx:TrackPointExtension>
            <gpxtpx:hr>141</gpxtpx:hr>
          </gpxtpx:TrackPointExtension>
        </extensions>
      </trkpt>
      <trkpt lat="30.936961058302316" lon="113.55723652925539">
        <ele>31.873025016859174</ele>
        <time>2022-09-28T13:02:13Z</time>
        <extensions>
          <gpxtpx:TrackPointExtension>
            <gpxtpx:hr>142</gpxtpx:hr>
          </gpxtpx:TrackPointExtension>
        </extensions>
      </trkpt>
      <trkpt lat="30.93705425084127" lon="113.55714249868369">
        <ele>32.60891263280064</ele>
        <time>2022-09-28T13:02:21Z</time>
        <extensions>
          <gpxtpx:TrackPointExtension>
            <gpxtpx:hr>142</gpxtpx:hr>
          </gpxtpx:TrackPointExtension>
        </extensions>
      </trkpt>
      <trkpt lat="30.937208499327504" lon="113.5568916508185">
        <ele>33.081212220713496</ele>
        <time>2022-09-28T13:02:37Z</time>
        <extensions>
          <gpxtpx:TrackPointExtension>
            <gpxtpx:hr>138</gpxtpx:hr>
          </gpxtpx:TrackPointExtension>
        </extensions>
      </trkpt>
      <trkpt lat="30.937281210080798" lon="113.55673305840688">
        <ele>32.8711867230013</ele>
        <time>2022-09-28T13:02:45Z</time>
        <extensions>
          <gpxtpx:TrackPointExtension>
            <gpxtpx:hr>144</gpxtpx:hr>
          </gpxtpx:TrackPointExtension>
        </extensions>
      </trkpt>
      <trkpt lat="30.937337862952226" lon="113.55647394609026">
        <ele>33.70144727267325</ele>
        <time>2022-09-28T13:02:57Z</time>
        <extensions>
          <gpxtpx:TrackPointExtension>
            <gpxtpx:hr>146</gpxtpx:hr>
          </gpxtpx:TrackPointExtension>
        </extensions>
      </trkpt>
      <trkpt lat="30.93735647555389" lon="113.55613755417355">
        <ele>33.82420664746314</ele>
        <time>2022-09-28T13:03:13Z</time>
        <extensions>
          <gpxtpx:TrackPointExtension>
            <gpxtpx:hr>142</gpxtpx:hr>
          </gpxtpx:TrackPointExtension>
        </extensions>
      </trkpt>
      <trkpt lat="30.93732157622009" lon="113.55591697850132">
        <ele>34.47097336221486</ele>
        <time>2022-09-28T13:03:24Z</time>
        <extensions>
          <gpxtpx:TrackPointExtension>
            <gpxtpx:hr>142</gpxtpx:hr>
          </gpxtpx:TrackPointExtension>
        </extensions>
      </trkpt>
      <trkpt lat="30.937202635072612" lon="113.55560758369505">
        <ele>36.94603064842522</ele>
        <time>2022-09-28T13:03:40Z</time>
        <extensions>
          <gpxtpx:TrackPointExtension>
            <gpxtpx:hr>144</gpxtpx:hr>
          </gpxtpx:TrackPointExtension>
        </extensions>
      </trkpt>
      <trkpt lat="30.937105722825187" lon="113.55539709297815">
        <ele>35.958330056630075</ele>
        <time>2022-09-28T13:03:52Z</time>
        <extensions>
          <gpxtpx:TrackPointExtension>
            <gpxtpx:hr>141</gpxtpx:hr>
          </gpxtpx:TrackPointExtension>
        </extensions>
      </trkpt>
      <trkpt lat="30.937097296011633" lon="113.555336493731">
        <ele>34.50338201504201</ele>
        <time>2022-09-28T13:03:56Z</time>
        <extensions>
          <gpxtpx:TrackPointExtension>
            <gpxtpx:hr>140</gpxtpx:hr>
          </gpxtpx:TrackPointExtension>
        </extensions>
      </trkpt>
      <trkpt lat="30.937407377958305" lon="113.55540826106242">
        <ele>34.34361088182777</ele>
        <time>2022-09-28T13:04:16Z</time>
        <extensions>
          <gpxtpx:TrackPointExtension>
            <gpxtpx:hr>145</gpxtpx:hr>
          </gpxtpx:TrackPointExtension>
        </extensions>
      </trkpt>
      <trkpt lat="30.937478476914396" lon="113.55541914679688">
        <ele>34.12371722981334</ele>
        <time>2022-09-28T13:04:20Z</time>
        <extensions>
          <gpxtpx:TrackPointExtension>
            <gpxtpx:hr>145</gpxtpx:hr>
          </gpxtpx:TrackPointExtension>
        </extensions>
      </trkpt>
      <trkpt lat="30.93752735745109" lon="113.55547754725671">
        <ele>33.412380481138825</ele>
        <time>2022-09-28T13:04:24Z</time>
        <extensions>
          <gpxtpx:TrackPointExtension>
            <gpxtpx:hr>145</gpxtpx:hr>
          </gpxtpx:TrackPointExtension>
        </extensions>
      </trkpt>
      <trkpt lat="30.93751240545045" lon="113.5555489523449">
        <ele>34.32818243838847</ele>
        <time>2022-09-28T13:04:28Z</time>
        <extensions>
          <gpxtpx:TrackPointExtension>
            <gpxtpx:hr>145</gpxtpx:hr>
          </gpxtpx:TrackPointExtension>
        </extensions>
      </trkpt>
      <trkpt lat="30.93745334915796" lon="113.55550682058157">
        <ele>35.26617541629821</ele>
        <time>2022-09-28T13:04:31Z</time>
        <extensions>
          <gpxtpx:TrackPointExtension>
            <gpxtpx:hr>145</gpxtpx:hr>
          </gpxtpx:TrackPointExtension>
        </extensions>
      </trkpt>
      <trkpt lat="30.937362756780164" lon="113.55549264189703">
        <ele>34.94869330059737</ele>
        <time>2022-09-28T13:04:35Z</time>
        <extensions>
          <gpxtpx:TrackPointExtension>
            <gpxtpx:hr>145</gpxtpx:hr>
          </gpxtpx:TrackPointExtension>
        </extensions>
      </trkpt>
      <trkpt lat="30.93728254802833" lon="113.55552788438428">
        <ele>34.849411371164024</ele>
        <time>2022-09-28T13:04:39Z</time>
        <extensions>
          <gpxtpx:TrackPointExtension>
            <gpxtpx:hr>147</gpxtpx:hr>
          </gpxtpx:TrackPointExtension>
        </extensions>
      </trkpt>
      <trkpt lat="30.937247592972913" lon="113.55561602163105">
        <ele>34.08657775539905</ele>
        <time>2022-09-28T13:04:43Z</time>
        <extensions>
          <gpxtpx:TrackPointExtension>
            <gpxtpx:hr>150</gpxtpx:hr>
          </gpxtpx:TrackPointExtension>
        </extensions>
      </trkpt>
      <trkpt lat="30.937258696722328" lon="113.55571271889123">
        <ele>34.78166377451271</ele>
        <time>2022-09-28T13:04:47Z</time>
        <extensions>
          <gpxtpx:TrackPointExtension>
            <gpxtpx:hr>150</gpxtpx:hr>
          </gpxtpx:TrackPointExtension>
        </extensions>
      </trkpt>
      <trkpt lat="30.937372749003465" lon="113.55609717832797">
        <ele>35.786448129452765</ele>
        <time>2022-09-28T13:05:03Z</time>
        <extensions>
          <gpxtpx:TrackPointExtension>
            <gpxtpx:hr>150</gpxtpx:hr>
          </gpxtpx:TrackPointExtension>
        </extensions>
      </trkpt>
      <trkpt lat="30.93740092460413" lon="113.55630837086805">
        <ele>34.145556909032166</ele>
        <time>2022-09-28T13:05:11Z</time>
        <extensions>
          <gpxtpx:TrackPointExtension>
            <gpxtpx:hr>153</gpxtpx:hr>
          </gpxtpx:TrackPointExtension>
        </extensions>
      </trkpt>
      <trkpt lat="30.93739292039566" lon="113.55644392613962">
        <ele>33.95561724901199</ele>
        <time>2022-09-28T13:05:19Z</time>
        <extensions>
          <gpxtpx:TrackPointExtension>
            <gpxtpx:hr>154</gpxtpx:hr>
          </gpxtpx:TrackPointExtension>
        </extensions>
      </trkpt>
      <trkpt lat="30.937331704149095" lon="113.55679321566754">
        <ele>33.99595374148339</ele>
        <time>2022-09-28T13:05:42Z</time>
        <extensions>
          <gpxtpx:TrackPointExtension>
            <gpxtpx:hr>145</gpxtpx:hr>
          </gpxtpx:TrackPointExtension>
        </extensions>
      </trkpt>
      <trkpt lat="30.937304592669538" lon="113.5568924156968">
        <ele>34.54888349864632</ele>
        <time>2022-09-28T13:05:48Z</time>
        <extensions>
          <gpxtpx:TrackPointExtension>
            <gpxtpx:hr>146</gpxtpx:hr>
          </gpxtpx:TrackPointExtension>
        </extensions>
      </trkpt>
      <trkpt lat="30.937212146642246" lon="113.5570825121001">
        <ele>34.2869172450155</ele>
        <time>2022-09-28T13:06:00Z</time>
        <extensions>
          <gpxtpx:TrackPointExtension>
            <gpxtpx:hr>143</gpxtpx:hr>
          </gpxtpx:TrackPointExtension>
        </extensions>
      </trkpt>
      <trkpt lat="30.93713437290905" lon="113.55719065693675">
        <ele>34.45165880769491</ele>
        <time>2022-09-28T13:06:07Z</time>
        <extensions>
          <gpxtpx:TrackPointExtension>
            <gpxtpx:hr>145</gpxtpx:hr>
          </gpxtpx:TrackPointExtension>
        </extensions>
      </trkpt>
      <trkpt lat="30.9371093099651" lon="113.55732579716137">
        <ele>34.42086234129965</ele>
        <time>2022-09-28T13:06:14Z</time>
        <extensions>
          <gpxtpx:TrackPointExtension>
            <gpxtpx:hr>144</gpxtpx:hr>
          </gpxtpx:TrackPointExtension>
        </extensions>
      </trkpt>
      <trkpt lat="30.937148533619183" lon="113.55765975769273">
        <ele>34.6845613066107</ele>
        <time>2022-09-28T13:06:30Z</time>
        <extensions>
          <gpxtpx:TrackPointExtension>
            <gpxtpx:hr>143</gpxtpx:hr>
          </gpxtpx:TrackPointExtension>
        </extensions>
      </trkpt>
      <trkpt lat="30.937178933324393" lon="113.55773689249459">
        <ele>35.691119553521276</ele>
        <time>2022-09-28T13:06:34Z</time>
        <extensions>
          <gpxtpx:TrackPointExtension>
            <gpxtpx:hr>146</gpxtpx:hr>
          </gpxtpx:TrackPointExtension>
        </extensions>
      </trkpt>
      <trkpt lat="30.93731433978493" lon="113.55778108006186">
        <ele>34.8557859454304</ele>
        <time>2022-09-28T13:06:42Z</time>
        <extensions>
          <gpxtpx:TrackPointExtension>
            <gpxtpx:hr>145</gpxtpx:hr>
          </gpxtpx:TrackPointExtension>
        </extensions>
      </trkpt>
      <trkpt lat="30.93748705492812" lon="113.55779678011916">
        <ele>34.40288863983005</ele>
        <time>2022-09-28T13:06:53Z</time>
        <extensions>
          <gpxtpx:TrackPointExtension>
            <gpxtpx:hr>144</gpxtpx:hr>
          </gpxtpx:TrackPointExtension>
        </extensions>
      </trkpt>
      <trkpt lat="30.937535605091863" lon="113.55772835218926">
        <ele>33.26845262758434</ele>
        <time>2022-09-28T13:06:57Z</time>
        <extensions>
          <gpxtpx:TrackPointExtension>
            <gpxtpx:hr>142</gpxtpx:hr>
          </gpxtpx:TrackPointExtension>
        </extensions>
      </trkpt>
      <trkpt lat="30.937548985761563" lon="113.55760740955954">
        <ele>33.34732140041888</ele>
        <time>2022-09-28T13:07:01Z</time>
        <extensions>
          <gpxtpx:TrackPointExtension>
            <gpxtpx:hr>140</gpxtpx:hr>
          </gpxtpx:TrackPointExtension>
        </extensions>
      </trkpt>
      <trkpt lat="30.93752457981266" lon="113.55755402061503">
        <ele>34.83660551439971</ele>
        <time>2022-09-28T13:07:04Z</time>
        <extensions>
          <gpxtpx:TrackPointExtension>
            <gpxtpx:hr>140</gpxtpx:hr>
          </gpxtpx:TrackPointExtension>
        </extensions>
      </trkpt>
      <trkpt lat="30.93754753187358" lon="113.55731070747254">
        <ele>34.15690219029784</ele>
        <time>2022-09-28T13:07:16Z</time>
        <extensions>
          <gpxtpx:TrackPointExtension>
            <gpxtpx:hr>143</gpxtpx:hr>
          </gpxtpx:TrackPointExtension>
        </extensions>
      </trkpt>
      <trkpt lat="30.93747791008443" lon="113.5570410848123">
        <ele>33.31187155097723</ele>
        <time>2022-09-28T13:07:32Z</time>
        <extensions>
          <gpxtpx:TrackPointExtension>
            <gpxtpx:hr>141</gpxtpx:hr>
          </gpxtpx:TrackPointExtension>
        </extensions>
      </trkpt>
      <trkpt lat="30.937473135643124" lon="113.55690419469838">
        <ele>32.594744849950075</ele>
        <time>2022-09-28T13:07:41Z</time>
        <extensions>
          <gpxtpx:TrackPointExtension>
            <gpxtpx:hr>144</gpxtpx:hr>
          </gpxtpx:TrackPointExtension>
        </extensions>
      </trkpt>
      <trkpt lat="30.93748722604143" lon="113.55674012690436">
        <ele>34.4696064600721</ele>
        <time>2022-09-28T13:07:52Z</time>
        <extensions>
          <gpxtpx:TrackPointExtension>
            <gpxtpx:hr>144</gpxtpx:hr>
          </gpxtpx:TrackPointExtension>
        </extensions>
      </trkpt>
      <trkpt lat="30.937524344616037" lon="113.55668080576719">
        <ele>32.734802334569395</ele>
        <time>2022-09-28T13:07:56Z</time>
        <extensions>
          <gpxtpx:TrackPointExtension>
            <gpxtpx:hr>142</gpxtpx:hr>
          </gpxtpx:TrackPointExtension>
        </extensions>
      </trkpt>
      <trkpt lat="30.937578997333862" lon="113.5563654436644">
        <ele>32.82196061592549</ele>
        <time>2022-09-28T13:08:12Z</time>
        <extensions>
          <gpxtpx:TrackPointExtension>
            <gpxtpx:hr>144</gpxtpx:hr>
          </gpxtpx:TrackPointExtension>
        </extensions>
      </trkpt>
      <trkpt lat="30.93754906087455" lon="113.55621957157634">
        <ele>33.26210183184594</ele>
        <time>2022-09-28T13:08:20Z</time>
        <extensions>
          <gpxtpx:TrackPointExtension>
            <gpxtpx:hr>142</gpxtpx:hr>
          </gpxtpx:TrackPointExtension>
        </extensions>
      </trkpt>
      <trkpt lat="30.93760769913777" lon="113.55594830941577">
        <ele>33.66211364790797</ele>
        <time>2022-09-28T13:08:36Z</time>
        <extensions>
          <gpxtpx:TrackPointExtension>
            <gpxtpx:hr>138</gpxtpx:hr>
          </gpxtpx:TrackPointExtension>
        </extensions>
      </trkpt>
      <trkpt lat="30.937560498677215" lon="113.55589930340138">
        <ele>35.222233202308416</ele>
        <time>2022-09-28T13:08:40Z</time>
        <extensions>
          <gpxtpx:TrackPointExtension>
            <gpxtpx:hr>142</gpxtpx:hr>
          </gpxtpx:TrackPointExtension>
        </extensions>
      </trkpt>
      <trkpt lat="30.937464174267873" lon="113.55592409519159">
        <ele>35.246549998410046</ele>
        <time>2022-09-28T13:08:44Z</time>
        <extensions>
          <gpxtpx:TrackPointExtension>
            <gpxtpx:hr>141</gpxtpx:hr>
          </gpxtpx:TrackPointExtension>
        </extensions>
      </trkpt>
      <trkpt lat="30.937404452604326" lon="113.55599722968685">
        <ele>35.74206963554025</ele>
        <time>2022-09-28T13:08:48Z</time>
        <extensions>
          <gpxtpx:TrackPointExtension>
            <gpxtpx:hr>141</gpxtpx:hr>
          </gpxtpx:TrackPointExtension>
        </extensions>
      </trkpt>
      <trkpt lat="30.93739411440312" lon="113.55607994031188">
        <ele>35.71877932269126</ele>
        <time>2022-09-28T13:08:52Z</time>
        <extensions>
          <gpxtpx:TrackPointExtension>
            <gpxtpx:hr>142</gpxtpx:hr>
          </gpxtpx:TrackPointExtension>
        </extensions>
      </trkpt>
      <trkpt lat="30.937392372500003" lon="113.55646793941966">
        <ele>34.22948526311666</ele>
        <time>2022-09-28T13:09:11Z</time>
        <extensions>
          <gpxtpx:TrackPointExtension>
            <gpxtpx:hr>145</gpxtpx:hr>
          </gpxtpx:TrackPointExtension>
        </extensions>
      </trkpt>
      <trkpt lat="30.93735479233891" lon="113.55675766664989">
        <ele>34.85460476856679</ele>
        <time>2022-09-28T13:09:26Z</time>
        <extensions>
          <gpxtpx:TrackPointExtension>
            <gpxtpx:hr>144</gpxtpx:hr>
          </gpxtpx:TrackPointExtension>
        </extensions>
      </trkpt>
      <trkpt lat="30.93724292610945" lon="113.55708121999638">
        <ele>34.97321121394634</ele>
        <time>2022-09-28T13:09:45Z</time>
        <extensions>
          <gpxtpx:TrackPointExtension>
            <gpxtpx:hr>142</gpxtpx:hr>
          </gpxtpx:TrackPointExtension>
        </extensions>
      </trkpt>
      <trkpt lat="30.937138555627595" lon="113.55725566897527">
        <ele>34.1927026854828</ele>
        <time>2022-09-28T13:09:57Z</time>
        <extensions>
          <gpxtpx:TrackPointExtension>
            <gpxtpx:hr>138</gpxtpx:hr>
          </gpxtpx:TrackPointExtension>
        </extensions>
      </trkpt>
      <trkpt lat="30.93712407712554" lon="113.55761095534305">
        <ele>34.21150681562722</ele>
        <time>2022-09-28T13:10:17Z</time>
        <extensions>
          <gpxtpx:TrackPointExtension>
            <gpxtpx:hr>139</gpxtpx:hr>
          </gpxtpx:TrackPointExtension>
        </extensions>
      </trkpt>
      <trkpt lat="30.93713692319683" lon="113.5576887179275">
        <ele>34.47178581170738</ele>
        <time>2022-09-28T13:10:21Z</time>
        <extensions>
          <gpxtpx:TrackPointExtension>
            <gpxtpx:hr>138</gpxtpx:hr>
          </gpxtpx:TrackPointExtension>
        </extensions>
      </trkpt>
      <trkpt lat="30.937186543651123" lon="113.55774710965639">
        <ele>34.93896372336894</ele>
        <time>2022-09-28T13:10:25Z</time>
        <extensions>
          <gpxtpx:TrackPointExtension>
            <gpxtpx:hr>138</gpxtpx:hr>
          </gpxtpx:TrackPointExtension>
        </extensions>
      </trkpt>
      <trkpt lat="30.937312775329385" lon="113.55779664039058">
        <ele>34.98093687836081</ele>
        <time>2022-09-28T13:10:33Z</time>
        <extensions>
          <gpxtpx:TrackPointExtension>
            <gpxtpx:hr>139</gpxtpx:hr>
          </gpxtpx:TrackPointExtension>
        </extensions>
      </trkpt>
      <trkpt lat="30.93749590769403" lon="113.55781149325036">
        <ele>34.26521637663245</ele>
        <time>2022-09-28T13:10:44Z</time>
        <extensions>
          <gpxtpx:TrackPointExtension>
            <gpxtpx:hr>139</gpxtpx:hr>
          </gpxtpx:TrackPointExtension>
        </extensions>
      </trkpt>
      <trkpt lat="30.93754189736739" lon="113.55771724842876">
        <ele>33.805163466371596</ele>
        <time>2022-09-28T13:10:48Z</time>
        <extensions>
          <gpxtpx:TrackPointExtension>
            <gpxtpx:hr>139</gpxtpx:hr>
          </gpxtpx:TrackPointExtension>
        </extensions>
      </trkpt>
      <trkpt lat="30.937547788254307" lon="113.55761213817281">
        <ele>34.163562775589526</ele>
        <time>2022-09-28T13:10:52Z</time>
        <extensions>
          <gpxtpx:TrackPointExtension>
            <gpxtpx:hr>139</gpxtpx:hr>
          </gpxtpx:TrackPointExtension>
        </extensions>
      </trkpt>
      <trkpt lat="30.93751654376058" lon="113.55755119066221">
        <ele>35.16995290201157</ele>
        <time>2022-09-28T13:10:56Z</time>
        <extensions>
          <gpxtpx:TrackPointExtension>
            <gpxtpx:hr>137</gpxtpx:hr>
          </gpxtpx:TrackPointExtension>
        </extensions>
      </trkpt>
      <trkpt lat="30.937551894918272" lon="113.55738498916449">
        <ele>35.33224559016526</ele>
        <time>2022-09-28T13:11:04Z</time>
        <extensions>
          <gpxtpx:TrackPointExtension>
            <gpxtpx:hr>138</gpxtpx:hr>
          </gpxtpx:TrackPointExtension>
        </extensions>
      </trkpt>
      <trkpt lat="30.937543646886322" lon="113.55724337681397">
        <ele>34.85797159001231</ele>
        <time>2022-09-28T13:11:12Z</time>
        <extensions>
          <gpxtpx:TrackPointExtension>
            <gpxtpx:hr>138</gpxtpx:hr>
          </gpxtpx:TrackPointExtension>
        </extensions>
      </trkpt>
      <trkpt lat="30.93750501143212" lon="113.55717490139554">
        <ele>35.69653882458806</ele>
        <time>2022-09-28T13:11:16Z</time>
        <extensions>
          <gpxtpx:TrackPointExtension>
            <gpxtpx:hr>138</gpxtpx:hr>
          </gpxtpx:TrackPointExtension>
        </extensions>
      </trkpt>
      <trkpt lat="30.937525544466368" lon="113.55695612788496">
        <ele>31.89902906306088</ele>
        <time>2022-09-28T13:11:28Z</time>
        <extensions>
          <gpxtpx:TrackPointExtension>
            <gpxtpx:hr>142</gpxtpx:hr>
          </gpxtpx:TrackPointExtension>
        </extensions>
      </trkpt>
      <trkpt lat="30.9374836207537" lon="113.55675231920988">
        <ele>33.59450582228601</ele>
        <time>2022-09-28T13:11:44Z</time>
        <extensions>
          <gpxtpx:TrackPointExtension>
            <gpxtpx:hr>138</gpxtpx:hr>
          </gpxtpx:TrackPointExtension>
        </extensions>
      </trkpt>
      <trkpt lat="30.93754407557642" lon="113.55667649468613">
        <ele>33.043910117819905</ele>
        <time>2022-09-28T13:11:51Z</time>
        <extensions>
          <gpxtpx:TrackPointExtension>
            <gpxtpx:hr>137</gpxtpx:hr>
          </gpxtpx:TrackPointExtension>
        </extensions>
      </trkpt>
      <trkpt lat="30.937570268132994" lon="113.55643608086564">
        <ele>34.06111794989556</ele>
        <time>2022-09-28T13:12:04Z</time>
        <extensions>
          <gpxtpx:TrackPointExtension>
            <gpxtpx:hr>143</gpxtpx:hr>
          </gpxtpx:TrackPointExtension>
        </extensions>
      </trkpt>
      <trkpt lat="30.93755297185767" lon="113.55624136928017">
        <ele>33.4368607448414</ele>
        <time>2022-09-28T13:12:13Z</time>
        <extensions>
          <gpxtpx:TrackPointExtension>
            <gpxtpx:hr>143</gpxtpx:hr>
          </gpxtpx:TrackPointExtension>
        </extensions>
      </trkpt>
      <trkpt lat="30.937580787384164" lon="113.55603286606097">
        <ele>33.551081320270896</ele>
        <time>2022-09-28T13:12:24Z</time>
        <extensions>
          <gpxtpx:TrackPointExtension>
            <gpxtpx:hr>146</gpxtpx:hr>
          </gpxtpx:TrackPointExtension>
        </extensions>
      </trkpt>
      <trkpt lat="30.937609598761867" lon="113.55596536091714">
        <ele>34.29919968172908</ele>
        <time>2022-09-28T13:12:28Z</time>
        <extensions>
          <gpxtpx:TrackPointExtension>
            <gpxtpx:hr>146</gpxtpx:hr>
          </gpxtpx:TrackPointExtension>
        </extensions>
      </trkpt>
      <trkpt lat="30.93759305525914" lon="113.55590173388578">
        <ele>35.40112195815891</ele>
        <time>2022-09-28T13:12:32Z</time>
        <extensions>
          <gpxtpx:TrackPointExtension>
            <gpxtpx:hr>147</gpxtpx:hr>
          </gpxtpx:TrackPointExtension>
        </extensions>
      </trkpt>
      <trkpt lat="30.937493249759147" lon="113.5559130555606">
        <ele>35.88790334388614</ele>
        <time>2022-09-28T13:12:36Z</time>
        <extensions>
          <gpxtpx:TrackPointExtension>
            <gpxtpx:hr>146</gpxtpx:hr>
          </gpxtpx:TrackPointExtension>
        </extensions>
      </trkpt>
      <trkpt lat="30.937419502464067" lon="113.55595321510201">
        <ele>36.253807209432125</ele>
        <time>2022-09-28T13:12:40Z</time>
        <extensions>
          <gpxtpx:TrackPointExtension>
            <gpxtpx:hr>143</gpxtpx:hr>
          </gpxtpx:TrackPointExtension>
        </extensions>
      </trkpt>
      <trkpt lat="30.937381209750953" lon="113.55601893442739">
        <ele>37.21968649793416</ele>
        <time>2022-09-28T13:12:44Z</time>
        <extensions>
          <gpxtpx:TrackPointExtension>
            <gpxtpx:hr>143</gpxtpx:hr>
          </gpxtpx:TrackPointExtension>
        </extensions>
      </trkpt>
      <trkpt lat="30.93739109468047" lon="113.55643207087786">
        <ele>33.178724724799395</ele>
        <time>2022-09-28T13:13:16Z</time>
        <extensions>
          <gpxtpx:TrackPointExtension>
            <gpxtpx:hr>128</gpxtpx:hr>
          </gpxtpx:TrackPointExtension>
        </extensions>
      </trkpt>
      <trkpt lat="30.937357881822244" lon="113.55664180894588">
        <ele>34.444208840839565</ele>
        <time>2022-09-28T13:13:32Z</time>
        <extensions>
          <gpxtpx:TrackPointExtension>
            <gpxtpx:hr>121</gpxtpx:hr>
          </gpxtpx:TrackPointExtension>
        </extensions>
      </trkpt>
      <trkpt lat="30.937348638852665" lon="113.5568082855953">
        <ele>34.15176561195403</ele>
        <time>2022-09-28T13:13:48Z</time>
        <extensions>
          <gpxtpx:TrackPointExtension>
            <gpxtpx:hr>121</gpxtpx:hr>
          </gpxtpx:TrackPointExtension>
        </extensions>
      </trkpt>
      <trkpt lat="30.937348638852665" lon="113.5568082855953">
        <ele>34.15176561195403</ele>
        <time>2022-09-28T13:13:49Z</time>
        <extensions>
          <gpxtpx:TrackPointExtension>
            <gpxtpx:hr>121</gpxtpx:hr>
          </gpxtpx:TrackPointExtension>
        </extensions>
      </trkpt>
    </trkseg>
  </trk>
</gpx>