<?xml version="1.0" encoding="UTF-8"?>
<gpx xmlns="http://www.topografix.com/GPX/1/1" xmlns:gpxtpx="http://www.garmin.com/xmlschemas/TrackPointExtension/v1" xmlns:xsi="http://www.w3.org/2001/XMLSchema-instance" xsi:schemaLocation="http://www.topografix.com/GPX/1/1 http://www.topografix.com/GPX/1/1/gpx.xsd" version="1.1" creator="gpx.py -- https://github.com/tkrajina/gpxpy">
  <trk>
    <name>gpx from keep</name>
    <type>Run</type>
    <trkseg>
      <trkpt lat="30.937554091296686" lon="113.5565184290549">
        <ele>33.30819320678711</ele>
        <time>2022-09-22T12:47:24Z</time>
      </trkpt>
      <trkpt lat="30.937500439627517" lon="113.55626663218533">
        <ele>34.850734889507294</ele>
        <time>2022-09-22T12:47:43Z</time>
      </trkpt>
      <trkpt lat="30.93752425023581" lon="113.55617659420136">
        <ele>32.95425049215555</ele>
        <time>2022-09-22T12:47:49Z</time>
      </trkpt>
      <trkpt lat="30.937615399876524" lon="113.55609723119393">
        <ele>31.191355586983263</ele>
        <time>2022-09-22T12:47:55Z</time>
      </trkpt>
      <trkpt lat="30.937602276675978" lon="113.55603921343959">
        <ele>30.844051177613437</ele>
        <time>2022-09-22T12:47:58Z</time>
      </trkpt>
      <trkpt lat="30.93767483799308" lon="113.55580959037201">
        <ele>30.643552038818598</ele>
        <time>2022-09-22T12:48:13Z</time>
      </trkpt>
      <trkpt lat="30.93766124070688" lon="113.55571686107378">
        <ele>30.9084035390988</ele>
        <time>2022-09-22T12:48:19Z</time>
      </trkpt>
      <trkpt lat="30.937667230183283" lon="113.55564225482418">
        <ele>30.655185859650373</ele>
        <time>2022-09-22T12:48:25Z</time>
      </trkpt>
      <trkpt lat="30.937597630846692" lon="113.55557129206188">
        <ele>31.140685494989157</ele>
        <time>2022-09-22T12:48:28Z</time>
      </trkpt>
      <trkpt lat="30.93754596291109" lon="113.55543466111213">
        <ele>32.6406210064888</ele>
        <time>2022-09-22T12:48:34Z</time>
      </trkpt>
      <trkpt lat="30.937440032666473" lon="113.55531156906659">
        <ele>31.96636240836233</ele>
        <time>2022-09-22T12:48:44Z</time>
      </trkpt>
      <trkpt lat="30.937381070075336" lon="113.55528329129608">
        <ele>30.8384262714535</ele>
        <time>2022-09-22T12:48:48Z</time>
      </trkpt>
      <trkpt lat="30.93707405660322" lon="113.55526899600864">
        <ele>32.81469831895083</ele>
        <time>2022-09-22T12:49:03Z</time>
      </trkpt>
      <trkpt lat="30.93688911179025" lon="113.55524713810973">
        <ele>33.58908818755299</ele>
        <time>2022-09-22T12:49:11Z</time>
        <extensions>
          <gpxtpx:TrackPointExtension>
            <gpxtpx:hr>136</gpxtpx:hr>
          </gpxtpx:TrackPointExtension>
        </extensions>
      </trkpt>
      <trkpt lat="30.936716351813786" lon="113.55496720449376">
        <ele>32.95432826131582</ele>
        <time>2022-09-22T12:49:26Z</time>
        <extensions>
          <gpxtpx:TrackPointExtension>
            <gpxtpx:hr>136</gpxtpx:hr>
          </gpxtpx:TrackPointExtension>
        </extensions>
      </trkpt>
      <trkpt lat="30.936562386138878" lon="113.55466195616938">
        <ele>32.19498419389129</ele>
        <time>2022-09-22T12:49:41Z</time>
      </trkpt>
      <trkpt lat="30.936406512053207" lon="113.55435806476278">
        <ele>30.88278316706419</ele>
        <time>2022-09-22T12:49:57Z</time>
      </trkpt>
      <trkpt lat="30.93632123749806" lon="113.55419431929587">
        <ele>30.040582110174</ele>
        <time>2022-09-22T12:50:05Z</time>
      </trkpt>
      <trkpt lat="30.936181716911285" lon="113.55397612740998">
        <ele>30.12045141775161</ele>
        <time>2022-09-22T12:50:17Z</time>
      </trkpt>
      <trkpt lat="30.936087959132497" lon="113.55373437406908">
        <ele>31.30000222660601</ele>
        <time>2022-09-22T12:50:29Z</time>
      </trkpt>
      <trkpt lat="30.93589325648984" lon="113.55347062369471">
        <ele>31.843038006685674</ele>
        <time>2022-09-22T12:50:45Z</time>
      </trkpt>
      <trkpt lat="30.935696139909716" lon="113.55317756713325">
        <ele>31.510102091357112</ele>
        <time>2022-09-22T12:51:01Z</time>
      </trkpt>
      <trkpt lat="30.93561136864405" lon="113.55301256270019">
        <ele>31.09655603952706</ele>
        <time>2022-09-22T12:51:09Z</time>
      </trkpt>
      <trkpt lat="30.93554851749514" lon="113.55293981766172">
        <ele>31.46330423373729</ele>
        <time>2022-09-22T12:51:13Z</time>
      </trkpt>
      <trkpt lat="30.93539680395721" lon="113.55257065486981">
        <ele>30.142382797785103</ele>
        <time>2022-09-22T12:51:29Z</time>
      </trkpt>
      <trkpt lat="30.9352341631621" lon="113.55225549330912">
        <ele>30.78622387815267</ele>
        <time>2022-09-22T12:51:47Z</time>
      </trkpt>
      <trkpt lat="30.935086911431586" lon="113.55192077038639">
        <ele>30.51331659872085</ele>
        <time>2022-09-22T12:52:06Z</time>
      </trkpt>
      <trkpt lat="30.935014146148806" lon="113.55178051073565">
        <ele>30.746232759207487</ele>
        <time>2022-09-22T12:52:14Z</time>
      </trkpt>
      <trkpt lat="30.934960265899363" lon="113.55153526517272">
        <ele>29.788562178611755</ele>
        <time>2022-09-22T12:52:26Z</time>
        <extensions>
          <gpxtpx:TrackPointExtension>
            <gpxtpx:hr>152</gpxtpx:hr>
          </gpxtpx:TrackPointExtension>
        </extensions>
      </trkpt>
      <trkpt lat="30.935005085482093" lon="113.55131761706072">
        <ele>29.808177759870887</ele>
        <time>2022-09-22T12:52:38Z</time>
      </trkpt>
      <trkpt lat="30.93507900217561" lon="113.55120262426196">
        <ele>30.206274950876832</ele>
        <time>2022-09-22T12:52:46Z</time>
      </trkpt>
      <trkpt lat="30.935215616790877" lon="113.55106739215492">
        <ele>31.166257976554334</ele>
        <time>2022-09-22T12:52:58Z</time>
      </trkpt>
      <trkpt lat="30.93540559711476" lon="113.55083681486917">
        <ele>31.035688580945134</ele>
        <time>2022-09-22T12:53:14Z</time>
      </trkpt>
      <trkpt lat="30.935455733396548" lon="113.55078630740888">
        <ele>30.500289154239</ele>
        <time>2022-09-22T12:53:18Z</time>
      </trkpt>
      <trkpt lat="30.93537962848984" lon="113.55072848107264">
        <ele>30.851441022008657</ele>
        <time>2022-09-22T12:53:22Z</time>
      </trkpt>
      <trkpt lat="30.935043311321447" lon="113.55068707661805">
        <ele>30.648361884057522</ele>
        <time>2022-09-22T12:53:42Z</time>
      </trkpt>
      <trkpt lat="30.934709247405973" lon="113.5506579592242">
        <ele>30.647074832580984</ele>
        <time>2022-09-22T12:54:02Z</time>
      </trkpt>
      <trkpt lat="30.934437628806833" lon="113.55066782317076">
        <ele>29.864206834696233</ele>
        <time>2022-09-22T12:54:18Z</time>
        <extensions>
          <gpxtpx:TrackPointExtension>
            <gpxtpx:hr>149</gpxtpx:hr>
          </gpxtpx:TrackPointExtension>
        </extensions>
      </trkpt>
      <trkpt lat="30.93438325051377" lon="113.5507159988725">
        <ele>30.146900242194533</ele>
        <time>2022-09-22T12:54:22Z</time>
        <extensions>
          <gpxtpx:TrackPointExtension>
            <gpxtpx:hr>149</gpxtpx:hr>
          </gpxtpx:TrackPointExtension>
        </extensions>
      </trkpt>
      <trkpt lat="30.93437164519982" lon="113.55087893957055">
        <ele>31.161162298172712</ele>
        <time>2022-09-22T12:54:30Z</time>
        <extensions>
          <gpxtpx:TrackPointExtension>
            <gpxtpx:hr>149</gpxtpx:hr>
          </gpxtpx:TrackPointExtension>
        </extensions>
      </trkpt>
      <trkpt lat="30.93427086069181" lon="113.55123572696816">
        <ele>31.023784787394106</ele>
        <time>2022-09-22T12:54:50Z</time>
      </trkpt>
      <trkpt lat="30.93421788895202" lon="113.55144742572656">
        <ele>31.91930088493973</ele>
        <time>2022-09-22T12:55:02Z</time>
      </trkpt>
      <trkpt lat="30.934220790160403" lon="113.55183000238016">
        <ele>31.438205768354237</ele>
        <time>2022-09-22T12:55:22Z</time>
      </trkpt>
      <trkpt lat="30.93421760258721" lon="113.55190978503053">
        <ele>31.41478916630149</ele>
        <time>2022-09-22T12:55:26Z</time>
      </trkpt>
      <trkpt lat="30.93423396710761" lon="113.55198380311464">
        <ele>31.642026009969413</ele>
        <time>2022-09-22T12:55:30Z</time>
      </trkpt>
      <trkpt lat="30.93431592205553" lon="113.55219294219683">
        <ele>31.235172926448286</ele>
        <time>2022-09-22T12:55:42Z</time>
      </trkpt>
      <trkpt lat="30.93446207970207" lon="113.55250123270521">
        <ele>31.946033836342394</ele>
        <time>2022-09-22T12:56:00Z</time>
      </trkpt>
      <trkpt lat="30.934613472842564" lon="113.5528510802502">
        <ele>31.757292008958757</ele>
        <time>2022-09-22T12:56:20Z</time>
      </trkpt>
      <trkpt lat="30.93478348101573" lon="113.55318791184574">
        <ele>32.60711703635752</ele>
        <time>2022-09-22T12:56:40Z</time>
      </trkpt>
      <trkpt lat="30.934973362172585" lon="113.55350709836755">
        <ele>31.204706646502018</ele>
        <time>2022-09-22T12:57:00Z</time>
      </trkpt>
      <trkpt lat="30.935157360626512" lon="113.5538249991527">
        <ele>30.109789812006056</ele>
        <time>2022-09-22T12:57:20Z</time>
      </trkpt>
      <trkpt lat="30.935303663374075" lon="113.5541014062906">
        <ele>29.370948578231037</ele>
        <time>2022-09-22T12:57:36Z</time>
      </trkpt>
      <trkpt lat="30.935497770399365" lon="113.55442885627006">
        <ele>29.884149613790214</ele>
        <time>2022-09-22T12:57:55Z</time>
      </trkpt>
      <trkpt lat="30.935547782592643" lon="113.55453501653508">
        <ele>29.926737456582487</ele>
        <time>2022-09-22T12:58:01Z</time>
      </trkpt>
      <trkpt lat="30.935693383563873" lon="113.55477741720667">
        <ele>30.868940906599164</ele>
        <time>2022-09-22T12:58:16Z</time>
        <extensions>
          <gpxtpx:TrackPointExtension>
            <gpxtpx:hr>149</gpxtpx:hr>
          </gpxtpx:TrackPointExtension>
        </extensions>
      </trkpt>
      <trkpt lat="30.935709954882793" lon="113.55482876045212">
        <ele>31.32709809206426</ele>
        <time>2022-09-22T12:58:19Z</time>
        <extensions>
          <gpxtpx:TrackPointExtension>
            <gpxtpx:hr>149</gpxtpx:hr>
          </gpxtpx:TrackPointExtension>
        </extensions>
      </trkpt>
      <trkpt lat="30.9358685612665" lon="113.55511901264626">
        <ele>30.345911983400583</ele>
        <time>2022-09-22T12:58:37Z</time>
      </trkpt>
      <trkpt lat="30.935971806381463" lon="113.55531159753119">
        <ele>30.76526485197246</ele>
        <time>2022-09-22T12:58:49Z</time>
      </trkpt>
      <trkpt lat="30.936020665529945" lon="113.55536971485068">
        <ele>30.325354016385972</ele>
        <time>2022-09-22T12:58:53Z</time>
      </trkpt>
      <trkpt lat="30.93618757360118" lon="113.55569563434422">
        <ele>30.770324542187154</ele>
        <time>2022-09-22T12:59:13Z</time>
      </trkpt>
      <trkpt lat="30.936292043370113" lon="113.5558778714833">
        <ele>30.70941952895373</ele>
        <time>2022-09-22T12:59:25Z</time>
      </trkpt>
      <trkpt lat="30.936382803395695" lon="113.5561645816266">
        <ele>30.100183157250285</ele>
        <time>2022-09-22T12:59:41Z</time>
      </trkpt>
      <trkpt lat="30.936372476879075" lon="113.55644597417219">
        <ele>29.765308620408177</ele>
        <time>2022-09-22T12:59:57Z</time>
      </trkpt>
      <trkpt lat="30.93631731331226" lon="113.55662468676702">
        <ele>30.673258237540722</ele>
        <time>2022-09-22T13:00:08Z</time>
      </trkpt>
      <trkpt lat="30.93616166540505" lon="113.55685396133015">
        <ele>30.242883203551173</ele>
        <time>2022-09-22T13:00:24Z</time>
      </trkpt>
      <trkpt lat="30.93590289800681" lon="113.55706714706304">
        <ele>29.965925780124962</ele>
        <time>2022-09-22T13:00:44Z</time>
      </trkpt>
      <trkpt lat="30.935732569475082" lon="113.55717511440115">
        <ele>29.82055544387549</ele>
        <time>2022-09-22T13:00:56Z</time>
      </trkpt>
      <trkpt lat="30.93566689930355" lon="113.55719948515697">
        <ele>29.881995488889515</ele>
        <time>2022-09-22T13:01:00Z</time>
      </trkpt>
      <trkpt lat="30.93561641987694" lon="113.55723950998464">
        <ele>29.94339075870812</ele>
        <time>2022-09-22T13:01:04Z</time>
      </trkpt>
      <trkpt lat="30.935305412124666" lon="113.55737645162823">
        <ele>30.372574869543314</ele>
        <time>2022-09-22T13:01:24Z</time>
      </trkpt>
      <trkpt lat="30.935039834738113" lon="113.55745616294917">
        <ele>30.033572241663933</ele>
        <time>2022-09-22T13:01:40Z</time>
        <extensions>
          <gpxtpx:TrackPointExtension>
            <gpxtpx:hr>147</gpxtpx:hr>
          </gpxtpx:TrackPointExtension>
        </extensions>
      </trkpt>
      <trkpt lat="30.934725197382004" lon="113.5575168279268">
        <ele>30.484144140034914</ele>
        <time>2022-09-22T13:02:00Z</time>
      </trkpt>
      <trkpt lat="30.93465628882046" lon="113.55750725164484">
        <ele>30.204750280827284</ele>
        <time>2022-09-22T13:02:04Z</time>
      </trkpt>
      <trkpt lat="30.93438580707461" lon="113.55751420698253">
        <ele>32.343770244158804</ele>
        <time>2022-09-22T13:02:20Z</time>
        <extensions>
          <gpxtpx:TrackPointExtension>
            <gpxtpx:hr>150</gpxtpx:hr>
          </gpxtpx:TrackPointExtension>
        </extensions>
      </trkpt>
      <trkpt lat="30.93423603221794" lon="113.55752650234871">
        <ele>31.46592652797699</ele>
        <time>2022-09-22T13:02:29Z</time>
        <extensions>
          <gpxtpx:TrackPointExtension>
            <gpxtpx:hr>150</gpxtpx:hr>
          </gpxtpx:TrackPointExtension>
        </extensions>
      </trkpt>
      <trkpt lat="30.933991565809666" lon="113.55748102529506">
        <ele>31.476109078153968</ele>
        <time>2022-09-22T13:02:44Z</time>
      </trkpt>
      <trkpt lat="30.933852215293218" lon="113.55743885431421">
        <ele>31.728644457645714</ele>
        <time>2022-09-22T13:02:53Z</time>
      </trkpt>
      <trkpt lat="30.933687139508848" lon="113.5574228708374">
        <ele>31.061841962859035</ele>
        <time>2022-09-22T13:03:04Z</time>
      </trkpt>
      <trkpt lat="30.9335648874221" lon="113.55737472745497">
        <ele>31.807991268113256</ele>
        <time>2022-09-22T13:03:12Z</time>
      </trkpt>
      <trkpt lat="30.933503583158387" lon="113.55733346995986">
        <ele>31.251927847974002</ele>
        <time>2022-09-22T13:03:16Z</time>
      </trkpt>
      <trkpt lat="30.933259207617755" lon="113.5572465106906">
        <ele>32.54580304212868</ele>
        <time>2022-09-22T13:03:32Z</time>
      </trkpt>
      <trkpt lat="30.93309386997645" lon="113.55714886777173">
        <ele>33.335138369351625</ele>
        <time>2022-09-22T13:03:44Z</time>
      </trkpt>
      <trkpt lat="30.932886037268027" lon="113.55690427085146">
        <ele>32.966003521345556</ele>
        <time>2022-09-22T13:04:04Z</time>
      </trkpt>
      <trkpt lat="30.932728369841914" lon="113.55669596402888">
        <ele>32.16536941938102</ele>
        <time>2022-09-22T13:04:19Z</time>
      </trkpt>
      <trkpt lat="30.932700285627533" lon="113.55663764774653">
        <ele>32.22507437132299</ele>
        <time>2022-09-22T13:04:23Z</time>
      </trkpt>
      <trkpt lat="30.932629702891187" lon="113.55655223458807">
        <ele>33.29367535095662</ele>
        <time>2022-09-22T13:04:31Z</time>
      </trkpt>
      <trkpt lat="30.932573017895553" lon="113.5565907300661">
        <ele>33.53223163820803</ele>
        <time>2022-09-22T13:04:35Z</time>
      </trkpt>
      <trkpt lat="30.932534094711066" lon="113.55683737495953">
        <ele>31.663895215839148</ele>
        <time>2022-09-22T13:04:51Z</time>
      </trkpt>
      <trkpt lat="30.932561426292377" lon="113.55700715252658">
        <ele>31.933808997273445</ele>
        <time>2022-09-22T13:05:03Z</time>
      </trkpt>
      <trkpt lat="30.932536135426183" lon="113.55733061410535">
        <ele>30.225521620362997</ele>
        <time>2022-09-22T13:05:27Z</time>
      </trkpt>
      <trkpt lat="30.932497232194528" lon="113.55767440035066">
        <ele>29.963516105897725</ele>
        <time>2022-09-22T13:05:51Z</time>
      </trkpt>
      <trkpt lat="30.93248774293828" lon="113.55772763342578">
        <ele>30.25260535441339</ele>
        <time>2022-09-22T13:05:55Z</time>
      </trkpt>
      <trkpt lat="30.932575629866868" lon="113.55787499788433">
        <ele>29.83020185586065</ele>
        <time>2022-09-22T13:06:07Z</time>
      </trkpt>
      <trkpt lat="30.932631990738965" lon="113.55790362136416">
        <ele>29.635576715692878</ele>
        <time>2022-09-22T13:06:11Z</time>
      </trkpt>
      <trkpt lat="30.93266133500178" lon="113.55794664558631">
        <ele>31.448060911148787</ele>
        <time>2022-09-22T13:06:15Z</time>
      </trkpt>
      <trkpt lat="30.932951152010443" lon="113.55800673721149">
        <ele>30.53763611894101</ele>
        <time>2022-09-22T13:06:32Z</time>
      </trkpt>
      <trkpt lat="30.933236094990598" lon="113.55807295841254">
        <ele>29.507687711156905</ele>
        <time>2022-09-22T13:06:45Z</time>
      </trkpt>
      <trkpt lat="30.933299203242843" lon="113.55809761732752">
        <ele>29.482094020582736</ele>
        <time>2022-09-22T13:06:48Z</time>
      </trkpt>
      <trkpt lat="30.933383614606043" lon="113.55809863962781">
        <ele>28.797159274108708</ele>
        <time>2022-09-22T13:06:52Z</time>
      </trkpt>
      <trkpt lat="30.933464519359386" lon="113.55813717602264">
        <ele>29.34109852835536</ele>
        <time>2022-09-22T13:06:56Z</time>
      </trkpt>
      <trkpt lat="30.933767130498836" lon="113.55818732016041">
        <ele>29.48133599292487</ele>
        <time>2022-09-22T13:07:12Z</time>
      </trkpt>
      <trkpt lat="30.934030705651896" lon="113.55822506803959">
        <ele>30.455094115808606</ele>
        <time>2022-09-22T13:07:28Z</time>
      </trkpt>
      <trkpt lat="30.93408352600803" lon="113.5582989177444">
        <ele>29.754497800953686</ele>
        <time>2022-09-22T13:07:32Z</time>
      </trkpt>
      <trkpt lat="30.934241905268845" lon="113.55830023835738">
        <ele>31.269663838669658</ele>
        <time>2022-09-22T13:07:40Z</time>
        <extensions>
          <gpxtpx:TrackPointExtension>
            <gpxtpx:hr>148</gpxtpx:hr>
          </gpxtpx:TrackPointExtension>
        </extensions>
      </trkpt>
      <trkpt lat="30.93437768731047" lon="113.55834616640658">
        <ele>31.637091643176973</ele>
        <time>2022-09-22T13:07:48Z</time>
        <extensions>
          <gpxtpx:TrackPointExtension>
            <gpxtpx:hr>148</gpxtpx:hr>
          </gpxtpx:TrackPointExtension>
        </extensions>
      </trkpt>
      <trkpt lat="30.934663418488" lon="113.5583650448858">
        <ele>31.82336492743343</ele>
        <time>2022-09-22T13:08:04Z</time>
      </trkpt>
      <trkpt lat="30.93486554958878" lon="113.55838972599182">
        <ele>31.926679883152246</ele>
        <time>2022-09-22T13:08:16Z</time>
      </trkpt>
      <trkpt lat="30.934999097599587" lon="113.55834221806138">
        <ele>31.936442183330655</ele>
        <time>2022-09-22T13:08:24Z</time>
      </trkpt>
      <trkpt lat="30.935122361427467" lon="113.55837427837317">
        <ele>31.153438325040042</ele>
        <time>2022-09-22T13:08:31Z</time>
      </trkpt>
      <trkpt lat="30.93539715950507" lon="113.55833499102133">
        <ele>30.936630538664758</ele>
        <time>2022-09-22T13:08:47Z</time>
        <extensions>
          <gpxtpx:TrackPointExtension>
            <gpxtpx:hr>148</gpxtpx:hr>
          </gpxtpx:TrackPointExtension>
        </extensions>
      </trkpt>
      <trkpt lat="30.935603751675266" lon="113.55831220214955">
        <ele>32.364196167327464</ele>
        <time>2022-09-22T13:08:59Z</time>
      </trkpt>
      <trkpt lat="30.935665405066306" lon="113.55832793344688">
        <ele>32.34219828620553</ele>
        <time>2022-09-22T13:09:03Z</time>
      </trkpt>
      <trkpt lat="30.93586543606478" lon="113.55821678532948">
        <ele>31.054033528082073</ele>
        <time>2022-09-22T13:09:15Z</time>
      </trkpt>
      <trkpt lat="30.9360686940399" lon="113.557984197933">
        <ele>29.98570189345628</ele>
        <time>2022-09-22T13:09:31Z</time>
      </trkpt>
      <trkpt lat="30.93630654725375" lon="113.55774925500086">
        <ele>30.486173847690225</ele>
        <time>2022-09-22T13:09:50Z</time>
      </trkpt>
      <trkpt lat="30.93641705385102" lon="113.55765804796567">
        <ele>30.853951698169112</ele>
        <time>2022-09-22T13:09:58Z</time>
      </trkpt>
      <trkpt lat="30.936659451782994" lon="113.55750193688982">
        <ele>31.921211888082325</ele>
        <time>2022-09-22T13:10:14Z</time>
      </trkpt>
      <trkpt lat="30.93672836040406" lon="113.55746240950833">
        <ele>31.887300055474043</ele>
        <time>2022-09-22T13:10:18Z</time>
      </trkpt>
      <trkpt lat="30.93676793175922" lon="113.55739659765099">
        <ele>31.97281412873417</ele>
        <time>2022-09-22T13:10:22Z</time>
      </trkpt>
      <trkpt lat="30.936959620158117" lon="113.55720792282426">
        <ele>31.258176702074707</ele>
        <time>2022-09-22T13:10:37Z</time>
      </trkpt>
      <trkpt lat="30.937112233003194" lon="113.5570041892871">
        <ele>33.81846879143268</ele>
        <time>2022-09-22T13:10:52Z</time>
      </trkpt>
      <trkpt lat="30.937202283237113" lon="113.55680909726482">
        <ele>31.851894257590175</ele>
        <time>2022-09-22T13:11:03Z</time>
      </trkpt>
      <trkpt lat="30.93725905501519" lon="113.55657810268791">
        <ele>31.804760318249464</ele>
        <time>2022-09-22T13:11:15Z</time>
      </trkpt>
      <trkpt lat="30.937278470514176" lon="113.55625972876626">
        <ele>32.94075976125896</ele>
        <time>2022-09-22T13:11:31Z</time>
      </trkpt>
      <trkpt lat="30.937250952923257" lon="113.55593877678984">
        <ele>33.17737258691341</ele>
        <time>2022-09-22T13:11:47Z</time>
        <extensions>
          <gpxtpx:TrackPointExtension>
            <gpxtpx:hr>148</gpxtpx:hr>
          </gpxtpx:TrackPointExtension>
        </extensions>
      </trkpt>
      <trkpt lat="30.937186478497956" lon="113.55570108821948">
        <ele>34.39449949469417</ele>
        <time>2022-09-22T13:11:59Z</time>
        <extensions>
          <gpxtpx:TrackPointExtension>
            <gpxtpx:hr>148</gpxtpx:hr>
          </gpxtpx:TrackPointExtension>
        </extensions>
      </trkpt>
      <trkpt lat="30.937045456378403" lon="113.55541789402186">
        <ele>33.7893829671666</ele>
        <time>2022-09-22T13:12:15Z</time>
      </trkpt>
      <trkpt lat="30.937061980170437" lon="113.55535890384925">
        <ele>32.65731427818537</ele>
        <time>2022-09-22T13:12:19Z</time>
      </trkpt>
      <trkpt lat="30.937281941045033" lon="113.55542402266731">
        <ele>31.503421008586884</ele>
        <time>2022-09-22T13:12:38Z</time>
      </trkpt>
      <trkpt lat="30.937415089673053" lon="113.55542180515774">
        <ele>31.67970623448491</ele>
        <time>2022-09-22T13:12:49Z</time>
      </trkpt>
      <trkpt lat="30.93741550163474" lon="113.55550235642288">
        <ele>31.725327463820577</ele>
        <time>2022-09-22T13:12:57Z</time>
      </trkpt>
      <trkpt lat="30.937310583635135" lon="113.55548291684026">
        <ele>32.64223318453878</ele>
        <time>2022-09-22T13:13:05Z</time>
      </trkpt>
      <trkpt lat="30.93716255525856" lon="113.55552521709754">
        <ele>31.660513191483915</ele>
        <time>2022-09-22T13:13:17Z</time>
      </trkpt>
      <trkpt lat="30.937136354276877" lon="113.55559911430973">
        <ele>31.435564326122403</ele>
        <time>2022-09-22T13:13:21Z</time>
      </trkpt>
      <trkpt lat="30.937222568482586" lon="113.55591580243873">
        <ele>33.08476757071912</ele>
        <time>2022-09-22T13:13:37Z</time>
      </trkpt>
      <trkpt lat="30.9372877241479" lon="113.55614408436247">
        <ele>32.989822811447084</ele>
        <time>2022-09-22T13:13:49Z</time>
      </trkpt>
      <trkpt lat="30.937295211959963" lon="113.55646653620772">
        <ele>32.80317385029048</ele>
        <time>2022-09-22T13:14:04Z</time>
      </trkpt>
      <trkpt lat="30.93724557383732" lon="113.55670386195564">
        <ele>32.807721371762455</ele>
        <time>2022-09-22T13:14:16Z</time>
      </trkpt>
      <trkpt lat="30.937136500170734" lon="113.55700852841221">
        <ele>32.90804683510214</ele>
        <time>2022-09-22T13:14:32Z</time>
        <extensions>
          <gpxtpx:TrackPointExtension>
            <gpxtpx:hr>147</gpxtpx:hr>
          </gpxtpx:TrackPointExtension>
        </extensions>
      </trkpt>
      <trkpt lat="30.937026847313568" lon="113.55721096818166">
        <ele>32.79823963716626</ele>
        <time>2022-09-22T13:14:44Z</time>
        <extensions>
          <gpxtpx:TrackPointExtension>
            <gpxtpx:hr>147</gpxtpx:hr>
          </gpxtpx:TrackPointExtension>
        </extensions>
      </trkpt>
      <trkpt lat="30.93701225410232" lon="113.55726921965864">
        <ele>32.938783512450755</ele>
        <time>2022-09-22T13:14:47Z</time>
      </trkpt>
      <trkpt lat="30.937022567784442" lon="113.55744802522844">
        <ele>32.52548363432288</ele>
        <time>2022-09-22T13:14:56Z</time>
        <extensions>
          <gpxtpx:TrackPointExtension>
            <gpxtpx:hr>148</gpxtpx:hr>
          </gpxtpx:TrackPointExtension>
        </extensions>
      </trkpt>
      <trkpt lat="30.937014798879286" lon="113.55763450229855">
        <ele>32.84127243142575</ele>
        <time>2022-09-22T13:15:05Z</time>
        <extensions>
          <gpxtpx:TrackPointExtension>
            <gpxtpx:hr>148</gpxtpx:hr>
          </gpxtpx:TrackPointExtension>
        </extensions>
      </trkpt>
      <trkpt lat="30.9370844630875" lon="113.55774225501662">
        <ele>32.85573543421924</ele>
        <time>2022-09-22T13:15:11Z</time>
      </trkpt>
      <trkpt lat="30.93723515434992" lon="113.55779633849434">
        <ele>32.829026741907</ele>
        <time>2022-09-22T13:15:19Z</time>
      </trkpt>
      <trkpt lat="30.93731309206328" lon="113.5577905220564">
        <ele>32.67546276003122</ele>
        <time>2022-09-22T13:15:23Z</time>
      </trkpt>
      <trkpt lat="30.937384130333953" lon="113.55780974341212">
        <ele>32.52590882126242</ele>
        <time>2022-09-22T13:15:27Z</time>
      </trkpt>
      <trkpt lat="30.93741451331731" lon="113.55771155256214">
        <ele>33.40972606278956</ele>
        <time>2022-09-22T13:15:31Z</time>
      </trkpt>
      <trkpt lat="30.937423632355294" lon="113.5575888693665">
        <ele>32.972724677063525</ele>
        <time>2022-09-22T13:15:35Z</time>
      </trkpt>
      <trkpt lat="30.937580544667" lon="113.5572986259259">
        <ele>30.411448948085308</ele>
        <time>2022-09-22T13:15:47Z</time>
        <extensions>
          <gpxtpx:TrackPointExtension>
            <gpxtpx:hr>155</gpxtpx:hr>
          </gpxtpx:TrackPointExtension>
        </extensions>
      </trkpt>
      <trkpt lat="30.937616298699382" lon="113.55724001068803">
        <ele>30.399226217530668</ele>
        <time>2022-09-22T13:15:51Z</time>
        <extensions>
          <gpxtpx:TrackPointExtension>
            <gpxtpx:hr>155</gpxtpx:hr>
          </gpxtpx:TrackPointExtension>
        </extensions>
      </trkpt>
      <trkpt lat="30.937640446696395" lon="113.55702120842969">
        <ele>31.917879126966</ele>
        <time>2022-09-22T13:16:03Z</time>
        <extensions>
          <gpxtpx:TrackPointExtension>
            <gpxtpx:hr>152</gpxtpx:hr>
          </gpxtpx:TrackPointExtension>
        </extensions>
      </trkpt>
      <trkpt lat="30.937628719495027" lon="113.55691782266652">
        <ele>31.39079828746617</ele>
        <time>2022-09-22T13:16:07Z</time>
        <extensions>
          <gpxtpx:TrackPointExtension>
            <gpxtpx:hr>152</gpxtpx:hr>
          </gpxtpx:TrackPointExtension>
        </extensions>
      </trkpt>
      <trkpt lat="30.937638991420027" lon="113.55682771854885">
        <ele>31.91188559215516</ele>
        <time>2022-09-22T13:16:11Z</time>
        <extensions>
          <gpxtpx:TrackPointExtension>
            <gpxtpx:hr>152</gpxtpx:hr>
          </gpxtpx:TrackPointExtension>
        </extensions>
      </trkpt>
      <trkpt lat="30.937609427575666" lon="113.55672421623456">
        <ele>32.0941215576604</ele>
        <time>2022-09-22T13:16:15Z</time>
        <extensions>
          <gpxtpx:TrackPointExtension>
            <gpxtpx:hr>152</gpxtpx:hr>
          </gpxtpx:TrackPointExtension>
        </extensions>
      </trkpt>
      <trkpt lat="30.93752076804111" lon="113.55658177674823">
        <ele>32.527712686918676</ele>
        <time>2022-09-22T13:16:23Z</time>
        <extensions>
          <gpxtpx:TrackPointExtension>
            <gpxtpx:hr>152</gpxtpx:hr>
          </gpxtpx:TrackPointExtension>
        </extensions>
      </trkpt>
      <trkpt lat="30.937555184850403" lon="113.55639241969624">
        <ele>31.993514358997345</ele>
        <time>2022-09-22T13:16:35Z</time>
        <extensions>
          <gpxtpx:TrackPointExtension>
            <gpxtpx:hr>152</gpxtpx:hr>
          </gpxtpx:TrackPointExtension>
        </extensions>
      </trkpt>
      <trkpt lat="30.937526041793276" lon="113.55611553071415">
        <ele>32.70919777080417</ele>
        <time>2022-09-22T13:16:50Z</time>
        <extensions>
          <gpxtpx:TrackPointExtension>
            <gpxtpx:hr>153</gpxtpx:hr>
          </gpxtpx:TrackPointExtension>
        </extensions>
      </trkpt>
      <trkpt lat="30.937559174535206" lon="113.55602486207957">
        <ele>31.94456811901182</ele>
        <time>2022-09-22T13:16:56Z</time>
        <extensions>
          <gpxtpx:TrackPointExtension>
            <gpxtpx:hr>153</gpxtpx:hr>
          </gpxtpx:TrackPointExtension>
        </extensions>
      </trkpt>
      <trkpt lat="30.937565857513114" lon="113.5561222603972">
        <ele>32.95861567929387</ele>
        <time>2022-09-22T13:17:00Z</time>
        <extensions>
          <gpxtpx:TrackPointExtension>
            <gpxtpx:hr>153</gpxtpx:hr>
          </gpxtpx:TrackPointExtension>
        </extensions>
      </trkpt>
      <trkpt lat="30.937565857513114" lon="113.5561222603972">
        <ele>32.95861567929387</ele>
        <time>2022-09-22T13:17:02Z</time>
        <extensions>
          <gpxtpx:TrackPointExtension>
            <gpxtpx:hr>153</gpxtpx:hr>
          </gpxtpx:TrackPointExtension>
        </extensions>
      </trkpt>
    </trkseg>
  </trk>
</gpx>