<?xml version="1.0" encoding="UTF-8"?>
<gpx xmlns="http://www.topografix.com/GPX/1/1" xmlns:gpxtpx="http://www.garmin.com/xmlschemas/TrackPointExtension/v1" xmlns:xsi="http://www.w3.org/2001/XMLSchema-instance" xsi:schemaLocation="http://www.topografix.com/GPX/1/1 http://www.topografix.com/GPX/1/1/gpx.xsd" version="1.1" creator="gpx.py -- https://github.com/tkrajina/gpxpy">
  <trk>
    <name>gpx from keep</name>
    <type>Run</type>
    <trkseg>
      <trkpt lat="30.93493975968425" lon="113.5510598589795">
        <ele>34.54525375366211</ele>
        <time>2022-10-29T13:21:59Z</time>
      </trkpt>
      <trkpt lat="30.93493975968425" lon="113.5510598589795">
        <ele>34.54525375366211</ele>
        <time>2022-10-29T13:22:01Z</time>
      </trkpt>
      <trkpt lat="30.934973794884872" lon="113.55103874187314">
        <ele>33.06563949584961</ele>
        <time>2022-10-29T13:22:03Z</time>
      </trkpt>
      <trkpt lat="30.935008271129306" lon="113.55098152126247">
        <ele>32.858730770647526</ele>
        <time>2022-10-29T13:22:07Z</time>
      </trkpt>
      <trkpt lat="30.93512195697115" lon="113.5508945269838">
        <ele>32.76205090619624</ele>
        <time>2022-10-29T13:22:15Z</time>
      </trkpt>
      <trkpt lat="30.934881347138077" lon="113.55115454351245">
        <ele>30.373091232031584</ele>
        <time>2022-10-29T13:22:35Z</time>
      </trkpt>
      <trkpt lat="30.934807256545227" lon="113.55131166436396">
        <ele>30.03544635232538</ele>
        <time>2022-10-29T13:22:43Z</time>
      </trkpt>
      <trkpt lat="30.934779773583156" lon="113.55154057086708">
        <ele>30.7317046970129</ele>
        <time>2022-10-29T13:22:55Z</time>
      </trkpt>
      <trkpt lat="30.934835956093973" lon="113.55177921625084">
        <ele>30.367052167654037</ele>
        <time>2022-10-29T13:23:07Z</time>
      </trkpt>
      <trkpt lat="30.934959167893954" lon="113.5520781151178">
        <ele>30.775813221000135</ele>
        <time>2022-10-29T13:23:23Z</time>
      </trkpt>
      <trkpt lat="30.935085018339947" lon="113.55237934032324">
        <ele>30.512426130473614</ele>
        <time>2022-10-29T13:23:39Z</time>
      </trkpt>
      <trkpt lat="30.935224529852686" lon="113.55271662385029">
        <ele>31.729425166733563</ele>
        <time>2022-10-29T13:23:59Z</time>
        <extensions>
          <gpxtpx:TrackPointExtension>
            <gpxtpx:hr>138</gpxtpx:hr>
          </gpxtpx:TrackPointExtension>
        </extensions>
      </trkpt>
      <trkpt lat="30.93535808479938" lon="113.55304536269757">
        <ele>31.290565380826592</ele>
        <time>2022-10-29T13:24:17Z</time>
        <extensions>
          <gpxtpx:TrackPointExtension>
            <gpxtpx:hr>141</gpxtpx:hr>
          </gpxtpx:TrackPointExtension>
        </extensions>
      </trkpt>
      <trkpt lat="30.93553899664382" lon="113.55334070986919">
        <ele>31.637481052428484</ele>
        <time>2022-10-29T13:24:35Z</time>
        <extensions>
          <gpxtpx:TrackPointExtension>
            <gpxtpx:hr>141</gpxtpx:hr>
          </gpxtpx:TrackPointExtension>
        </extensions>
      </trkpt>
      <trkpt lat="30.93570199457954" lon="113.55361136558341">
        <ele>30.6431265482679</ele>
        <time>2022-10-29T13:24:51Z</time>
        <extensions>
          <gpxtpx:TrackPointExtension>
            <gpxtpx:hr>142</gpxtpx:hr>
          </gpxtpx:TrackPointExtension>
        </extensions>
      </trkpt>
      <trkpt lat="30.93587896492744" lon="113.55385833500729">
        <ele>30.532669828273356</ele>
        <time>2022-10-29T13:25:07Z</time>
        <extensions>
          <gpxtpx:TrackPointExtension>
            <gpxtpx:hr>139</gpxtpx:hr>
          </gpxtpx:TrackPointExtension>
        </extensions>
      </trkpt>
      <trkpt lat="30.936033657854395" lon="113.55414395965954">
        <ele>30.206024100072682</ele>
        <time>2022-10-29T13:25:23Z</time>
        <extensions>
          <gpxtpx:TrackPointExtension>
            <gpxtpx:hr>145</gpxtpx:hr>
          </gpxtpx:TrackPointExtension>
        </extensions>
      </trkpt>
      <trkpt lat="30.93620803856226" lon="113.55446147991854">
        <ele>31.014659917913377</ele>
        <time>2022-10-29T13:25:43Z</time>
        <extensions>
          <gpxtpx:TrackPointExtension>
            <gpxtpx:hr>142</gpxtpx:hr>
          </gpxtpx:TrackPointExtension>
        </extensions>
      </trkpt>
      <trkpt lat="30.936326282719776" lon="113.55465887723008">
        <ele>31.097716585732996</ele>
        <time>2022-10-29T13:25:55Z</time>
        <extensions>
          <gpxtpx:TrackPointExtension>
            <gpxtpx:hr>142</gpxtpx:hr>
          </gpxtpx:TrackPointExtension>
        </extensions>
      </trkpt>
      <trkpt lat="30.93646330675705" lon="113.55493627023618">
        <ele>31.696994771249592</ele>
        <time>2022-10-29T13:26:11Z</time>
        <extensions>
          <gpxtpx:TrackPointExtension>
            <gpxtpx:hr>143</gpxtpx:hr>
          </gpxtpx:TrackPointExtension>
        </extensions>
      </trkpt>
      <trkpt lat="30.93660557961695" lon="113.55523348249454">
        <ele>30.62432889919728</ele>
        <time>2022-10-29T13:26:29Z</time>
        <extensions>
          <gpxtpx:TrackPointExtension>
            <gpxtpx:hr>142</gpxtpx:hr>
          </gpxtpx:TrackPointExtension>
        </extensions>
      </trkpt>
      <trkpt lat="30.93674631983645" lon="113.55550603605947">
        <ele>30.270938181318343</ele>
        <time>2022-10-29T13:26:45Z</time>
        <extensions>
          <gpxtpx:TrackPointExtension>
            <gpxtpx:hr>143</gpxtpx:hr>
          </gpxtpx:TrackPointExtension>
        </extensions>
      </trkpt>
      <trkpt lat="30.93686239143493" lon="113.5557759948993">
        <ele>32.40150268934667</ele>
        <time>2022-10-29T13:27:01Z</time>
        <extensions>
          <gpxtpx:TrackPointExtension>
            <gpxtpx:hr>140</gpxtpx:hr>
          </gpxtpx:TrackPointExtension>
        </extensions>
      </trkpt>
      <trkpt lat="30.93694568700567" lon="113.55606784320373">
        <ele>32.283141617663205</ele>
        <time>2022-10-29T13:27:21Z</time>
        <extensions>
          <gpxtpx:TrackPointExtension>
            <gpxtpx:hr>139</gpxtpx:hr>
          </gpxtpx:TrackPointExtension>
        </extensions>
      </trkpt>
      <trkpt lat="30.936978714910456" lon="113.55610746600438">
        <ele>31.690309854224324</ele>
        <time>2022-10-29T13:27:25Z</time>
        <extensions>
          <gpxtpx:TrackPointExtension>
            <gpxtpx:hr>136</gpxtpx:hr>
          </gpxtpx:TrackPointExtension>
        </extensions>
      </trkpt>
      <trkpt lat="30.937010413771553" lon="113.55620534743952">
        <ele>32.11212437413633</ele>
        <time>2022-10-29T13:27:33Z</time>
        <extensions>
          <gpxtpx:TrackPointExtension>
            <gpxtpx:hr>131</gpxtpx:hr>
          </gpxtpx:TrackPointExtension>
        </extensions>
      </trkpt>
      <trkpt lat="30.937024812425335" lon="113.55654113557472">
        <ele>32.33234237320721</ele>
        <time>2022-10-29T13:27:57Z</time>
        <extensions>
          <gpxtpx:TrackPointExtension>
            <gpxtpx:hr>126</gpxtpx:hr>
          </gpxtpx:TrackPointExtension>
        </extensions>
      </trkpt>
      <trkpt lat="30.937023579670075" lon="113.55664036959513">
        <ele>32.35787526424974</ele>
        <time>2022-10-29T13:28:04Z</time>
        <extensions>
          <gpxtpx:TrackPointExtension>
            <gpxtpx:hr>119</gpxtpx:hr>
          </gpxtpx:TrackPointExtension>
        </extensions>
      </trkpt>
      <trkpt lat="30.936985709604922" lon="113.55677689285791">
        <ele>31.67996090836823</ele>
        <time>2022-10-29T13:28:12Z</time>
        <extensions>
          <gpxtpx:TrackPointExtension>
            <gpxtpx:hr>119</gpxtpx:hr>
          </gpxtpx:TrackPointExtension>
        </extensions>
      </trkpt>
      <trkpt lat="30.93682450628955" lon="113.55703702179436">
        <ele>31.482754856348038</ele>
        <time>2022-10-29T13:28:28Z</time>
        <extensions>
          <gpxtpx:TrackPointExtension>
            <gpxtpx:hr>131</gpxtpx:hr>
          </gpxtpx:TrackPointExtension>
        </extensions>
      </trkpt>
      <trkpt lat="30.936616225353877" lon="113.5573001137662">
        <ele>33.03442861326039</ele>
        <time>2022-10-29T13:28:46Z</time>
        <extensions>
          <gpxtpx:TrackPointExtension>
            <gpxtpx:hr>134</gpxtpx:hr>
          </gpxtpx:TrackPointExtension>
        </extensions>
      </trkpt>
      <trkpt lat="30.936367150045733" lon="113.5574857651853">
        <ele>31.60408271756023</ele>
        <time>2022-10-29T13:29:04Z</time>
        <extensions>
          <gpxtpx:TrackPointExtension>
            <gpxtpx:hr>136</gpxtpx:hr>
          </gpxtpx:TrackPointExtension>
        </extensions>
      </trkpt>
      <trkpt lat="30.936187394250048" lon="113.55758824779717">
        <ele>31.53348875232041</ele>
        <time>2022-10-29T13:29:16Z</time>
        <extensions>
          <gpxtpx:TrackPointExtension>
            <gpxtpx:hr>135</gpxtpx:hr>
          </gpxtpx:TrackPointExtension>
        </extensions>
      </trkpt>
      <trkpt lat="30.93595386929469" lon="113.55783857199997">
        <ele>31.625283581204712</ele>
        <time>2022-10-29T13:29:35Z</time>
        <extensions>
          <gpxtpx:TrackPointExtension>
            <gpxtpx:hr>138</gpxtpx:hr>
          </gpxtpx:TrackPointExtension>
        </extensions>
      </trkpt>
      <trkpt lat="30.93585289435989" lon="113.55795215385852">
        <ele>31.74323311354965</ele>
        <time>2022-10-29T13:29:43Z</time>
        <extensions>
          <gpxtpx:TrackPointExtension>
            <gpxtpx:hr>142</gpxtpx:hr>
          </gpxtpx:TrackPointExtension>
        </extensions>
      </trkpt>
      <trkpt lat="30.93561260123211" lon="113.5580868828367">
        <ele>31.355012483894825</ele>
        <time>2022-10-29T13:29:59Z</time>
        <extensions>
          <gpxtpx:TrackPointExtension>
            <gpxtpx:hr>138</gpxtpx:hr>
          </gpxtpx:TrackPointExtension>
        </extensions>
      </trkpt>
      <trkpt lat="30.935353343070787" lon="113.5581859194223">
        <ele>30.455793811008334</ele>
        <time>2022-10-29T13:30:15Z</time>
        <extensions>
          <gpxtpx:TrackPointExtension>
            <gpxtpx:hr>139</gpxtpx:hr>
          </gpxtpx:TrackPointExtension>
        </extensions>
      </trkpt>
      <trkpt lat="30.93511687380718" lon="113.55822874628143">
        <ele>29.852365230210125</ele>
        <time>2022-10-29T13:30:31Z</time>
        <extensions>
          <gpxtpx:TrackPointExtension>
            <gpxtpx:hr>139</gpxtpx:hr>
          </gpxtpx:TrackPointExtension>
        </extensions>
      </trkpt>
      <trkpt lat="30.934817448537764" lon="113.55823563858982">
        <ele>31.453523066826165</ele>
        <time>2022-10-29T13:30:49Z</time>
        <extensions>
          <gpxtpx:TrackPointExtension>
            <gpxtpx:hr>139</gpxtpx:hr>
          </gpxtpx:TrackPointExtension>
        </extensions>
      </trkpt>
      <trkpt lat="30.934720436403335" lon="113.55822448342454">
        <ele>30.435522315092385</ele>
        <time>2022-10-29T13:30:55Z</time>
        <extensions>
          <gpxtpx:TrackPointExtension>
            <gpxtpx:hr>142</gpxtpx:hr>
          </gpxtpx:TrackPointExtension>
        </extensions>
      </trkpt>
      <trkpt lat="30.934488911901383" lon="113.55815528964065">
        <ele>30.118773005902767</ele>
        <time>2022-10-29T13:31:10Z</time>
        <extensions>
          <gpxtpx:TrackPointExtension>
            <gpxtpx:hr>140</gpxtpx:hr>
          </gpxtpx:TrackPointExtension>
        </extensions>
      </trkpt>
      <trkpt lat="30.93435787087901" lon="113.5581593750261">
        <ele>29.774516544304788</ele>
        <time>2022-10-29T13:31:18Z</time>
        <extensions>
          <gpxtpx:TrackPointExtension>
            <gpxtpx:hr>140</gpxtpx:hr>
          </gpxtpx:TrackPointExtension>
        </extensions>
      </trkpt>
      <trkpt lat="30.934050773295155" lon="113.55808015803365">
        <ele>29.321667328476906</ele>
        <time>2022-10-29T13:31:38Z</time>
        <extensions>
          <gpxtpx:TrackPointExtension>
            <gpxtpx:hr>137</gpxtpx:hr>
          </gpxtpx:TrackPointExtension>
        </extensions>
      </trkpt>
      <trkpt lat="30.933986045318335" lon="113.55806094546702">
        <ele>29.53314646333456</ele>
        <time>2022-10-29T13:31:42Z</time>
        <extensions>
          <gpxtpx:TrackPointExtension>
            <gpxtpx:hr>137</gpxtpx:hr>
          </gpxtpx:TrackPointExtension>
        </extensions>
      </trkpt>
      <trkpt lat="30.9338470076174" lon="113.55806996027886">
        <ele>30.202341358177364</ele>
        <time>2022-10-29T13:31:50Z</time>
        <extensions>
          <gpxtpx:TrackPointExtension>
            <gpxtpx:hr>136</gpxtpx:hr>
          </gpxtpx:TrackPointExtension>
        </extensions>
      </trkpt>
      <trkpt lat="30.933536969565246" lon="113.557978467647">
        <ele>30.833124638535082</ele>
        <time>2022-10-29T13:32:10Z</time>
        <extensions>
          <gpxtpx:TrackPointExtension>
            <gpxtpx:hr>140</gpxtpx:hr>
          </gpxtpx:TrackPointExtension>
        </extensions>
      </trkpt>
      <trkpt lat="30.933228650847308" lon="113.55792615949845">
        <ele>29.78759214747697</ele>
        <time>2022-10-29T13:32:29Z</time>
        <extensions>
          <gpxtpx:TrackPointExtension>
            <gpxtpx:hr>138</gpxtpx:hr>
          </gpxtpx:TrackPointExtension>
        </extensions>
      </trkpt>
      <trkpt lat="30.932926054557697" lon="113.55782403825637">
        <ele>28.9500795872882</ele>
        <time>2022-10-29T13:32:49Z</time>
        <extensions>
          <gpxtpx:TrackPointExtension>
            <gpxtpx:hr>142</gpxtpx:hr>
          </gpxtpx:TrackPointExtension>
        </extensions>
      </trkpt>
      <trkpt lat="30.93274751066238" lon="113.55770354532422">
        <ele>27.997419936582446</ele>
        <time>2022-10-29T13:33:03Z</time>
        <extensions>
          <gpxtpx:TrackPointExtension>
            <gpxtpx:hr>139</gpxtpx:hr>
          </gpxtpx:TrackPointExtension>
        </extensions>
      </trkpt>
      <trkpt lat="30.932710104232058" lon="113.55766803797277">
        <ele>28.100309138186276</ele>
        <time>2022-10-29T13:33:06Z</time>
        <extensions>
          <gpxtpx:TrackPointExtension>
            <gpxtpx:hr>139</gpxtpx:hr>
          </gpxtpx:TrackPointExtension>
        </extensions>
      </trkpt>
      <trkpt lat="30.932761713608567" lon="113.5577600337988">
        <ele>28.93293126951903</ele>
        <time>2022-10-29T13:33:18Z</time>
        <extensions>
          <gpxtpx:TrackPointExtension>
            <gpxtpx:hr>136</gpxtpx:hr>
          </gpxtpx:TrackPointExtension>
        </extensions>
      </trkpt>
      <trkpt lat="30.933081721287945" lon="113.55793778391157">
        <ele>28.631656053476036</ele>
        <time>2022-10-29T13:33:49Z</time>
        <extensions>
          <gpxtpx:TrackPointExtension>
            <gpxtpx:hr>128</gpxtpx:hr>
          </gpxtpx:TrackPointExtension>
        </extensions>
      </trkpt>
      <trkpt lat="30.93327759036085" lon="113.55799891281481">
        <ele>28.476874242536724</ele>
        <time>2022-10-29T13:34:05Z</time>
        <extensions>
          <gpxtpx:TrackPointExtension>
            <gpxtpx:hr>125</gpxtpx:hr>
          </gpxtpx:TrackPointExtension>
        </extensions>
      </trkpt>
      <trkpt lat="30.933581933042262" lon="113.55808947411613">
        <ele>30.509413198567927</ele>
        <time>2022-10-29T13:34:24Z</time>
        <extensions>
          <gpxtpx:TrackPointExtension>
            <gpxtpx:hr>125</gpxtpx:hr>
          </gpxtpx:TrackPointExtension>
        </extensions>
      </trkpt>
      <trkpt lat="30.93380796848872" lon="113.55810556348116">
        <ele>31.057500400580466</ele>
        <time>2022-10-29T13:34:37Z</time>
        <extensions>
          <gpxtpx:TrackPointExtension>
            <gpxtpx:hr>134</gpxtpx:hr>
          </gpxtpx:TrackPointExtension>
        </extensions>
      </trkpt>
      <trkpt lat="30.933969681265182" lon="113.55810952127112">
        <ele>30.288400114513934</ele>
        <time>2022-10-29T13:34:47Z</time>
        <extensions>
          <gpxtpx:TrackPointExtension>
            <gpxtpx:hr>134</gpxtpx:hr>
          </gpxtpx:TrackPointExtension>
        </extensions>
      </trkpt>
      <trkpt lat="30.934232514894262" lon="113.55818496421124">
        <ele>30.715979325585067</ele>
        <time>2022-10-29T13:35:03Z</time>
        <extensions>
          <gpxtpx:TrackPointExtension>
            <gpxtpx:hr>140</gpxtpx:hr>
          </gpxtpx:TrackPointExtension>
        </extensions>
      </trkpt>
      <trkpt lat="30.934555350214257" lon="113.55822687283512">
        <ele>30.96403964329511</ele>
        <time>2022-10-29T13:35:23Z</time>
        <extensions>
          <gpxtpx:TrackPointExtension>
            <gpxtpx:hr>140</gpxtpx:hr>
          </gpxtpx:TrackPointExtension>
        </extensions>
      </trkpt>
      <trkpt lat="30.934626215096692" lon="113.55822762374027">
        <ele>31.913421142846346</ele>
        <time>2022-10-29T13:35:27Z</time>
        <extensions>
          <gpxtpx:TrackPointExtension>
            <gpxtpx:hr>140</gpxtpx:hr>
          </gpxtpx:TrackPointExtension>
        </extensions>
      </trkpt>
      <trkpt lat="30.934879464345805" lon="113.55827393959318">
        <ele>31.606566090136766</ele>
        <time>2022-10-29T13:35:43Z</time>
        <extensions>
          <gpxtpx:TrackPointExtension>
            <gpxtpx:hr>141</gpxtpx:hr>
          </gpxtpx:TrackPointExtension>
        </extensions>
      </trkpt>
      <trkpt lat="30.935164576897776" lon="113.55824173906457">
        <ele>30.709450846537948</ele>
        <time>2022-10-29T13:35:59Z</time>
        <extensions>
          <gpxtpx:TrackPointExtension>
            <gpxtpx:hr>140</gpxtpx:hr>
          </gpxtpx:TrackPointExtension>
        </extensions>
      </trkpt>
      <trkpt lat="30.935497726456923" lon="113.55817883976829">
        <ele>30.307917923666537</ele>
        <time>2022-10-29T13:36:19Z</time>
        <extensions>
          <gpxtpx:TrackPointExtension>
            <gpxtpx:hr>142</gpxtpx:hr>
          </gpxtpx:TrackPointExtension>
        </extensions>
      </trkpt>
      <trkpt lat="30.935783392338692" lon="113.55803289975894">
        <ele>30.86434959899634</ele>
        <time>2022-10-29T13:36:37Z</time>
        <extensions>
          <gpxtpx:TrackPointExtension>
            <gpxtpx:hr>148</gpxtpx:hr>
          </gpxtpx:TrackPointExtension>
        </extensions>
      </trkpt>
      <trkpt lat="30.93600783968308" lon="113.55782327872535">
        <ele>31.15755281690508</ele>
        <time>2022-10-29T13:36:53Z</time>
        <extensions>
          <gpxtpx:TrackPointExtension>
            <gpxtpx:hr>147</gpxtpx:hr>
          </gpxtpx:TrackPointExtension>
        </extensions>
      </trkpt>
      <trkpt lat="30.93618620515339" lon="113.55761175403796">
        <ele>31.469989803619683</ele>
        <time>2022-10-29T13:37:08Z</time>
        <extensions>
          <gpxtpx:TrackPointExtension>
            <gpxtpx:hr>148</gpxtpx:hr>
          </gpxtpx:TrackPointExtension>
        </extensions>
      </trkpt>
      <trkpt lat="30.936375870825728" lon="113.5574795674653">
        <ele>31.45483880955726</ele>
        <time>2022-10-29T13:37:20Z</time>
        <extensions>
          <gpxtpx:TrackPointExtension>
            <gpxtpx:hr>149</gpxtpx:hr>
          </gpxtpx:TrackPointExtension>
        </extensions>
      </trkpt>
      <trkpt lat="30.936578967799228" lon="113.5573578247489">
        <ele>32.64599573612213</ele>
        <time>2022-10-29T13:37:32Z</time>
        <extensions>
          <gpxtpx:TrackPointExtension>
            <gpxtpx:hr>153</gpxtpx:hr>
          </gpxtpx:TrackPointExtension>
        </extensions>
      </trkpt>
      <trkpt lat="30.936794503790598" lon="113.55715003075876">
        <ele>31.933986647985876</ele>
        <time>2022-10-29T13:37:46Z</time>
        <extensions>
          <gpxtpx:TrackPointExtension>
            <gpxtpx:hr>155</gpxtpx:hr>
          </gpxtpx:TrackPointExtension>
        </extensions>
      </trkpt>
      <trkpt lat="30.93691281700131" lon="113.55701363938527">
        <ele>30.8267711866647</ele>
        <time>2022-10-29T13:37:54Z</time>
        <extensions>
          <gpxtpx:TrackPointExtension>
            <gpxtpx:hr>156</gpxtpx:hr>
          </gpxtpx:TrackPointExtension>
        </extensions>
      </trkpt>
      <trkpt lat="30.936938141273814" lon="113.5569470599205">
        <ele>30.231990886852145</ele>
        <time>2022-10-29T13:37:57Z</time>
        <extensions>
          <gpxtpx:TrackPointExtension>
            <gpxtpx:hr>156</gpxtpx:hr>
          </gpxtpx:TrackPointExtension>
        </extensions>
      </trkpt>
      <trkpt lat="30.9370751250367" lon="113.55693735661137">
        <ele>34.03468522801995</ele>
        <time>2022-10-29T13:38:12Z</time>
        <extensions>
          <gpxtpx:TrackPointExtension>
            <gpxtpx:hr>157</gpxtpx:hr>
          </gpxtpx:TrackPointExtension>
        </extensions>
      </trkpt>
      <trkpt lat="30.937166985226273" lon="113.55676713656592">
        <ele>33.178323491476476</ele>
        <time>2022-10-29T13:38:20Z</time>
        <extensions>
          <gpxtpx:TrackPointExtension>
            <gpxtpx:hr>159</gpxtpx:hr>
          </gpxtpx:TrackPointExtension>
        </extensions>
      </trkpt>
      <trkpt lat="30.93724453035963" lon="113.55654693014507">
        <ele>32.11194489803165</ele>
        <time>2022-10-29T13:38:27Z</time>
        <extensions>
          <gpxtpx:TrackPointExtension>
            <gpxtpx:hr>164</gpxtpx:hr>
          </gpxtpx:TrackPointExtension>
        </extensions>
      </trkpt>
      <trkpt lat="30.937283126367234" lon="113.55632140110568">
        <ele>32.62588023673743</ele>
        <time>2022-10-29T13:38:35Z</time>
        <extensions>
          <gpxtpx:TrackPointExtension>
            <gpxtpx:hr>167</gpxtpx:hr>
          </gpxtpx:TrackPointExtension>
        </extensions>
      </trkpt>
      <trkpt lat="30.937364652287144" lon="113.55601471164283">
        <ele>33.45807501580566</ele>
        <time>2022-10-29T13:38:47Z</time>
        <extensions>
          <gpxtpx:TrackPointExtension>
            <gpxtpx:hr>170</gpxtpx:hr>
          </gpxtpx:TrackPointExtension>
        </extensions>
      </trkpt>
      <trkpt lat="30.937342370082458" lon="113.55580924538137">
        <ele>33.715722650289536</ele>
        <time>2022-10-29T13:38:56Z</time>
        <extensions>
          <gpxtpx:TrackPointExtension>
            <gpxtpx:hr>170</gpxtpx:hr>
          </gpxtpx:TrackPointExtension>
        </extensions>
      </trkpt>
      <trkpt lat="30.937177990862455" lon="113.55548603987548">
        <ele>33.368323852308095</ele>
        <time>2022-10-29T13:39:09Z</time>
        <extensions>
          <gpxtpx:TrackPointExtension>
            <gpxtpx:hr>172</gpxtpx:hr>
          </gpxtpx:TrackPointExtension>
        </extensions>
      </trkpt>
      <trkpt lat="30.93718362980356" lon="113.55542316833767">
        <ele>32.532178927212954</ele>
        <time>2022-10-29T13:39:12Z</time>
        <extensions>
          <gpxtpx:TrackPointExtension>
            <gpxtpx:hr>172</gpxtpx:hr>
          </gpxtpx:TrackPointExtension>
        </extensions>
      </trkpt>
      <trkpt lat="30.937223367301883" lon="113.55539091715671">
        <ele>32.600097646936774</ele>
        <time>2022-10-29T13:39:18Z</time>
        <extensions>
          <gpxtpx:TrackPointExtension>
            <gpxtpx:hr>173</gpxtpx:hr>
          </gpxtpx:TrackPointExtension>
        </extensions>
      </trkpt>
      <trkpt lat="30.937418928377802" lon="113.55544457192121">
        <ele>33.067033825442195</ele>
        <time>2022-10-29T13:39:31Z</time>
        <extensions>
          <gpxtpx:TrackPointExtension>
            <gpxtpx:hr>174</gpxtpx:hr>
          </gpxtpx:TrackPointExtension>
        </extensions>
      </trkpt>
      <trkpt lat="30.93748273020741" lon="113.55561431330001">
        <ele>32.79939551651478</ele>
        <time>2022-10-29T13:39:50Z</time>
        <extensions>
          <gpxtpx:TrackPointExtension>
            <gpxtpx:hr>162</gpxtpx:hr>
          </gpxtpx:TrackPointExtension>
        </extensions>
      </trkpt>
      <trkpt lat="30.937492097265903" lon="113.55589161291232">
        <ele>32.552704620175064</ele>
        <time>2022-10-29T13:40:09Z</time>
        <extensions>
          <gpxtpx:TrackPointExtension>
            <gpxtpx:hr>150</gpxtpx:hr>
          </gpxtpx:TrackPointExtension>
        </extensions>
      </trkpt>
      <trkpt lat="30.937487435670352" lon="113.55627233286117">
        <ele>32.7943208636716</ele>
        <time>2022-10-29T13:40:32Z</time>
        <extensions>
          <gpxtpx:TrackPointExtension>
            <gpxtpx:hr>142</gpxtpx:hr>
          </gpxtpx:TrackPointExtension>
        </extensions>
      </trkpt>
      <trkpt lat="30.937478325885" lon="113.55657203667903">
        <ele>32.695287676528096</ele>
        <time>2022-10-29T13:40:44Z</time>
        <extensions>
          <gpxtpx:TrackPointExtension>
            <gpxtpx:hr>148</gpxtpx:hr>
          </gpxtpx:TrackPointExtension>
        </extensions>
      </trkpt>
      <trkpt lat="30.937489111324894" lon="113.55664650576885">
        <ele>32.31174317933619</ele>
        <time>2022-10-29T13:40:47Z</time>
        <extensions>
          <gpxtpx:TrackPointExtension>
            <gpxtpx:hr>148</gpxtpx:hr>
          </gpxtpx:TrackPointExtension>
        </extensions>
      </trkpt>
      <trkpt lat="30.937489184237904" lon="113.55699624978253">
        <ele>32.51769687794149</ele>
        <time>2022-10-29T13:41:02Z</time>
        <extensions>
          <gpxtpx:TrackPointExtension>
            <gpxtpx:hr>148</gpxtpx:hr>
          </gpxtpx:TrackPointExtension>
        </extensions>
      </trkpt>
      <trkpt lat="30.937450769931175" lon="113.5573436495216">
        <ele>32.23755326215178</ele>
        <time>2022-10-29T13:41:18Z</time>
        <extensions>
          <gpxtpx:TrackPointExtension>
            <gpxtpx:hr>149</gpxtpx:hr>
          </gpxtpx:TrackPointExtension>
        </extensions>
      </trkpt>
      <trkpt lat="30.937429352902225" lon="113.55753243590247">
        <ele>33.51871535461396</ele>
        <time>2022-10-29T13:41:27Z</time>
        <extensions>
          <gpxtpx:TrackPointExtension>
            <gpxtpx:hr>148</gpxtpx:hr>
          </gpxtpx:TrackPointExtension>
        </extensions>
      </trkpt>
      <trkpt lat="30.937391049736927" lon="113.5575761038046">
        <ele>33.28418565168977</ele>
        <time>2022-10-29T13:41:30Z</time>
        <extensions>
          <gpxtpx:TrackPointExtension>
            <gpxtpx:hr>147</gpxtpx:hr>
          </gpxtpx:TrackPointExtension>
        </extensions>
      </trkpt>
      <trkpt lat="30.937394997810696" lon="113.55746537566407">
        <ele>33.13464113231748</ele>
        <time>2022-10-29T13:41:36Z</time>
        <extensions>
          <gpxtpx:TrackPointExtension>
            <gpxtpx:hr>147</gpxtpx:hr>
          </gpxtpx:TrackPointExtension>
        </extensions>
      </trkpt>
      <trkpt lat="30.937485327777324" lon="113.55733487341502">
        <ele>33.59078885335475</ele>
        <time>2022-10-29T13:41:42Z</time>
        <extensions>
          <gpxtpx:TrackPointExtension>
            <gpxtpx:hr>148</gpxtpx:hr>
          </gpxtpx:TrackPointExtension>
        </extensions>
      </trkpt>
      <trkpt lat="30.937540730161793" lon="113.55714615983881">
        <ele>33.916060609743</ele>
        <time>2022-10-29T13:41:51Z</time>
        <extensions>
          <gpxtpx:TrackPointExtension>
            <gpxtpx:hr>151</gpxtpx:hr>
          </gpxtpx:TrackPointExtension>
        </extensions>
      </trkpt>
      <trkpt lat="30.93754961271942" lon="113.55706086982795">
        <ele>33.61372381541878</ele>
        <time>2022-10-29T13:41:55Z</time>
        <extensions>
          <gpxtpx:TrackPointExtension>
            <gpxtpx:hr>149</gpxtpx:hr>
          </gpxtpx:TrackPointExtension>
        </extensions>
      </trkpt>
      <trkpt lat="30.937587662312545" lon="113.55699017902202">
        <ele>31.26143001113087</ele>
        <time>2022-10-29T13:41:59Z</time>
        <extensions>
          <gpxtpx:TrackPointExtension>
            <gpxtpx:hr>146</gpxtpx:hr>
          </gpxtpx:TrackPointExtension>
        </extensions>
      </trkpt>
      <trkpt lat="30.937581131250727" lon="113.55692503524106">
        <ele>31.405394843779504</ele>
        <time>2022-10-29T13:42:06Z</time>
        <extensions>
          <gpxtpx:TrackPointExtension>
            <gpxtpx:hr>146</gpxtpx:hr>
          </gpxtpx:TrackPointExtension>
        </extensions>
      </trkpt>
      <trkpt lat="30.937521188787972" lon="113.55681676929781">
        <ele>32.48700498510152</ele>
        <time>2022-10-29T13:42:13Z</time>
        <extensions>
          <gpxtpx:TrackPointExtension>
            <gpxtpx:hr>148</gpxtpx:hr>
          </gpxtpx:TrackPointExtension>
        </extensions>
      </trkpt>
      <trkpt lat="30.93755075999737" lon="113.55665752715176">
        <ele>32.22619825322181</ele>
        <time>2022-10-29T13:42:25Z</time>
        <extensions>
          <gpxtpx:TrackPointExtension>
            <gpxtpx:hr>146</gpxtpx:hr>
          </gpxtpx:TrackPointExtension>
        </extensions>
      </trkpt>
      <trkpt lat="30.937535302751243" lon="113.55659571737972">
        <ele>33.54884391557425</ele>
        <time>2022-10-29T13:42:29Z</time>
        <extensions>
          <gpxtpx:TrackPointExtension>
            <gpxtpx:hr>146</gpxtpx:hr>
          </gpxtpx:TrackPointExtension>
        </extensions>
      </trkpt>
      <trkpt lat="30.93757160305415" lon="113.55650387611756">
        <ele>31.401516687124968</ele>
        <time>2022-10-29T13:42:33Z</time>
        <extensions>
          <gpxtpx:TrackPointExtension>
            <gpxtpx:hr>149</gpxtpx:hr>
          </gpxtpx:TrackPointExtension>
        </extensions>
      </trkpt>
      <trkpt lat="30.937637631909617" lon="113.55621799858048">
        <ele>32.32099021039903</ele>
        <time>2022-10-29T13:42:47Z</time>
        <extensions>
          <gpxtpx:TrackPointExtension>
            <gpxtpx:hr>149</gpxtpx:hr>
          </gpxtpx:TrackPointExtension>
        </extensions>
      </trkpt>
      <trkpt lat="30.937591466079628" lon="113.55614863265417">
        <ele>32.07851257082075</ele>
        <time>2022-10-29T13:42:54Z</time>
        <extensions>
          <gpxtpx:TrackPointExtension>
            <gpxtpx:hr>151</gpxtpx:hr>
          </gpxtpx:TrackPointExtension>
        </extensions>
      </trkpt>
      <trkpt lat="30.937535328004085" lon="113.55620558691177">
        <ele>30.91997580975294</ele>
        <time>2022-10-29T13:43:00Z</time>
        <extensions>
          <gpxtpx:TrackPointExtension>
            <gpxtpx:hr>151</gpxtpx:hr>
          </gpxtpx:TrackPointExtension>
        </extensions>
      </trkpt>
      <trkpt lat="30.93746771606875" lon="113.5565065436611">
        <ele>32.18688215781003</ele>
        <time>2022-10-29T13:43:19Z</time>
        <extensions>
          <gpxtpx:TrackPointExtension>
            <gpxtpx:hr>147</gpxtpx:hr>
          </gpxtpx:TrackPointExtension>
        </extensions>
      </trkpt>
      <trkpt lat="30.93743726018138" lon="113.55683581439419">
        <ele>31.68675697874278</ele>
        <time>2022-10-29T13:43:39Z</time>
        <extensions>
          <gpxtpx:TrackPointExtension>
            <gpxtpx:hr>141</gpxtpx:hr>
          </gpxtpx:TrackPointExtension>
        </extensions>
      </trkpt>
      <trkpt lat="30.937384768223517" lon="113.55696757903755">
        <ele>32.197654529474676</ele>
        <time>2022-10-29T13:43:47Z</time>
        <extensions>
          <gpxtpx:TrackPointExtension>
            <gpxtpx:hr>140</gpxtpx:hr>
          </gpxtpx:TrackPointExtension>
        </extensions>
      </trkpt>
      <trkpt lat="30.937338884938562" lon="113.55701468986167">
        <ele>32.63598348386586</ele>
        <time>2022-10-29T13:43:51Z</time>
        <extensions>
          <gpxtpx:TrackPointExtension>
            <gpxtpx:hr>140</gpxtpx:hr>
          </gpxtpx:TrackPointExtension>
        </extensions>
      </trkpt>
      <trkpt lat="30.93731461739563" lon="113.55707126734004">
        <ele>33.07336284965277</ele>
        <time>2022-10-29T13:43:55Z</time>
        <extensions>
          <gpxtpx:TrackPointExtension>
            <gpxtpx:hr>141</gpxtpx:hr>
          </gpxtpx:TrackPointExtension>
        </extensions>
      </trkpt>
      <trkpt lat="30.937313061133047" lon="113.55720330134277">
        <ele>32.396380385383964</ele>
        <time>2022-10-29T13:44:02Z</time>
        <extensions>
          <gpxtpx:TrackPointExtension>
            <gpxtpx:hr>140</gpxtpx:hr>
          </gpxtpx:TrackPointExtension>
        </extensions>
      </trkpt>
      <trkpt lat="30.93732826195767" lon="113.55727463655997">
        <ele>32.766611494123936</ele>
        <time>2022-10-29T13:44:06Z</time>
        <extensions>
          <gpxtpx:TrackPointExtension>
            <gpxtpx:hr>139</gpxtpx:hr>
          </gpxtpx:TrackPointExtension>
        </extensions>
      </trkpt>
      <trkpt lat="30.937315057412565" lon="113.557335205617">
        <ele>31.15338701661676</ele>
        <time>2022-10-29T13:44:10Z</time>
        <extensions>
          <gpxtpx:TrackPointExtension>
            <gpxtpx:hr>139</gpxtpx:hr>
          </gpxtpx:TrackPointExtension>
        </extensions>
      </trkpt>
      <trkpt lat="30.937235417153516" lon="113.55744293310465">
        <ele>32.05567145626992</ele>
        <time>2022-10-29T13:44:18Z</time>
        <extensions>
          <gpxtpx:TrackPointExtension>
            <gpxtpx:hr>141</gpxtpx:hr>
          </gpxtpx:TrackPointExtension>
        </extensions>
      </trkpt>
      <trkpt lat="30.937193777896606" lon="113.55741405856553">
        <ele>32.46400609984994</ele>
        <time>2022-10-29T13:44:22Z</time>
        <extensions>
          <gpxtpx:TrackPointExtension>
            <gpxtpx:hr>140</gpxtpx:hr>
          </gpxtpx:TrackPointExtension>
        </extensions>
      </trkpt>
      <trkpt lat="30.937351276537754" lon="113.55712837204844">
        <ele>32.00753542687744</ele>
        <time>2022-10-29T13:44:38Z</time>
        <extensions>
          <gpxtpx:TrackPointExtension>
            <gpxtpx:hr>141</gpxtpx:hr>
          </gpxtpx:TrackPointExtension>
        </extensions>
      </trkpt>
      <trkpt lat="30.937401516814624" lon="113.55704523957883">
        <ele>31.4828067664057</ele>
        <time>2022-10-29T13:44:42Z</time>
        <extensions>
          <gpxtpx:TrackPointExtension>
            <gpxtpx:hr>142</gpxtpx:hr>
          </gpxtpx:TrackPointExtension>
        </extensions>
      </trkpt>
      <trkpt lat="30.937452113982022" lon="113.55700469533801">
        <ele>31.643060519360006</ele>
        <time>2022-10-29T13:44:46Z</time>
        <extensions>
          <gpxtpx:TrackPointExtension>
            <gpxtpx:hr>142</gpxtpx:hr>
          </gpxtpx:TrackPointExtension>
        </extensions>
      </trkpt>
      <trkpt lat="30.937434797698636" lon="113.55692989269643">
        <ele>30.459767662920058</ele>
        <time>2022-10-29T13:44:50Z</time>
        <extensions>
          <gpxtpx:TrackPointExtension>
            <gpxtpx:hr>143</gpxtpx:hr>
          </gpxtpx:TrackPointExtension>
        </extensions>
      </trkpt>
      <trkpt lat="30.937361205621933" lon="113.5567970564468">
        <ele>31.908248459920287</ele>
        <time>2022-10-29T13:44:57Z</time>
        <extensions>
          <gpxtpx:TrackPointExtension>
            <gpxtpx:hr>142</gpxtpx:hr>
          </gpxtpx:TrackPointExtension>
        </extensions>
      </trkpt>
      <trkpt lat="30.937380458391388" lon="113.55673729533574">
        <ele>32.555483222939074</ele>
        <time>2022-10-29T13:45:01Z</time>
        <extensions>
          <gpxtpx:TrackPointExtension>
            <gpxtpx:hr>141</gpxtpx:hr>
          </gpxtpx:TrackPointExtension>
        </extensions>
      </trkpt>
      <trkpt lat="30.937473908146" lon="113.55660553659561">
        <ele>32.23630607314408</ele>
        <time>2022-10-29T13:45:11Z</time>
        <extensions>
          <gpxtpx:TrackPointExtension>
            <gpxtpx:hr>143</gpxtpx:hr>
          </gpxtpx:TrackPointExtension>
        </extensions>
      </trkpt>
      <trkpt lat="30.937477084669617" lon="113.55654349076399">
        <ele>32.79455868527293</ele>
        <time>2022-10-29T13:45:18Z</time>
        <extensions>
          <gpxtpx:TrackPointExtension>
            <gpxtpx:hr>142</gpxtpx:hr>
          </gpxtpx:TrackPointExtension>
        </extensions>
      </trkpt>
      <trkpt lat="30.93739201857766" lon="113.55636645749314">
        <ele>32.35837387852371</ele>
        <time>2022-10-29T13:45:30Z</time>
        <extensions>
          <gpxtpx:TrackPointExtension>
            <gpxtpx:hr>132</gpxtpx:hr>
          </gpxtpx:TrackPointExtension>
        </extensions>
      </trkpt>
      <trkpt lat="30.93738924855561" lon="113.55614404200088">
        <ele>33.01755950599909</ele>
        <time>2022-10-29T13:45:48Z</time>
        <extensions>
          <gpxtpx:TrackPointExtension>
            <gpxtpx:hr>125</gpxtpx:hr>
          </gpxtpx:TrackPointExtension>
        </extensions>
      </trkpt>
      <trkpt lat="30.937411982365745" lon="113.55606544406268">
        <ele>32.992098685353994</ele>
        <time>2022-10-29T13:45:55Z</time>
        <extensions>
          <gpxtpx:TrackPointExtension>
            <gpxtpx:hr>122</gpxtpx:hr>
          </gpxtpx:TrackPointExtension>
        </extensions>
      </trkpt>
      <trkpt lat="30.937489335717896" lon="113.55614909123176">
        <ele>29.869347487576306</ele>
        <time>2022-10-29T13:46:06Z</time>
        <extensions>
          <gpxtpx:TrackPointExtension>
            <gpxtpx:hr>118</gpxtpx:hr>
          </gpxtpx:TrackPointExtension>
        </extensions>
      </trkpt>
      <trkpt lat="30.937489335717896" lon="113.55614909123176">
        <ele>29.869347487576306</ele>
        <time>2022-10-29T13:46:11Z</time>
        <extensions>
          <gpxtpx:TrackPointExtension>
            <gpxtpx:hr>118</gpxtpx:hr>
          </gpxtpx:TrackPointExtension>
        </extensions>
      </trkpt>
    </trkseg>
  </trk>
</gpx>